"STATION","DATE","REPORT_TYPE","SOURCE","AWND","BackupDirection","BackupDistance","BackupDistanceUnit","BackupElements","BackupElevation","BackupElevationUnit","BackupEquipment","BackupLatitude","BackupLongitude","BackupName","CDSD","CLDD","DSNW","DailyAverageDewPointTemperature","DailyAverageDryBulbTemperature","DailyAverageRelativeHumidity","DailyAverageSeaLevelPressure","DailyAverageStationPressure","DailyAverageWetBulbTemperature","DailyAverageWindSpeed","DailyCoolingDegreeDays","DailyDepartureFromNormalAverageTemperature","DailyHeatingDegreeDays","DailyMaximumDryBulbTemperature","DailyMinimumDryBulbTemperature","DailyPeakWindDirection","DailyPeakWindSpeed","DailyPrecipitation","DailySnowDepth","DailySnowfall","DailySustainedWindDirection","DailySustainedWindSpeed","DailyWeather","HDSD","HTDD","HeavyFog","HourlyAltimeterSetting","HourlyDewPointTemperature","HourlyDryBulbTemperature","HourlyPrecipitation","HourlyPresentWeatherType","HourlyPressureChange","HourlyPressureTendency","HourlyRelativeHumidity","HourlySeaLevelPressure","HourlySkyConditions","HourlyStationPressure","HourlyVisibility","HourlyWetBulbTemperature","HourlyWindDirection","HourlyWindGustSpeed","HourlyWindSpeed","MonthlyAverageRH","MonthlyDaysWithGT001Precip","MonthlyDaysWithGT010Precip","MonthlyDaysWithGT32Temp","MonthlyDaysWithGT90Temp","MonthlyDaysWithLT0Temp","MonthlyDaysWithLT32Temp","MonthlyDepartureFromNormalAverageTemperature","MonthlyDepartureFromNormalCoolingDegreeDays","MonthlyDepartureFromNormalHeatingDegreeDays","MonthlyDepartureFromNormalMaximumTemperature","MonthlyDepartureFromNormalMinimumTemperature","MonthlyDepartureFromNormalPrecipitation","MonthlyDewpointTemperature","MonthlyGreatestPrecip","MonthlyGreatestPrecipDate","MonthlyGreatestSnowDepth","MonthlyGreatestSnowDepthDate","MonthlyGreatestSnowfall","MonthlyGreatestSnowfallDate","MonthlyMaxSeaLevelPressureValue","MonthlyMaxSeaLevelPressureValueDate","MonthlyMaxSeaLevelPressureValueTime","MonthlyMaximumTemperature","MonthlyMeanTemperature","MonthlyMinSeaLevelPressureValue","MonthlyMinSeaLevelPressureValueDate","MonthlyMinSeaLevelPressureValueTime","MonthlyMinimumTemperature","MonthlySeaLevelPressure","MonthlyStationPressure","MonthlyTotalLiquidPrecipitation","MonthlyTotalSnowfall","MonthlyWetBulb","NormalsCoolingDegreeDay","NormalsHeatingDegreeDay","REM","REPORT_TYPE","SOURCE","ShortDurationEndDate005","ShortDurationEndDate010","ShortDurationEndDate015","ShortDurationEndDate020","ShortDurationEndDate030","ShortDurationEndDate045","ShortDurationEndDate060","ShortDurationEndDate080","ShortDurationEndDate100","ShortDurationEndDate120","ShortDurationEndDate150","ShortDurationEndDate180","ShortDurationPrecipitationValue005","ShortDurationPrecipitationValue010","ShortDurationPrecipitationValue015","ShortDurationPrecipitationValue020","ShortDurationPrecipitationValue030","ShortDurationPrecipitationValue045","ShortDurationPrecipitationValue060","ShortDurationPrecipitationValue080","ShortDurationPrecipitationValue100","ShortDurationPrecipitationValue120","ShortDurationPrecipitationValue150","ShortDurationPrecipitationValue180","Sunrise","Sunset","TStorms","WindEquipmentChangeDate"
"72493893231","2020-07-01T00:15:00","FM-15","7",,,,,,,,,,,,,,,,,,,,,,,,,,,,,,,,,,,,,,"29.85","52","59",,,,,"77",,"CLR:00","29.84","10.00","55","320",,"3",,,,,,,,,,,,,,,,,,,,,,,,,,,,,,,,,,,,,"MET07307/01/20 00:15:02 METAR KSQL 010815Z 32003KT 10SM CLR 15/11 A2985 RMK AO2","FM-15","7",,,,,,,,,,,,,,,,,,,,,,,,,,,,
"72493893231","2020-07-01T00:20:00","FM-15","7",,,,,,,,,,,,,,,,,,,,,,,,,,,,,,,,,,,,,,"29.85","52","59",,,,,"77",,"CLR:00","29.84","10.00","55","280",,"3",,,,,,,,,,,,,,,,,,,,,,,,,,,,,,,,,,,,,"MET07307/01/20 00:20:02 METAR KSQL 010820Z 28003KT 10SM CLR 15/11 A2985 RMK AO2","FM-15","7",,,,,,,,,,,,,,,,,,,,,,,,,,,,
"72493893231","2020-07-01T00:35:00","FM-15","7",,,,,,,,,,,,,,,,,,,,,,,,,,,,,,,,,,,,,,"29.85","52","59",,,,,"77",,"CLR:00","29.84","10.00","55","270",,"3",,,,,,,,,,,,,,,,,,,,,,,,,,,,,,,,,,,,,"MET07307/01/20 00:35:02 METAR KSQL 010835Z 27003KT 10SM CLR 15/11 A2985 RMK AO2","FM-15","7",,,,,,,,,,,,,,,,,,,,,,,,,,,,
"72493893231","2020-07-01T00:55:00","FM-15","7",,,,,,,,,,,,,,,,,,,,,,,,,,,,,,,,,,,,,,"29.85","52","57",,,,,"82",,"CLR:00","29.84","10.00","54","000",,"0",,,,,,,,,,,,,,,,,,,,,,,,,,,,,,,,,,,,,"MET07307/01/20 00:55:02 METAR KSQL 010855Z 00000KT 10SM CLR 14/11 A2985 RMK AO2","FM-15","7",,,,,,,,,,,,,,,,,,,,,,,,,,,,
"72493893231","2020-07-01T01:15:00","FM-15","7",,,,,,,,,,,,,,,,,,,,,,,,,,,,,,,,,,,,,,"29.84","52","57",,,,,"82",,"CLR:00","29.83","10.00","54","000",,"0",,,,,,,,,,,,,,,,,,,,,,,,,,,,,,,,,,,,,"MET07307/01/20 01:15:02 METAR KSQL 010915Z 00000KT 10SM CLR 14/11 A2984 RMK AO2","FM-15","7",,,,,,,,,,,,,,,,,,,,,,,,,,,,
"72493893231","2020-07-01T01:35:00","FM-15","7",,,,,,,,,,,,,,,,,,,,,,,,,,,,,,,,,,,,,,"29.84","52","57",,,,,"82",,"CLR:00","29.83","10.00","54","000",,"0",,,,,,,,,,,,,,,,,,,,,,,,,,,,,,,,,,,,,"MET07307/01/20 01:35:02 METAR KSQL 010935Z 00000KT 10SM CLR 14/11 A2984 RMK AO2","FM-15","7",,,,,,,,,,,,,,,,,,,,,,,,,,,,
"72493893231","2020-07-01T01:40:00","FM-15","7",,,,,,,,,,,,,,,,,,,,,,,,,,,,,,,,,,,,,,"29.84","52","57",,,,,"82",,"CLR:00","29.83","10.00","54","310",,"3",,,,,,,,,,,,,,,,,,,,,,,,,,,,,,,,,,,,,"MET07307/01/20 01:40:02 METAR KSQL 010940Z 31003KT 10SM CLR 14/11 A2984 RMK AO2","FM-15","7",,,,,,,,,,,,,,,,,,,,,,,,,,,,
"72493893231","2020-07-01T01:55:00","FM-15","7",,,,,,,,,,,,,,,,,,,,,,,,,,,,,,,,,,,,,,"29.84","52","57",,,,,"82",,"FEW:02 14","29.83","10.00","54","000",,"0",,,,,,,,,,,,,,,,,,,,,,,,,,,,,,,,,,,,,"MET07607/01/20 01:55:02 METAR KSQL 010955Z 00000KT 10SM FEW014 14/11 A2984 RMK AO2","FM-15","7",,,,,,,,,,,,,,,,,,,,,,,,,,,,
"72493893231","2020-07-01T02:15:00","FM-15","7",,,,,,,,,,,,,,,,,,,,,,,,,,,,,,,,,,,,,,"29.84","52","57",,,,,"82",,"BKN:07 14","29.83","10.00","54","000",,"0",,,,,,,,,,,,,,,,,,,,,,,,,,,,,,,,,,,,,"MET07607/01/20 02:15:02 METAR KSQL 011015Z 00000KT 10SM BKN014 14/11 A2984 RMK AO2","FM-15","7",,,,,,,,,,,,,,,,,,,,,,,,,,,,
"72493893231","2020-07-01T02:35:00","FM-15","7",,,,,,,,,,,,,,,,,,,,,,,,,,,,,,,,,,,,,,"29.83","54","59",,,,,"82",,"OVC:08 14","29.82","10.00","56","000",,"0",,,,,,,,,,,,,,,,,,,,,,,,,,,,,,,,,,,,,"MET07607/01/20 02:35:02 METAR KSQL 011035Z 00000KT 10SM OVC014 15/12 A2983 RMK AO2","FM-15","7",,,,,,,,,,,,,,,,,,,,,,,,,,,,
"72493893231","2020-07-01T02:55:00","FM-15","7",,,,,,,,,,,,,,,,,,,,,,,,,,,,,,,,,,,,,,"29.83","54","59",,,,,"82",,"OVC:08 14","29.82","10.00","56","240",,"3",,,,,,,,,,,,,,,,,,,,,,,,,,,,,,,,,,,,,"MET07607/01/20 02:55:02 METAR KSQL 011055Z 24003KT 10SM OVC014 15/12 A2983 RMK AO2","FM-15","7",,,,,,,,,,,,,,,,,,,,,,,,,,,,
"72493893231","2020-07-01T03:15:00","FM-15","7",,,,,,,,,,,,,,,,,,,,,,,,,,,,,,,,,,,,,,"29.83","55","59",,,,,"88",,"OVC:08 14","29.82","10.00","57","200",,"3",,,,,,,,,,,,,,,,,,,,,,,,,,,,,,,,,,,,,"MET07607/01/20 03:15:02 METAR KSQL 011115Z 20003KT 10SM OVC014 15/13 A2983 RMK AO2","FM-15","7",,,,,,,,,,,,,,,,,,,,,,,,,,,,
"72493893231","2020-07-01T03:35:00","FM-15","7",,,,,,,,,,,,,,,,,,,,,,,,,,,,,,,,,,,,,,"29.83","55","59",,,,,"88",,"OVC:08 14","29.82","10.00","57","000",,"0",,,,,,,,,,,,,,,,,,,,,,,,,,,,,,,,,,,,,"MET07607/01/20 03:35:02 METAR KSQL 011135Z 00000KT 10SM OVC014 15/13 A2983 RMK AO2","FM-15","7",,,,,,,,,,,,,,,,,,,,,,,,,,,,
"72493893231","2020-07-01T03:55:00","FM-15","7",,,,,,,,,,,,,,,,,,,,,,,,,,,,,,,,,,,,,,"29.83","55","59",,,,,"88",,"OVC:08 14","29.82","10.00","57","000",,"0",,,,,,,,,,,,,,,,,,,,,,,,,,,,,,,,,,,,,"MET07607/01/20 03:55:02 METAR KSQL 011155Z 00000KT 10SM OVC014 15/13 A2983 RMK AO2","FM-15","7",,,,,,,,,,,,,,,,,,,,,,,,,,,,
"72493893231","2020-07-01T04:15:00","FM-15","7",,,,,,,,,,,,,,,,,,,,,,,,,,,,,,,,,,,,,,"29.83","54","59",,,,,"82",,"OVC:08 14","29.82","10.00","56","000",,"0",,,,,,,,,,,,,,,,,,,,,,,,,,,,,,,,,,,,,"MET07607/01/20 04:15:02 METAR KSQL 011215Z 00000KT 10SM OVC014 15/12 A2983 RMK AO2","FM-15","7",,,,,,,,,,,,,,,,,,,,,,,,,,,,
"72493893231","2020-07-01T04:35:00","FM-15","7",,,,,,,,,,,,,,,,,,,,,,,,,,,,,,,,,,,,,,"29.82","54","59",,,,,"82",,"OVC:08 14","29.81","10.00","56","300",,"3",,,,,,,,,,,,,,,,,,,,,,,,,,,,,,,,,,,,,"MET07607/01/20 04:35:02 METAR KSQL 011235Z 30003KT 10SM OVC014 15/12 A2982 RMK AO2","FM-15","7",,,,,,,,,,,,,,,,,,,,,,,,,,,,
"72493893231","2020-07-01T04:55:00","FM-15","7",,,,,,,,,,,,,,,,,,,,,,,,,,,,,,,,,,,,,,"29.83","54","59",,,,,"82",,"OVC:08 14","29.82","9.00","56","260",,"3",,,,,,,,,,,,,,,,,,,,,,,,,,,,,,,,,,,,,"MET07507/01/20 04:55:02 METAR KSQL 011255Z 26003KT 9SM OVC014 15/12 A2983 RMK AO2","FM-15","7",,,,,,,,,,,,,,,,,,,,,,,,,,,,
"72493893231","2020-07-01T05:15:00","FM-15","7",,,,,,,,,,,,,,,,,,,,,,,,,,,,,,,,,,,,,,"29.83","54","59",,,,,"82",,"OVC:08 14","29.82","9.00","56","290",,"3",,,,,,,,,,,,,,,,,,,,,,,,,,,,,,,,,,,,,"MET07507/01/20 05:15:02 METAR KSQL 011315Z 29003KT 9SM OVC014 15/12 A2983 RMK AO2","FM-15","7",,,,,,,,,,,,,,,,,,,,,,,,,,,,
"72493893231","2020-07-01T05:35:00","FM-15","7",,,,,,,,,,,,,,,,,,,,,,,,,,,,,,,,,,,,,,"29.83","54","59",,,,,"82",,"OVC:08 14","29.82","9.00","56","320",,"3",,,,,,,,,,,,,,,,,,,,,,,,,,,,,,,,,,,,,"MET07507/01/20 05:35:02 METAR KSQL 011335Z 32003KT 9SM OVC014 15/12 A2983 RMK AO2","FM-15","7",,,,,,,,,,,,,,,,,,,,,,,,,,,,
"72493893231","2020-07-01T05:55:00","FM-15","4",,,,,,,,,,,,,,,,,,,,,,,,,,,,,,,,,,,,,,"29.83","54","59",,,,,"82",,,,"10.00",,"320",,"6",,,,,,,,,,,,,,,,,,,,,,,,,,,,,,,,,,,,,"MET064METAR KSQL 011355Z AUTO 32005KT 10SM OVC014 15/12 A2983 RMK AO2=","FM-15","4",,,,,,,,,,,,,,,,,,,,,,,,,,,,
"72493893231","2020-07-01T05:56:00","FM-15","7",,,,,,,,,,,,,,,,,,,,,,,,,,,,,,,,,,,,,,"29.84","54","59",,,,,"82",,"OVC:08 14","29.83","10.00","56","300",,"6",,,,,,,,,,,,,,,,,,,,,,,,,,,,,,,,,,,,,"MET07207/01/20 05:56:02 METAR KSQL 011356Z 30005KT 10SM OVC014 15/12 A2984 RMK","FM-15","7",,,,,,,,,,,,,,,,,,,,,,,,,,,,
"72493893231","2020-07-01T06:58:00","FM-15","7",,,,,,,,,,,,,,,,,,,,,,,,,,,,,,,,,,,,,,"29.85","54","59",,,,,"82",,"BKN:07 12","29.84","10.00","56","VRB",,"3",,,,,,,,,,,,,,,,,,,,,,,,,,,,,,,,,,,,,"MET07207/01/20 06:58:02 METAR KSQL 011458Z VRB03KT 10SM BKN012 15/12 A2985 RMK","FM-15","7",,,,,,,,,,,,,,,,,,,,,,,,,,,,
"72493893231","2020-07-01T07:57:00","FM-15","7",,,,,,,,,,,,,,,,,,,,,,,,,,,,,,,,,,,,,,"29.85","55","63",,,,,"77",,"SCT:04 16","29.84","10.00","58","VRB",,"3",,,,,,,,,,,,,,,,,,,,,,,,,,,,,,,,,,,,,"MET07207/01/20 07:57:02 METAR KSQL 011557Z VRB03KT 10SM SCT016 17/13 A2985 RMK","FM-15","7",,,,,,,,,,,,,,,,,,,,,,,,,,,,
"72493893231","2020-07-01T08:58:00","FM-15","7",,,,,,,,,,,,,,,,,,,,,,,,,,,,,,,,,,,,,,"29.85","55","64",,,,,"73",,"FEW:02 16","29.84","10.00","59","000",,"0",,,,,,,,,,,,,,,,,,,,,,,,,,,,,,,,,,,,,"MET07207/01/20 08:58:02 METAR KSQL 011658Z 00000KT 10SM FEW016 18/13 A2985 RMK","FM-15","7",,,,,,,,,,,,,,,,,,,,,,,,,,,,
"72493893231","2020-07-01T09:58:00","FM-15","7",,,,,,,,,,,,,,,,,,,,,,,,,,,,,,,,,,,,,,"29.84","54","66",,,,,"64",,"FEW:02 16","29.83","10.00","59","310",,"6",,,,,,,,,,,,,,,,,,,,,,,,,,,,,,,,,,,,,"MET07207/01/20 09:58:02 METAR KSQL 011758Z 31005KT 10SM FEW016 19/12 A2984 RMK","FM-15","7",,,,,,,,,,,,,,,,,,,,,,,,,,,,
"72493893231","2020-07-01T10:47:00","FM-15","7",,,,,,,,,,,,,,,,,,,,,,,,,,,,,,,,,,,,,,"29.84","54","68",,,,,"60",,"*","29.83","10.00","60","270",,"9",,,,,,,,,,,,,,,,,,,,,,,,,,,,,,,,,,,,,"MET06907/01/20 10:47:02 METAR KSQL 011847Z 27008KT 10SM SKC 20/12 A2984 RMK","FM-15","7",,,,,,,,,,,,,,,,,,,,,,,,,,,,
"72493893231","2020-07-01T11:58:00","FM-15","7",,,,,,,,,,,,,,,,,,,,,,,,,,,,,,,,,,,,,,"29.84","54","72",,,,,"53",,"*","29.83","10.00","62","260",,"10",,,,,,,,,,,,,,,,,,,,,,,,,,,,,,,,,,,,,"MET06907/01/20 11:58:02 METAR KSQL 011958Z 26009KT 10SM SKC 22/12 A2984 RMK","FM-15","7",,,,,,,,,,,,,,,,,,,,,,,,,,,,
"72493893231","2020-07-01T12:49:00","FM-15","7",,,,,,,,,,,,,,,,,,,,,,,,,,,,,,,,,,,,,,"29.83","54","72",,,,,"53",,"*","29.82","10.00","62","260","17","11",,,,,,,,,,,,,,,,,,,,,,,,,,,,,,,,,,,,,"MET07207/01/20 12:49:02 METAR KSQL 012049Z 26010G15KT 10SM SKC 22/12 A2983 RMK","FM-15","7",,,,,,,,,,,,,,,,,,,,,,,,,,,,
"72493893231","2020-07-01T13:47:00","FM-15","7",,,,,,,,,,,,,,,,,,,,,,,,,,,,,,,,,,,,,,"29.82","54","72",,,,,"53",,"*","29.81","10.00","62","260",,"13",,,,,,,,,,,,,,,,,,,,,,,,,,,,,,,,,,,,,"MET06907/01/20 13:47:02 METAR KSQL 012147Z 26011KT 10SM SKC 22/12 A2982 RMK","FM-15","7",,,,,,,,,,,,,,,,,,,,,,,,,,,,
"72493893231","2020-07-01T14:58:00","FM-15","7",,,,,,,,,,,,,,,,,,,,,,,,,,,,,,,,,,,,,,"29.80","54","72",,,,,"53",,"*","29.79","10.00","62","260","17","13",,,,,,,,,,,,,,,,,,,,,,,,,,,,,,,,,,,,,"MET07207/01/20 14:58:02 METAR KSQL 012258Z 26011G15KT 10SM SKC 22/12 A2980 RMK","FM-15","7",,,,,,,,,,,,,,,,,,,,,,,,,,,,
"72493893231","2020-07-01T15:47:00","FM-15","7",,,,,,,,,,,,,,,,,,,,,,,,,,,,,,,,,,,,,,"29.80","54","72",,,,,"53",,"*","29.79","10.00","62","270",,"10",,,,,,,,,,,,,,,,,,,,,,,,,,,,,,,,,,,,,"MET06907/01/20 15:47:02 METAR KSQL 012347Z 27009KT 10SM SKC 22/12 A2980 RMK","FM-15","7",,,,,,,,,,,,,,,,,,,,,,,,,,,,
"72493893231","2020-07-01T16:54:00","FM-15","7",,,,,,,,,,,,,,,,,,,,,,,,,,,,,,,,,,,,,,"29.79","54","70",,,,,"57",,"*","29.78","10.00","61","260",,"9",,,,,,,,,,,,,,,,,,,,,,,,,,,,,,,,,,,,,"MET06907/01/20 16:54:01 METAR KSQL 020054Z 26008KT 10SM SKC 21/12 A2979 RMK","FM-15","7",,,,,,,,,,,,,,,,,,,,,,,,,,,,
"72493893231","2020-07-01T17:47:00","FM-15","7",,,,,,,,,,,,,,,,,,,,,,,,,,,,,,,,,,,,,,"29.80","54","68",,,,,"60",,"*","29.79","10.00","60","270",,"7",,,,,,,,,,,,,,,,,,,,,,,,,,,,,,,,,,,,,"MET06907/01/20 17:47:01 METAR KSQL 020147Z 27006KT 10SM SKC 20/12 A2980 RMK","FM-15","7",,,,,,,,,,,,,,,,,,,,,,,,,,,,
"72493893231","2020-07-01T18:47:00","FM-15","7",,,,,,,,,,,,,,,,,,,,,,,,,,,,,,,,,,,,,,"29.81","54","66",,,,,"64",,"*","29.80","10.00","59","250",,"6",,,,,,,,,,,,,,,,,,,,,,,,,,,,,,,,,,,,,"MET06907/01/20 18:47:01 METAR KSQL 020247Z 25005KT 10SM SKC 19/12 A2981 RMK","FM-15","7",,,,,,,,,,,,,,,,,,,,,,,,,,,,
"72493893231","2020-07-01T19:47:00","FM-15","7",,,,,,,,,,,,,,,,,,,,,,,,,,,,,,,,,,,,,,"29.82","52","63",,,,,"68",,"*","29.81","10.00","57","240",,"5",,,,,,,,,,,,,,,,,,,,,,,,,,,,,,,,,,,,,"MET07407/01/20 19:47:02 METAR KSQL 020347Z 24000KT 10SM SKC 17/11 A2982 RMK LAST","FM-15","7",,,,,,,,,,,,,,,,,,,,,,,,,,,,
"72493893231","2020-07-01T20:15:00","FM-15","7",,,,,,,,,,,,,,,,,,,,,,,,,,,,,,,,,,,,,,"29.83","52","63",,,,,"68",,"CLR:00","29.82","10.00","57","270",,"5",,,,,,,,,,,,,,,,,,,,,,,,,,,,,,,,,,,,,"MET07307/01/20 20:15:02 METAR KSQL 020415Z 27004KT 10SM CLR 17/11 A2983 RMK AO2","FM-15","7",,,,,,,,,,,,,,,,,,,,,,,,,,,,
"72493893231","2020-07-01T20:35:00","FM-15","7",,,,,,,,,,,,,,,,,,,,,,,,,,,,,,,,,,,,,,"29.83","52","61",,,,,"72",,"CLR:00","29.82","10.00","56","300",,"6",,,,,,,,,,,,,,,,,,,,,,,,,,,,,,,,,,,,,"MET07307/01/20 20:35:02 METAR KSQL 020435Z 30005KT 10SM CLR 16/11 A2983 RMK AO2","FM-15","7",,,,,,,,,,,,,,,,,,,,,,,,,,,,
"72493893231","2020-07-01T20:55:00","FM-15","7",,,,,,,,,,,,,,,,,,,,,,,,,,,,,,,,,,,,,,"29.84","52","61",,,,,"72",,"CLR:00","29.83","10.00","56","260",,"6",,,,,,,,,,,,,,,,,,,,,,,,,,,,,,,,,,,,,"MET07307/01/20 20:55:02 METAR KSQL 020455Z 26005KT 10SM CLR 16/11 A2984 RMK AO2","FM-15","7",,,,,,,,,,,,,,,,,,,,,,,,,,,,
"72493893231","2020-07-01T21:15:00","FM-15","7",,,,,,,,,,,,,,,,,,,,,,,,,,,,,,,,,,,,,,"29.85","52","59",,,,,"77",,"CLR:00","29.84","10.00","55","280",,"3",,,,,,,,,,,,,,,,,,,,,,,,,,,,,,,,,,,,,"MET07307/01/20 21:15:02 METAR KSQL 020515Z 28003KT 10SM CLR 15/11 A2985 RMK AO2","FM-15","7",,,,,,,,,,,,,,,,,,,,,,,,,,,,
"72493893231","2020-07-01T21:35:00","FM-15","7",,,,,,,,,,,,,,,,,,,,,,,,,,,,,,,,,,,,,,"29.84","52","59",,,,,"77",,"CLR:00","29.83","10.00","55","250",,"5",,,,,,,,,,,,,,,,,,,,,,,,,,,,,,,,,,,,,"MET07307/01/20 21:35:02 METAR KSQL 020535Z 25004KT 10SM CLR 15/11 A2984 RMK AO2","FM-15","7",,,,,,,,,,,,,,,,,,,,,,,,,,,,
"72493893231","2020-07-01T21:40:00","FM-15","7",,,,,,,,,,,,,,,,,,,,,,,,,,,,,,,,,,,,,,"29.84","52","59",,,,,"77",,"CLR:00","29.83","10.00","55","260",,"3",,,,,,,,,,,,,,,,,,,,,,,,,,,,,,,,,,,,,"MET07307/01/20 21:40:02 METAR KSQL 020540Z 26003KT 10SM CLR 15/11 A2984 RMK AO2","FM-15","7",,,,,,,,,,,,,,,,,,,,,,,,,,,,
"72493893231","2020-07-01T21:55:00","FM-15","7",,,,,,,,,,,,,,,,,,,,,,,,,,,,,,,,,,,,,,"29.84","52","59",,,,,"77",,"CLR:00","29.83","10.00","55","240",,"3",,,,,,,,,,,,,,,,,,,,,,,,,,,,,,,,,,,,,"MET07307/01/20 21:55:02 METAR KSQL 020555Z 24003KT 10SM CLR 15/11 A2984 RMK AO2","FM-15","7",,,,,,,,,,,,,,,,,,,,,,,,,,,,
"72493893231","2020-07-01T22:15:00","FM-15","7",,,,,,,,,,,,,,,,,,,,,,,,,,,,,,,,,,,,,,"29.85","52","59",,,,,"77",,"CLR:00","29.84","10.00","55","250",,"3",,,,,,,,,,,,,,,,,,,,,,,,,,,,,,,,,,,,,"MET07307/01/20 22:15:02 METAR KSQL 020615Z 25003KT 10SM CLR 15/11 A2985 RMK AO2","FM-15","7",,,,,,,,,,,,,,,,,,,,,,,,,,,,
"72493893231","2020-07-01T22:35:00","FM-15","7",,,,,,,,,,,,,,,,,,,,,,,,,,,,,,,,,,,,,,"29.85","54","59",,,,,"82",,"FEW:02 16","29.84","10.00","56","260",,"3",,,,,,,,,,,,,,,,,,,,,,,,,,,,,,,,,,,,,"MET07607/01/20 22:35:02 METAR KSQL 020635Z 26003KT 10SM FEW016 15/12 A2985 RMK AO2","FM-15","7",,,,,,,,,,,,,,,,,,,,,,,,,,,,
"72493893231","2020-07-01T22:55:00","FM-15","7",,,,,,,,,,,,,,,,,,,,,,,,,,,,,,,,,,,,,,"29.84","52","59",,,,,"77",,"SCT:04 16","29.83","10.00","55","260",,"5",,,,,,,,,,,,,,,,,,,,,,,,,,,,,,,,,,,,,"MET07607/01/20 22:55:02 METAR KSQL 020655Z 26004KT 10SM SCT016 15/11 A2984 RMK AO2","FM-15","7",,,,,,,,,,,,,,,,,,,,,,,,,,,,
"72493893231","2020-07-01T23:15:00","FM-15","7",,,,,,,,,,,,,,,,,,,,,,,,,,,,,,,,,,,,,,"29.85","54","59",,,,,"82",,"BKN:07 16","29.84","10.00","56","260",,"6",,,,,,,,,,,,,,,,,,,,,,,,,,,,,,,,,,,,,"MET07607/01/20 23:15:02 METAR KSQL 020715Z 26005KT 10SM BKN016 15/12 A2985 RMK AO2","FM-15","7",,,,,,,,,,,,,,,,,,,,,,,,,,,,
"72493893231","2020-07-01T23:35:00","FM-15","7",,,,,,,,,,,,,,,,,,,,,,,,,,,,,,,,,,,,,,"29.85","52","57",,,,,"82",,"BKN:07 16","29.84","10.00","54","270",,"7",,,,,,,,,,,,,,,,,,,,,,,,,,,,,,,,,,,,,"MET07607/01/20 23:35:02 METAR KSQL 020735Z 27006KT 10SM BKN016 14/11 A2985 RMK AO2","FM-15","7",,,,,,,,,,,,,,,,,,,,,,,,,,,,
"72493893231","2020-07-01T23:55:00","FM-15","7",,,,,,,,,,,,,,,,,,,,,,,,,,,,,,,,,,,,,,"29.85","52","57",,,,,"82",,"OVC:08 16","29.84","10.00","54","270",,"5",,,,,,,,,,,,,,,,,,,,,,,,,,,,,,,,,,,,,"MET07607/01/20 23:55:02 METAR KSQL 020755Z 27004KT 10SM OVC016 14/11 A2985 RMK AO2","FM-15","7",,,,,,,,,,,,,,,,,,,,,,,,,,,,
"72493893231","2020-07-02T00:15:00","FM-15","7",,,,,,,,,,,,,,,,,,,,,,,,,,,,,,,,,,,,,,"29.84","52","57",,,,,"82",,"OVC:08 16","29.83","10.00","54","260",,"5",,,,,,,,,,,,,,,,,,,,,,,,,,,,,,,,,,,,,"MET07607/02/20 00:15:02 METAR KSQL 020815Z 26004KT 10SM OVC016 14/11 A2984 RMK AO2","FM-15","7",,,,,,,,,,,,,,,,,,,,,,,,,,,,
"72493893231","2020-07-02T00:35:00","FM-15","7",,,,,,,,,,,,,,,,,,,,,,,,,,,,,,,,,,,,,,"29.84","52","57",,,,,"82",,"OVC:08 16","29.83","10.00","54","280",,"5",,,,,,,,,,,,,,,,,,,,,,,,,,,,,,,,,,,,,"MET07607/02/20 00:35:02 METAR KSQL 020835Z 28004KT 10SM OVC016 14/11 A2984 RMK AO2","FM-15","7",,,,,,,,,,,,,,,,,,,,,,,,,,,,
"72493893231","2020-07-02T00:55:00","FM-15","7",,,,,,,,,,,,,,,,,,,,,,,,,,,,,,,,,,,,,,"29.84","50","57",,,,,"77",,"OVC:08 16","29.83","10.00","53","280",,"5",,,,,,,,,,,,,,,,,,,,,,,,,,,,,,,,,,,,,"MET07607/02/20 00:55:02 METAR KSQL 020855Z 28004KT 10SM OVC016 14/10 A2984 RMK AO2","FM-15","7",,,,,,,,,,,,,,,,,,,,,,,,,,,,
"72493893231","2020-07-02T01:15:00","FM-15","7",,,,,,,,,,,,,,,,,,,,,,,,,,,,,,,,,,,,,,"29.84","50","57",,,,,"77",,"SCT:04 16","29.83","10.00","53","310",,"3",,,,,,,,,,,,,,,,,,,,,,,,,,,,,,,,,,,,,"MET07607/02/20 01:15:02 METAR KSQL 020915Z 31003KT 10SM SCT016 14/10 A2984 RMK AO2","FM-15","7",,,,,,,,,,,,,,,,,,,,,,,,,,,,
"72493893231","2020-07-02T01:20:00","FM-15","7",,,,,,,,,,,,,,,,,,,,,,,,,,,,,,,,,,,,,,"29.84","50","57",,,,,"77",,"FEW:02 14","29.83","10.00","53","000",,"0",,,,,,,,,,,,,,,,,,,,,,,,,,,,,,,,,,,,,"MET07607/02/20 01:20:02 METAR KSQL 020920Z 00000KT 10SM FEW014 14/10 A2984 RMK AO2","FM-15","7",,,,,,,,,,,,,,,,,,,,,,,,,,,,
"72493893231","2020-07-02T01:35:00","FM-15","7",,,,,,,,,,,,,,,,,,,,,,,,,,,,,,,,,,,,,,"29.84","50","57",,,,,"77",,"CLR:00","29.83","10.00","53","000",,"0",,,,,,,,,,,,,,,,,,,,,,,,,,,,,,,,,,,,,"MET07307/02/20 01:35:02 METAR KSQL 020935Z 00000KT 10SM CLR 14/10 A2984 RMK AO2","FM-15","7",,,,,,,,,,,,,,,,,,,,,,,,,,,,
"72493893231","2020-07-02T01:55:00","FM-15","7",,,,,,,,,,,,,,,,,,,,,,,,,,,,,,,,,,,,,,"29.83","50","55",,,,,"82",,"CLR:00","29.82","10.00","52","000",,"0",,,,,,,,,,,,,,,,,,,,,,,,,,,,,,,,,,,,,"MET07307/02/20 01:55:02 METAR KSQL 020955Z 00000KT 10SM CLR 13/10 A2983 RMK AO2","FM-15","7",,,,,,,,,,,,,,,,,,,,,,,,,,,,
"72493893231","2020-07-02T02:15:00","FM-15","7",,,,,,,,,,,,,,,,,,,,,,,,,,,,,,,,,,,,,,"29.83","50","55",,,,,"82",,"CLR:00","29.82","10.00","52","300",,"3",,,,,,,,,,,,,,,,,,,,,,,,,,,,,,,,,,,,,"MET07307/02/20 02:15:02 METAR KSQL 021015Z 30003KT 10SM CLR 13/10 A2983 RMK AO2","FM-15","7",,,,,,,,,,,,,,,,,,,,,,,,,,,,
"72493893231","2020-07-02T02:35:00","FM-15","7",,,,,,,,,,,,,,,,,,,,,,,,,,,,,,,,,,,,,,"29.84","50","55",,,,,"82",,"CLR:00","29.83","10.00","52","260",,"5",,,,,,,,,,,,,,,,,,,,,,,,,,,,,,,,,,,,,"MET07307/02/20 02:35:02 METAR KSQL 021035Z 26004KT 10SM CLR 13/10 A2984 RMK AO2","FM-15","7",,,,,,,,,,,,,,,,,,,,,,,,,,,,
"72493893231","2020-07-02T02:55:00","FM-15","7",,,,,,,,,,,,,,,,,,,,,,,,,,,,,,,,,,,,,,"29.84","50","55",,,,,"82",,"CLR:00","29.83","10.00","52","250",,"3",,,,,,,,,,,,,,,,,,,,,,,,,,,,,,,,,,,,,"MET07307/02/20 02:55:02 METAR KSQL 021055Z 25003KT 10SM CLR 13/10 A2984 RMK AO2","FM-15","7",,,,,,,,,,,,,,,,,,,,,,,,,,,,
"72493893231","2020-07-02T03:15:00","FM-15","7",,,,,,,,,,,,,,,,,,,,,,,,,,,,,,,,,,,,,,"29.84","50","55",,,,,"82",,"FEW:02 16","29.83","10.00","52","000",,"0",,,,,,,,,,,,,,,,,,,,,,,,,,,,,,,,,,,,,"MET07607/02/20 03:15:02 METAR KSQL 021115Z 00000KT 10SM FEW016 13/10 A2984 RMK AO2","FM-15","7",,,,,,,,,,,,,,,,,,,,,,,,,,,,
"72493893231","2020-07-02T03:35:00","FM-15","7",,,,,,,,,,,,,,,,,,,,,,,,,,,,,,,,,,,,,,"29.84","50","55",,,,,"82",,"CLR:00","29.83","10.00","52","000",,"0",,,,,,,,,,,,,,,,,,,,,,,,,,,,,,,,,,,,,"MET07307/02/20 03:35:02 METAR KSQL 021135Z 00000KT 10SM CLR 13/10 A2984 RMK AO2","FM-15","7",,,,,,,,,,,,,,,,,,,,,,,,,,,,
"72493893231","2020-07-02T03:55:00","FM-15","7",,,,,,,,,,,,,,,,,,,,,,,,,,,,,,,,,,,,,,"29.84","50","55",,,,,"82",,"CLR:00","29.83","10.00","52","000",,"0",,,,,,,,,,,,,,,,,,,,,,,,,,,,,,,,,,,,,"MET07307/02/20 03:55:02 METAR KSQL 021155Z 00000KT 10SM CLR 13/10 A2984 RMK AO2","FM-15","7",,,,,,,,,,,,,,,,,,,,,,,,,,,,
"72493893231","2020-07-02T04:15:00","FM-15","7",,,,,,,,,,,,,,,,,,,,,,,,,,,,,,,,,,,,,,"29.85","50","55",,,,,"82",,"CLR:00","29.84","10.00","52","260",,"3",,,,,,,,,,,,,,,,,,,,,,,,,,,,,,,,,,,,,"MET07307/02/20 04:15:02 METAR KSQL 021215Z 26003KT 10SM CLR 13/10 A2985 RMK AO2","FM-15","7",,,,,,,,,,,,,,,,,,,,,,,,,,,,
"72493893231","2020-07-02T04:35:00","FM-15","7",,,,,,,,,,,,,,,,,,,,,,,,,,,,,,,,,,,,,,"29.85","50","55",,,,,"82",,"CLR:00","29.84","10.00","52","260",,"3",,,,,,,,,,,,,,,,,,,,,,,,,,,,,,,,,,,,,"MET07307/02/20 04:35:02 METAR KSQL 021235Z 26003KT 10SM CLR 13/10 A2985 RMK AO2","FM-15","7",,,,,,,,,,,,,,,,,,,,,,,,,,,,
"72493893231","2020-07-02T04:55:00","FM-15","7",,,,,,,,,,,,,,,,,,,,,,,,,,,,,,,,,,,,,,"29.86","48","55",,,,,"77",,"CLR:00","29.85","10.00","51","000",,"0",,,,,,,,,,,,,,,,,,,,,,,,,,,,,,,,,,,,,"MET07307/02/20 04:55:02 METAR KSQL 021255Z 00000KT 10SM CLR 13/09 A2986 RMK AO2","FM-15","7",,,,,,,,,,,,,,,,,,,,,,,,,,,,
"72493893231","2020-07-02T05:15:00","FM-15","7",,,,,,,,,,,,,,,,,,,,,,,,,,,,,,,,,,,,,,"29.86","48","55",,,,,"77",,"CLR:00","29.85","10.00","51","000",,"0",,,,,,,,,,,,,,,,,,,,,,,,,,,,,,,,,,,,,"MET07307/02/20 05:15:02 METAR KSQL 021315Z 00000KT 10SM CLR 13/09 A2986 RMK AO2","FM-15","7",,,,,,,,,,,,,,,,,,,,,,,,,,,,
"72493893231","2020-07-02T05:35:00","FM-15","7",,,,,,,,,,,,,,,,,,,,,,,,,,,,,,,,,,,,,,"29.87","50","55",,,,,"82",,"CLR:00","29.86","10.00","52","000",,"0",,,,,,,,,,,,,,,,,,,,,,,,,,,,,,,,,,,,,"MET07307/02/20 05:35:02 METAR KSQL 021335Z 00000KT 10SM CLR 13/10 A2987 RMK AO2","FM-15","7",,,,,,,,,,,,,,,,,,,,,,,,,,,,
"72493893231","2020-07-02T05:55:00","FM-15","7",,,,,,,,,,,,,,,,,,,,,,,,,,,,,,,,,,,,,,"29.87","50","55",,,,,"82",,"CLR:00","29.86","10.00","52","000",,"0",,,,,,,,,,,,,,,,,,,,,,,,,,,,,,,,,,,,,"MET07307/02/20 05:55:02 METAR KSQL 021355Z 00000KT 10SM CLR 13/10 A2987 RMK AO2","FM-15","7",,,,,,,,,,,,,,,,,,,,,,,,,,,,
"72493893231","2020-07-02T06:00:00","FM-15","4",,,,,,,,,,,,,,,,,,,,,,,,,,,,,,,,,,,,,,"29.87","50","55",,,,,"82",,,,"10.00",,"000",,"0",,,,,,,,,,,,,,,,,,,,,,,,,,,,,,,,,,,,,"MET051METAR KSQL 021400Z 00000KT 10SM FEW011 13/10 A2987=","FM-15","4",,,,,,,,,,,,,,,,,,,,,,,,,,,,
"72493893231","2020-07-02T06:47:00","FM-15","7",,,,,,,,,,,,,,,,,,,,,,,,,,,,,,,,,,,,,,"29.89","50","57",,,,,"77",,"BKN:07 14","29.88","10.00","53","000",,"0",,,,,,,,,,,,,,,,,,,,,,,,,,,,,,,,,,,,,"MET07207/02/20 06:47:02 METAR KSQL 021447Z 00000KT 10SM BKN014 14/10 A2989 RMK","FM-15","7",,,,,,,,,,,,,,,,,,,,,,,,,,,,
"72493893231","2020-07-02T07:47:00","FM-15","7",,,,,,,,,,,,,,,,,,,,,,,,,,,,,,,,,,,,,,"29.90","54","59",,,,,"82",,"BKN:07 14","29.89","10.00","56","050",,"7",,,,,,,,,,,,,,,,,,,,,,,,,,,,,,,,,,,,,"MET07207/02/20 07:47:02 METAR KSQL 021547Z 05006KT 10SM BKN014 15/12 A2990 RMK","FM-15","7",,,,,,,,,,,,,,,,,,,,,,,,,,,,
"72493893231","2020-07-02T08:47:00","FM-15","7",,,,,,,,,,,,,,,,,,,,,,,,,,,,,,,,,,,,,,"29.90","50","63",,,,,"64",,"*","29.89","10.00","56","000",,"0",,,,,,,,,,,,,,,,,,,,,,,,,,,,,,,,,,,,,"MET06907/02/20 08:47:02 METAR KSQL 021647Z 00000KT 10SM SKC 17/10 A2990 RMK","FM-15","7",,,,,,,,,,,,,,,,,,,,,,,,,,,,
"72493893231","2020-07-02T09:47:00","FM-15","7",,,,,,,,,,,,,,,,,,,,,,,,,,,,,,,,,,,,,,"29.91","54","64",,,,,"68",,"*","29.90","10.00","58","VRB",,"5",,,,,,,,,,,,,,,,,,,,,,,,,,,,,,,,,,,,,"MET06907/02/20 09:47:02 METAR KSQL 021747Z VRB04KT 10SM SKC 18/12 A2991 RMK","FM-15","7",,,,,,,,,,,,,,,,,,,,,,,,,,,,
"72493893231","2020-07-02T10:47:00","FM-15","7",,,,,,,,,,,,,,,,,,,,,,,,,,,,,,,,,,,,,,"29.91","54","64",,,,,"68",,"*","29.90","10.00","58","030",,"6",,,,,,,,,,,,,,,,,,,,,,,,,,,,,,,,,,,,,"MET06907/02/20 10:47:02 METAR KSQL 021847Z 03005KT 10SM SKC 18/12 A2991 RMK","FM-15","7",,,,,,,,,,,,,,,,,,,,,,,,,,,,
"72493893231","2020-07-02T11:47:00","FM-15","7",,,,,,,,,,,,,,,,,,,,,,,,,,,,,,,,,,,,,,"29.90","55","66",,,,,"68",,"*","29.89","10.00","60","020",,"9",,,,,,,,,,,,,,,,,,,,,,,,,,,,,,,,,,,,,"MET06907/02/20 11:47:02 METAR KSQL 021947Z 02008KT 10SM SKC 19/13 A2990 RMK","FM-15","7",,,,,,,,,,,,,,,,,,,,,,,,,,,,
"72493893231","2020-07-02T12:47:00","FM-15","7",,,,,,,,,,,,,,,,,,,,,,,,,,,,,,,,,,,,,,"29.90","55","68",,,,,"64",,"*","29.89","10.00","60","350",,"10",,,,,,,,,,,,,,,,,,,,,,,,,,,,,,,,,,,,,"MET06907/02/20 12:47:02 METAR KSQL 022047Z 35009KT 10SM SKC 20/13 A2990 RMK","FM-15","7",,,,,,,,,,,,,,,,,,,,,,,,,,,,
"72493893231","2020-07-02T13:47:00","FM-15","7",,,,,,,,,,,,,,,,,,,,,,,,,,,,,,,,,,,,,,"29.89","54","72",,,,,"53",,"*","29.88","10.00","62","320",,"11",,,,,,,,,,,,,,,,,,,,,,,,,,,,,,,,,,,,,"MET06907/02/20 13:47:02 METAR KSQL 022147Z 32010KT 10SM SKC 22/12 A2989 RMK","FM-15","7",,,,,,,,,,,,,,,,,,,,,,,,,,,,
"72493893231","2020-07-02T14:57:00","FM-15","7",,,,,,,,,,,,,,,,,,,,,,,,,,,,,,,,,,,,,,"29.89","54","73",,,,,"50",,"*","29.88","10.00","62","270",,"11",,,,,,,,,,,,,,,,,,,,,,,,,,,,,,,,,,,,,"MET06907/02/20 14:57:02 METAR KSQL 022257Z 27010KT 10SM SKC 23/12 A2989 RMK","FM-15","7",,,,,,,,,,,,,,,,,,,,,,,,,,,,
"72493893231","2020-07-02T15:47:00","FM-15","7",,,,,,,,,,,,,,,,,,,,,,,,,,,,,,,,,,,,,,"29.89","54","73",,,,,"50",,"*","29.88","10.00","62","270",,"14",,,,,,,,,,,,,,,,,,,,,,,,,,,,,,,,,,,,,"MET06907/02/20 15:47:02 METAR KSQL 022347Z 27012KT 10SM SKC 23/12 A2989 RMK","FM-15","7",,,,,,,,,,,,,,,,,,,,,,,,,,,,
"72493893231","2020-07-02T16:47:00","FM-15","7",,,,,,,,,,,,,,,,,,,,,,,,,,,,,,,,,,,,,,"29.88","54","72",,,,,"53",,"*","29.87","10.00","62","260",,"11",,,,,,,,,,,,,,,,,,,,,,,,,,,,,,,,,,,,,"MET06907/02/20 16:47:01 METAR KSQL 030047Z 26010KT 10SM SKC 22/12 A2988 RMK","FM-15","7",,,,,,,,,,,,,,,,,,,,,,,,,,,,
"72493893231","2020-07-02T17:47:00","FM-15","7",,,,,,,,,,,,,,,,,,,,,,,,,,,,,,,,,,,,,,"29.88","54","68",,,,,"60",,"*","29.87","10.00","60","250",,"11",,,,,,,,,,,,,,,,,,,,,,,,,,,,,,,,,,,,,"MET06907/02/20 17:47:01 METAR KSQL 030147Z 25010KT 10SM SKC 20/12 A2988 RMK","FM-15","7",,,,,,,,,,,,,,,,,,,,,,,,,,,,
"72493893231","2020-07-02T18:47:00","FM-15","7",,,,,,,,,,,,,,,,,,,,,,,,,,,,,,,,,,,,,,"29.89","52","64",,,,,"64",,"*","29.88","10.00","57","250",,"11",,,,,,,,,,,,,,,,,,,,,,,,,,,,,,,,,,,,,"MET06907/02/20 18:47:01 METAR KSQL 030247Z 25010KT 10SM SKC 18/11 A2989 RMK","FM-15","7",,,,,,,,,,,,,,,,,,,,,,,,,,,,
"72493893231","2020-07-02T19:47:00","FM-15","7",,,,,,,,,,,,,,,,,,,,,,,,,,,,,,,,,,,,,,"29.91","52","63",,,,,"68",,"*","29.90","10.00","57","250",,"11",,,,,,,,,,,,,,,,,,,,,,,,,,,,,,,,,,,,,"MET07407/02/20 19:47:02 METAR KSQL 030347Z 25010KT 10SM SKC 17/11 A2991 RMK LAST","FM-15","7",,,,,,,,,,,,,,,,,,,,,,,,,,,,
"72493893231","2020-07-02T20:15:00","FM-15","7",,,,,,,,,,,,,,,,,,,,,,,,,,,,,,,,,,,,,,"29.92","52","61",,,,,"72",,"CLR:00","29.91","10.00","56","270",,"7",,,,,,,,,,,,,,,,,,,,,,,,,,,,,,,,,,,,,"MET07307/02/20 20:15:02 METAR KSQL 030415Z 27006KT 10SM CLR 16/11 A2992 RMK AO2","FM-15","7",,,,,,,,,,,,,,,,,,,,,,,,,,,,
"72493893231","2020-07-02T20:35:00","FM-15","7",,,,,,,,,,,,,,,,,,,,,,,,,,,,,,,,,,,,,,"29.93","52","59",,,,,"77",,"CLR:00","29.92","10.00","55","270",,"6",,,,,,,,,,,,,,,,,,,,,,,,,,,,,,,,,,,,,"MET07307/02/20 20:35:02 METAR KSQL 030435Z 27005KT 10SM CLR 15/11 A2993 RMK AO2","FM-15","7",,,,,,,,,,,,,,,,,,,,,,,,,,,,
"72493893231","2020-07-02T20:55:00","FM-15","7",,,,,,,,,,,,,,,,,,,,,,,,,,,,,,,,,,,,,,"29.94","52","59",,,,,"77",,"CLR:00","29.93","10.00","55","250",,"6",,,,,,,,,,,,,,,,,,,,,,,,,,,,,,,,,,,,,"MET07307/02/20 20:55:02 METAR KSQL 030455Z 25005KT 10SM CLR 15/11 A2994 RMK AO2","FM-15","7",,,,,,,,,,,,,,,,,,,,,,,,,,,,
"72493893231","2020-07-02T21:15:00","FM-15","7",,,,,,,,,,,,,,,,,,,,,,,,,,,,,,,,,,,,,,"29.94","50","59",,,,,"72",,"CLR:00","29.93","10.00","54","250",,"5",,,,,,,,,,,,,,,,,,,,,,,,,,,,,,,,,,,,,"MET07307/02/20 21:15:02 METAR KSQL 030515Z 25004KT 10SM CLR 15/10 A2994 RMK AO2","FM-15","7",,,,,,,,,,,,,,,,,,,,,,,,,,,,
"72493893231","2020-07-02T21:35:00","FM-15","7",,,,,,,,,,,,,,,,,,,,,,,,,,,,,,,,,,,,,,"29.95","50","59",,,,,"72",,"FEW:02 22","29.94","10.00","54","260",,"5",,,,,,,,,,,,,,,,,,,,,,,,,,,,,,,,,,,,,"MET07607/02/20 21:35:02 METAR KSQL 030535Z 26004KT 10SM FEW022 15/10 A2995 RMK AO2","FM-15","7",,,,,,,,,,,,,,,,,,,,,,,,,,,,
"72493893231","2020-07-02T21:55:00","FM-15","7",,,,,,,,,,,,,,,,,,,,,,,,,,,,,,,,,,,,,,"29.95","50","59",,,,,"72",,"FEW:02 22","29.94","10.00","54","000",,"0",,,,,,,,,,,,,,,,,,,,,,,,,,,,,,,,,,,,,"MET07607/02/20 21:55:02 METAR KSQL 030555Z 00000KT 10SM FEW022 15/10 A2995 RMK AO2","FM-15","7",,,,,,,,,,,,,,,,,,,,,,,,,,,,
"72493893231","2020-07-02T22:15:00","FM-15","7",,,,,,,,,,,,,,,,,,,,,,,,,,,,,,,,,,,,,,"29.95","50","59",,,,,"72",,"FEW:02 20","29.94","10.00","54","000",,"0",,,,,,,,,,,,,,,,,,,,,,,,,,,,,,,,,,,,,"MET07607/02/20 22:15:02 METAR KSQL 030615Z 00000KT 10SM FEW020 15/10 A2995 RMK AO2","FM-15","7",,,,,,,,,,,,,,,,,,,,,,,,,,,,
"72493893231","2020-07-02T22:35:00","FM-15","7",,,,,,,,,,,,,,,,,,,,,,,,,,,,,,,,,,,,,,"29.95","50","59",,,,,"72",,"CLR:00","29.94","10.00","54","320",,"5",,,,,,,,,,,,,,,,,,,,,,,,,,,,,,,,,,,,,"MET07307/02/20 22:35:02 METAR KSQL 030635Z 32004KT 10SM CLR 15/10 A2995 RMK AO2","FM-15","7",,,,,,,,,,,,,,,,,,,,,,,,,,,,
"72493893231","2020-07-02T22:55:00","FM-15","7",,,,,,,,,,,,,,,,,,,,,,,,,,,,,,,,,,,,,,"29.95","52","59",,,,,"77",,"CLR:00","29.94","10.00","55","300",,"3",,,,,,,,,,,,,,,,,,,,,,,,,,,,,,,,,,,,,"MET07307/02/20 22:55:02 METAR KSQL 030655Z 30003KT 10SM CLR 15/11 A2995 RMK AO2","FM-15","7",,,,,,,,,,,,,,,,,,,,,,,,,,,,
"72493893231","2020-07-02T23:15:00","FM-15","7",,,,,,,,,,,,,,,,,,,,,,,,,,,,,,,,,,,,,,"29.95","52","59",,,,,"77",,"CLR:00","29.94","10.00","55","270",,"3",,,,,,,,,,,,,,,,,,,,,,,,,,,,,,,,,,,,,"MET07307/02/20 23:15:02 METAR KSQL 030715Z 27003KT 10SM CLR 15/11 A2995 RMK AO2","FM-15","7",,,,,,,,,,,,,,,,,,,,,,,,,,,,
"72493893231","2020-07-02T23:35:00","FM-15","7",,,,,,,,,,,,,,,,,,,,,,,,,,,,,,,,,,,,,,"29.95","52","59",,,,,"77",,"CLR:00","29.94","10.00","55","310",,"3",,,,,,,,,,,,,,,,,,,,,,,,,,,,,,,,,,,,,"MET07307/02/20 23:35:02 METAR KSQL 030735Z 31003KT 10SM CLR 15/11 A2995 RMK AO2","FM-15","7",,,,,,,,,,,,,,,,,,,,,,,,,,,,
"72493893231","2020-07-02T23:40:00","FM-15","7",,,,,,,,,,,,,,,,,,,,,,,,,,,,,,,,,,,,,,"29.95","52","59",,,,,"77",,"CLR:00","29.94","10.00","55","300",,"5",,,,,,,,,,,,,,,,,,,,,,,,,,,,,,,,,,,,,"MET07307/02/20 23:40:02 METAR KSQL 030740Z 30004KT 10SM CLR 15/11 A2995 RMK AO2","FM-15","7",,,,,,,,,,,,,,,,,,,,,,,,,,,,
"72493893231","2020-07-02T23:55:00","FM-15","7",,,,,,,,,,,,,,,,,,,,,,,,,,,,,,,,,,,,,,"29.95","54","59",,,,,"82",,"FEW:02 15","29.94","10.00","56","270",,"5",,,,,,,,,,,,,,,,,,,,,,,,,,,,,,,,,,,,,"MET07607/02/20 23:55:02 METAR KSQL 030755Z 27004KT 10SM FEW015 15/12 A2995 RMK AO2","FM-15","7",,,,,,,,,,,,,,,,,,,,,,,,,,,,
"72493893231","2020-07-03T00:00:00","FM-15","4",,,,,,,,,,,,,,,,,,,,,,,,,,,,,,,,,,,,,,"29.95","54","59",,,,,"82",,,,"10.00",,"270",,"3",,,,,,,,,,,,,,,,,,,,,,,,,,,,,,,,,,,,,"MET064METAR KSQL 030800Z AUTO 27003KT 10SM SCT015 15/12 A2995 RMK AO2=","FM-15","4",,,,,,,,,,,,,,,,,,,,,,,,,,,,
"72493893231","2020-07-03T00:15:00","FM-15","7",,,,,,,,,,,,,,,,,,,,,,,,,,,,,,,,,,,,,,"29.95","52","57",,,,,"82",,"FEW:02 15","29.94","10.00","54","300",,"3",,,,,,,,,,,,,,,,,,,,,,,,,,,,,,,,,,,,,"MET07607/03/20 00:15:02 METAR KSQL 030815Z 30003KT 10SM FEW015 14/11 A2995 RMK AO2","FM-15","7",,,,,,,,,,,,,,,,,,,,,,,,,,,,
"72493893231","2020-07-03T00:35:00","FM-15","7",,,,,,,,,,,,,,,,,,,,,,,,,,,,,,,,,,,,,,"29.95","52","57",,,,,"82",,"SCT:04 15","29.94","10.00","54","290",,"3",,,,,,,,,,,,,,,,,,,,,,,,,,,,,,,,,,,,,"MET07607/03/20 00:35:02 METAR KSQL 030835Z 29003KT 10SM SCT015 14/11 A2995 RMK AO2","FM-15","7",,,,,,,,,,,,,,,,,,,,,,,,,,,,
"72493893231","2020-07-03T00:55:00","FM-15","7",,,,,,,,,,,,,,,,,,,,,,,,,,,,,,,,,,,,,,"29.95","52","57",,,,,"82",,"BKN:07 15","29.94","10.00","54","300",,"3",,,,,,,,,,,,,,,,,,,,,,,,,,,,,,,,,,,,,"MET07607/03/20 00:55:02 METAR KSQL 030855Z 30003KT 10SM BKN015 14/11 A2995 RMK AO2","FM-15","7",,,,,,,,,,,,,,,,,,,,,,,,,,,,
"72493893231","2020-07-03T01:15:00","FM-15","7",,,,,,,,,,,,,,,,,,,,,,,,,,,,,,,,,,,,,,"29.95","50","57",,,,,"77",,"OVC:08 15","29.94","10.00","53","300",,"3",,,,,,,,,,,,,,,,,,,,,,,,,,,,,,,,,,,,,"MET07607/03/20 01:15:02 METAR KSQL 030915Z 30003KT 10SM OVC015 14/10 A2995 RMK AO2","FM-15","7",,,,,,,,,,,,,,,,,,,,,,,,,,,,
"72493893231","2020-07-03T01:20:00","FM-15","7",,,,,,,,,,,,,,,,,,,,,,,,,,,,,,,,,,,,,,"29.95","50","57",,,,,"77",,"OVC:08 15","29.94","10.00","53","310",,"3",,,,,,,,,,,,,,,,,,,,,,,,,,,,,,,,,,,,,"MET07607/03/20 01:20:02 METAR KSQL 030920Z 31003KT 10SM OVC015 14/10 A2995 RMK AO2","FM-15","7",,,,,,,,,,,,,,,,,,,,,,,,,,,,
"72493893231","2020-07-03T01:35:00","FM-15","7",,,,,,,,,,,,,,,,,,,,,,,,,,,,,,,,,,,,,,"29.95","52","57",,,,,"82",,"BKN:07 15","29.94","10.00","54","300",,"3",,,,,,,,,,,,,,,,,,,,,,,,,,,,,,,,,,,,,"MET07607/03/20 01:35:02 METAR KSQL 030935Z 30003KT 10SM BKN015 14/11 A2995 RMK AO2","FM-15","7",,,,,,,,,,,,,,,,,,,,,,,,,,,,
"72493893231","2020-07-03T01:55:00","FM-15","7",,,,,,,,,,,,,,,,,,,,,,,,,,,,,,,,,,,,,,"29.95","52","57",,,,,"82",,"FEW:02 15","29.94","10.00","54","000",,"0",,,,,,,,,,,,,,,,,,,,,,,,,,,,,,,,,,,,,"MET07607/03/20 01:55:02 METAR KSQL 030955Z 00000KT 10SM FEW015 14/11 A2995 RMK AO2","FM-15","7",,,,,,,,,,,,,,,,,,,,,,,,,,,,
"72493893231","2020-07-03T02:15:00","FM-15","7",,,,,,,,,,,,,,,,,,,,,,,,,,,,,,,,,,,,,,"29.95","52","57",,,,,"82",,"BKN:07 15","29.94","10.00","54","000",,"0",,,,,,,,,,,,,,,,,,,,,,,,,,,,,,,,,,,,,"MET07607/03/20 02:15:02 METAR KSQL 031015Z 00000KT 10SM BKN015 14/11 A2995 RMK AO2","FM-15","7",,,,,,,,,,,,,,,,,,,,,,,,,,,,
"72493893231","2020-07-03T02:20:00","FM-15","7",,,,,,,,,,,,,,,,,,,,,,,,,,,,,,,,,,,,,,"29.96","52","57",,,,,"82",,"OVC:08 15","29.95","10.00","54","000",,"0",,,,,,,,,,,,,,,,,,,,,,,,,,,,,,,,,,,,,"MET07607/03/20 02:20:02 METAR KSQL 031020Z 00000KT 10SM OVC015 14/11 A2996 RMK AO2","FM-15","7",,,,,,,,,,,,,,,,,,,,,,,,,,,,
"72493893231","2020-07-03T02:35:00","FM-15","7",,,,,,,,,,,,,,,,,,,,,,,,,,,,,,,,,,,,,,"29.96","52","57",,,,,"82",,"OVC:08 15","29.95","10.00","54","310",,"3",,,,,,,,,,,,,,,,,,,,,,,,,,,,,,,,,,,,,"MET07607/03/20 02:35:02 METAR KSQL 031035Z 31003KT 10SM OVC015 14/11 A2996 RMK AO2","FM-15","7",,,,,,,,,,,,,,,,,,,,,,,,,,,,
"72493893231","2020-07-03T02:40:00","FM-15","7",,,,,,,,,,,,,,,,,,,,,,,,,,,,,,,,,,,,,,"29.96","52","57",,,,,"82",,"OVC:08 15","29.95","10.00","54","000",,"0",,,,,,,,,,,,,,,,,,,,,,,,,,,,,,,,,,,,,"MET07607/03/20 02:40:02 METAR KSQL 031040Z 00000KT 10SM OVC015 14/11 A2996 RMK AO2","FM-15","7",,,,,,,,,,,,,,,,,,,,,,,,,,,,
"72493893231","2020-07-03T02:55:00","FM-15","7",,,,,,,,,,,,,,,,,,,,,,,,,,,,,,,,,,,,,,"29.96","52","57",,,,,"82",,"OVC:08 15","29.95","10.00","54","000",,"0",,,,,,,,,,,,,,,,,,,,,,,,,,,,,,,,,,,,,"MET07607/03/20 02:55:02 METAR KSQL 031055Z 00000KT 10SM OVC015 14/11 A2996 RMK AO2","FM-15","7",,,,,,,,,,,,,,,,,,,,,,,,,,,,
"72493893231","2020-07-03T03:00:00","FM-15","4",,,,,,,,,,,,,,,,,,,,,,,,,,,,,,,,,,,,,,"29.96","52","57",,,,,"82",,,,"10.00",,"000",,"0",,,,,,,,,,,,,,,,,,,,,,,,,,,,,,,,,,,,,"MET064METAR KSQL 031100Z AUTO 00000KT 10SM OVC015 14/11 A2996 RMK AO2=","FM-15","4",,,,,,,,,,,,,,,,,,,,,,,,,,,,
"72493893231","2020-07-03T03:15:00","FM-15","7",,,,,,,,,,,,,,,,,,,,,,,,,,,,,,,,,,,,,,"29.96","52","59",,,,,"77",,"OVC:08 15","29.95","10.00","55","000",,"0",,,,,,,,,,,,,,,,,,,,,,,,,,,,,,,,,,,,,"MET07607/03/20 03:15:02 METAR KSQL 031115Z 00000KT 10SM OVC015 15/11 A2996 RMK AO2","FM-15","7",,,,,,,,,,,,,,,,,,,,,,,,,,,,
"72493893231","2020-07-03T03:20:00","FM-15","7",,,,,,,,,,,,,,,,,,,,,,,,,,,,,,,,,,,,,,"29.96","52","57",,,,,"82",,"OVC:08 15","29.95","10.00","54","000",,"0",,,,,,,,,,,,,,,,,,,,,,,,,,,,,,,,,,,,,"MET07607/03/20 03:20:02 METAR KSQL 031120Z 00000KT 10SM OVC015 14/11 A2996 RMK AO2","FM-15","7",,,,,,,,,,,,,,,,,,,,,,,,,,,,
"72493893231","2020-07-03T03:35:00","FM-15","7",,,,,,,,,,,,,,,,,,,,,,,,,,,,,,,,,,,,,,"29.97","52","57",,,,,"82",,"OVC:08 13","29.96","10.00","54","000",,"0",,,,,,,,,,,,,,,,,,,,,,,,,,,,,,,,,,,,,"MET07607/03/20 03:35:02 METAR KSQL 031135Z 00000KT 10SM OVC013 14/11 A2997 RMK AO2","FM-15","7",,,,,,,,,,,,,,,,,,,,,,,,,,,,
"72493893231","2020-07-03T03:40:00","FM-15","7",,,,,,,,,,,,,,,,,,,,,,,,,,,,,,,,,,,,,,"29.97","52","57",,,,,"82",,"OVC:08 13","29.96","10.00","54","000",,"0",,,,,,,,,,,,,,,,,,,,,,,,,,,,,,,,,,,,,"MET07607/03/20 03:40:02 METAR KSQL 031140Z 00000KT 10SM OVC013 14/11 A2997 RMK AO2","FM-15","7",,,,,,,,,,,,,,,,,,,,,,,,,,,,
"72493893231","2020-07-03T03:55:00","FM-15","7",,,,,,,,,,,,,,,,,,,,,,,,,,,,,,,,,,,,,,"29.97","52","57",,,,,"82",,"OVC:08 13","29.96","10.00","54","300",,"3",,,,,,,,,,,,,,,,,,,,,,,,,,,,,,,,,,,,,"MET07607/03/20 03:55:02 METAR KSQL 031155Z 30003KT 10SM OVC013 14/11 A2997 RMK AO2","FM-15","7",,,,,,,,,,,,,,,,,,,,,,,,,,,,
"72493893231","2020-07-03T04:15:00","FM-15","7",,,,,,,,,,,,,,,,,,,,,,,,,,,,,,,,,,,,,,"29.97","50","57",,,,,"77",,"OVC:08 13","29.96","10.00","53","300",,"5",,,,,,,,,,,,,,,,,,,,,,,,,,,,,,,,,,,,,"MET07607/03/20 04:15:02 METAR KSQL 031215Z 30004KT 10SM OVC013 14/10 A2997 RMK AO2","FM-15","7",,,,,,,,,,,,,,,,,,,,,,,,,,,,
"72493893231","2020-07-03T04:35:00","FM-15","7",,,,,,,,,,,,,,,,,,,,,,,,,,,,,,,,,,,,,,"29.98","50","57",,,,,"77",,"OVC:08 13","29.97","10.00","53","290",,"3",,,,,,,,,,,,,,,,,,,,,,,,,,,,,,,,,,,,,"MET07607/03/20 04:35:02 METAR KSQL 031235Z 29003KT 10SM OVC013 14/10 A2998 RMK AO2","FM-15","7",,,,,,,,,,,,,,,,,,,,,,,,,,,,
"72493893231","2020-07-03T04:55:00","FM-15","7",,,,,,,,,,,,,,,,,,,,,,,,,,,,,,,,,,,,,,"29.98","50","57",,,,,"77",,"OVC:08 13","29.97","10.00","53","290",,"3",,,,,,,,,,,,,,,,,,,,,,,,,,,,,,,,,,,,,"MET07607/03/20 04:55:02 METAR KSQL 031255Z 29003KT 10SM OVC013 14/10 A2998 RMK AO2","FM-15","7",,,,,,,,,,,,,,,,,,,,,,,,,,,,
"72493893231","2020-07-03T05:15:00","FM-15","7",,,,,,,,,,,,,,,,,,,,,,,,,,,,,,,,,,,,,,"29.99","50","57",,,,,"77",,"BKN:07 13","29.98","10.00","53","290",,"3",,,,,,,,,,,,,,,,,,,,,,,,,,,,,,,,,,,,,"MET07607/03/20 05:15:02 METAR KSQL 031315Z 29003KT 10SM BKN013 14/10 A2999 RMK AO2","FM-15","7",,,,,,,,,,,,,,,,,,,,,,,,,,,,
"72493893231","2020-07-03T05:35:00","FM-15","7",,,,,,,,,,,,,,,,,,,,,,,,,,,,,,,,,,,,,,"30.00","50","57",,,,,"77",,"OVC:08 13","29.99","10.00","53","280",,"3",,,,,,,,,,,,,,,,,,,,,,,,,,,,,,,,,,,,,"MET07607/03/20 05:35:02 METAR KSQL 031335Z 28003KT 10SM OVC013 14/10 A3000 RMK AO2","FM-15","7",,,,,,,,,,,,,,,,,,,,,,,,,,,,
"72493893231","2020-07-03T05:55:00","FM-15","7",,,,,,,,,,,,,,,,,,,,,,,,,,,,,,,,,,,,,,"30.00","52","57",,,,,"82",,"OVC:08 13","29.99","10.00","54","300",,"3",,,,,,,,,,,,,,,,,,,,,,,,,,,,,,,,,,,,,"MET07607/03/20 05:55:02 METAR KSQL 031355Z 30003KT 10SM OVC013 14/11 A3000 RMK AO2","FM-15","7",,,,,,,,,,,,,,,,,,,,,,,,,,,,
"72493893231","2020-07-03T06:00:00","FM-15","4",,,,,,,,,,,,,,,,,,,,,,,,,,,,,,,,,,,,,,"30.00","52","57",,,,,"82",,,,"10.00",,"VRB",,"3",,,,,,,,,,,,,,,,,,,,,,,,,,,,,,,,,,,,,"MET051METAR KSQL 031400Z VRB03KT 10SM BKN013 14/11 A3000=","FM-15","4",,,,,,,,,,,,,,,,,,,,,,,,,,,,
"72493893231","2020-07-03T06:47:00","FM-15","7",,,,,,,,,,,,,,,,,,,,,,,,,,,,,,,,,,,,,,"30.02","52","59",,,,,"77",,"OVC:08 13","30.01","10.00","55","VRB",,"3",,,,,,,,,,,,,,,,,,,,,,,,,,,,,,,,,,,,,"MET07207/03/20 06:47:02 METAR KSQL 031447Z VRB03KT 10SM OVC013 15/11 A3002 RMK","FM-15","7",,,,,,,,,,,,,,,,,,,,,,,,,,,,
"72493893231","2020-07-03T07:47:00","FM-15","7",,,,,,,,,,,,,,,,,,,,,,,,,,,,,,,,,,,,,,"30.04","54","59",,,,,"82",,"BKN:07 15","30.03","10.00","56","VRB",,"3",,,,,,,,,,,,,,,,,,,,,,,,,,,,,,,,,,,,,"MET07207/03/20 07:47:02 METAR KSQL 031547Z VRB03KT 10SM BKN015 15/12 A3004 RMK","FM-15","7",,,,,,,,,,,,,,,,,,,,,,,,,,,,
"72493893231","2020-07-03T08:47:00","FM-15","7",,,,,,,,,,,,,,,,,,,,,,,,,,,,,,,,,,,,,,"30.04","52","63",,,,,"68",,"FEW:02 19","30.03","10.00","57","VRB",,"3",,,,,,,,,,,,,,,,,,,,,,,,,,,,,,,,,,,,,"MET07207/03/20 08:47:02 METAR KSQL 031647Z VRB03KT 10SM FEW019 17/11 A3004 RMK","FM-15","7",,,,,,,,,,,,,,,,,,,,,,,,,,,,
"72493893231","2020-07-03T09:47:00","FM-15","7",,,,,,,,,,,,,,,,,,,,,,,,,,,,,,,,,,,,,,"30.04","52","66",,,,,"60",,"*","30.03","10.00","58","290",,"8",,,,,,,,,,,,,,,,,,,,,,,,,,,,,,,,,,,,,"MET06907/03/20 09:47:02 METAR KSQL 031747Z 29007KT 10SM SKC 19/11 A3004 RMK","FM-15","7",,,,,,,,,,,,,,,,,,,,,,,,,,,,
"72493893231","2020-07-03T10:47:00","FM-15","7",,,,,,,,,,,,,,,,,,,,,,,,,,,,,,,,,,,,,,"30.04","55","64",,,,,"73",,"*","30.03","10.00","59","360",,"9",,,,,,,,,,,,,,,,,,,,,,,,,,,,,,,,,,,,,"MET06907/03/20 10:47:02 METAR KSQL 031847Z 36008KT 10SM SKC 18/13 A3004 RMK","FM-15","7",,,,,,,,,,,,,,,,,,,,,,,,,,,,
"72493893231","2020-07-03T11:47:00","FM-15","7",,,,,,,,,,,,,,,,,,,,,,,,,,,,,,,,,,,,,,"30.04","55","66",,,,,"68",,"*","30.03","10.00","60","340",,"10",,,,,,,,,,,,,,,,,,,,,,,,,,,,,,,,,,,,,"MET06907/03/20 11:47:02 METAR KSQL 031947Z 34009KT 10SM SKC 19/13 A3004 RMK","FM-15","7",,,,,,,,,,,,,,,,,,,,,,,,,,,,
"72493893231","2020-07-03T12:47:00","FM-15","7",,,,,,,,,,,,,,,,,,,,,,,,,,,,,,,,,,,,,,"30.04","55","68",,,,,"64",,"*","30.03","10.00","60","340",,"11",,,,,,,,,,,,,,,,,,,,,,,,,,,,,,,,,,,,,"MET06907/03/20 12:47:02 METAR KSQL 032047Z 34010KT 10SM SKC 20/13 A3004 RMK","FM-15","7",,,,,,,,,,,,,,,,,,,,,,,,,,,,
"72493893231","2020-07-03T13:47:00","FM-15","7",,,,,,,,,,,,,,,,,,,,,,,,,,,,,,,,,,,,,,"30.03","55","68",,,,,"64",,"*","30.02","10.00","60","350",,"13",,,,,,,,,,,,,,,,,,,,,,,,,,,,,,,,,,,,,"MET06907/03/20 13:47:02 METAR KSQL 032147Z 35011KT 10SM SKC 20/13 A3003 RMK","FM-15","7",,,,,,,,,,,,,,,,,,,,,,,,,,,,
"72493893231","2020-07-03T14:47:00","FM-15","7",,,,,,,,,,,,,,,,,,,,,,,,,,,,,,,,,,,,,,"30.01","52","77",,,,,"42",,"*","30.00","10.00","62","310",,"10",,,,,,,,,,,,,,,,,,,,,,,,,,,,,,,,,,,,,"MET06907/03/20 14:47:02 METAR KSQL 032247Z 31009KT 10SM SKC 25/11 A3001 RMK","FM-15","7",,,,,,,,,,,,,,,,,,,,,,,,,,,,
"72493893231","2020-07-03T15:47:00","FM-15","7",,,,,,,,,,,,,,,,,,,,,,,,,,,,,,,,,,,,,,"30.01","50","75",,,,,"41",,"*","30.00","10.00","61","280",,"17",,,,,,,,,,,,,,,,,,,,,,,,,,,,,,,,,,,,,"MET06907/03/20 15:47:02 METAR KSQL 032347Z 28015KT 10SM SKC 24/10 A3001 RMK","FM-15","7",,,,,,,,,,,,,,,,,,,,,,,,,,,,
"72493893231","2020-07-03T16:47:00","FM-15","7",,,,,,,,,,,,,,,,,,,,,,,,,,,,,,,,,,,,,,"30.01","46","75",,,,,"36",,"*","30.00","10.00","59","250",,"11",,,,,,,,,,,,,,,,,,,,,,,,,,,,,,,,,,,,,"MET06907/03/20 16:47:01 METAR KSQL 040047Z 25010KT 10SM SKC 24/08 A3001 RMK","FM-15","7",,,,,,,,,,,,,,,,,,,,,,,,,,,,
"72493893231","2020-07-03T17:47:00","FM-15","7",,,,,,,,,,,,,,,,,,,,,,,,,,,,,,,,,,,,,,"30.02","45","72",,,,,"38",,"*","30.01","10.00","57","260",,"11",,,,,,,,,,,,,,,,,,,,,,,,,,,,,,,,,,,,,"MET06907/03/20 17:47:01 METAR KSQL 040147Z 26010KT 10SM SKC 22/07 A3002 RMK","FM-15","7",,,,,,,,,,,,,,,,,,,,,,,,,,,,
"72493893231","2020-07-03T18:47:00","FM-15","7",,,,,,,,,,,,,,,,,,,,,,,,,,,,,,,,,,,,,,"30.02","46","66",,,,,"49",,"*","30.01","10.00","55","280",,"9",,,,,,,,,,,,,,,,,,,,,,,,,,,,,,,,,,,,,"MET06907/03/20 18:47:01 METAR KSQL 040247Z 28008KT 10SM SKC 19/08 A3002 RMK","FM-15","7",,,,,,,,,,,,,,,,,,,,,,,,,,,,
"72493893231","2020-07-03T19:47:00","FM-15","7",,,,,,,,,,,,,,,,,,,,,,,,,,,,,,,,,,,,,,"30.03","46","64",,,,,"52",,"*","30.02","10.00","54","290",,"6",,,,,,,,,,,,,,,,,,,,,,,,,,,,,,,,,,,,,"MET07407/03/20 19:47:02 METAR KSQL 040347Z 29005KT 10SM SKC 18/08 A3003 RMK LAST","FM-15","7",,,,,,,,,,,,,,,,,,,,,,,,,,,,
"72493893231","2020-07-03T20:15:00","FM-15","7",,,,,,,,,,,,,,,,,,,,,,,,,,,,,,,,,,,,,,"30.03","46","63",,,,,"56",,"CLR:00","30.02","10.00","54","300",,"7",,,,,,,,,,,,,,,,,,,,,,,,,,,,,,,,,,,,,"MET07307/03/20 20:15:02 METAR KSQL 040415Z 30006KT 10SM CLR 17/08 A3003 RMK AO2","FM-15","7",,,,,,,,,,,,,,,,,,,,,,,,,,,,
"72493893231","2020-07-03T20:35:00","FM-15","7",,,,,,,,,,,,,,,,,,,,,,,,,,,,,,,,,,,,,,"30.03","46","63",,,,,"56",,"CLR:00","30.02","10.00","54","310",,"7",,,,,,,,,,,,,,,,,,,,,,,,,,,,,,,,,,,,,"MET07307/03/20 20:35:02 METAR KSQL 040435Z 31006KT 10SM CLR 17/08 A3003 RMK AO2","FM-15","7",,,,,,,,,,,,,,,,,,,,,,,,,,,,
"72493893231","2020-07-03T20:40:00","FM-15","7",,,,,,,,,,,,,,,,,,,,,,,,,,,,,,,,,,,,,,"30.04","46","63",,,,,"56",,"CLR:00","30.03","10.00","54","320",,"6",,,,,,,,,,,,,,,,,,,,,,,,,,,,,,,,,,,,,"MET07307/03/20 20:40:02 METAR KSQL 040440Z 32005KT 10SM CLR 17/08 A3004 RMK AO2","FM-15","7",,,,,,,,,,,,,,,,,,,,,,,,,,,,
"72493893231","2020-07-03T20:55:00","FM-15","7",,,,,,,,,,,,,,,,,,,,,,,,,,,,,,,,,,,,,,"30.04","46","63",,,,,"56",,"CLR:00","30.03","10.00","54","310",,"6",,,,,,,,,,,,,,,,,,,,,,,,,,,,,,,,,,,,,"MET07307/03/20 20:55:02 METAR KSQL 040455Z 31005KT 10SM CLR 17/08 A3004 RMK AO2","FM-15","7",,,,,,,,,,,,,,,,,,,,,,,,,,,,
"72493893231","2020-07-03T21:15:00","FM-15","7",,,,,,,,,,,,,,,,,,,,,,,,,,,,,,,,,,,,,,"30.04","46","63",,,,,"56",,"CLR:00","30.03","10.00","54","300",,"3",,,,,,,,,,,,,,,,,,,,,,,,,,,,,,,,,,,,,"MET07307/03/20 21:15:02 METAR KSQL 040515Z 30003KT 10SM CLR 17/08 A3004 RMK AO2","FM-15","7",,,,,,,,,,,,,,,,,,,,,,,,,,,,
"72493893231","2020-07-03T21:35:00","FM-15","7",,,,,,,,,,,,,,,,,,,,,,,,,,,,,,,,,,,,,,"30.04","46","63",,,,,"56",,"CLR:00","30.03","10.00","54","000",,"0",,,,,,,,,,,,,,,,,,,,,,,,,,,,,,,,,,,,,"MET07307/03/20 21:35:02 METAR KSQL 040535Z 00000KT 10SM CLR 17/08 A3004 RMK AO2","FM-15","7",,,,,,,,,,,,,,,,,,,,,,,,,,,,
"72493893231","2020-07-03T21:55:00","FM-15","7",,,,,,,,,,,,,,,,,,,,,,,,,,,,,,,,,,,,,,"30.04","48","63",,,,,"59",,"CLR:00","30.03","10.00","55","220",,"3",,,,,,,,,,,,,,,,,,,,,,,,,,,,,,,,,,,,,"MET07307/03/20 21:55:02 METAR KSQL 040555Z 22003KT 10SM CLR 17/09 A3004 RMK AO2","FM-15","7",,,,,,,,,,,,,,,,,,,,,,,,,,,,
"72493893231","2020-07-03T22:15:00","FM-15","7",,,,,,,,,,,,,,,,,,,,,,,,,,,,,,,,,,,,,,"30.04","48","61",,,,,"63",,"CLR:00","30.03","10.00","54","310",,"5",,,,,,,,,,,,,,,,,,,,,,,,,,,,,,,,,,,,,"MET07307/03/20 22:15:02 METAR KSQL 040615Z 31004KT 10SM CLR 16/09 A3004 RMK AO2","FM-15","7",,,,,,,,,,,,,,,,,,,,,,,,,,,,
"72493893231","2020-07-03T22:35:00","FM-15","7",,,,,,,,,,,,,,,,,,,,,,,,,,,,,,,,,,,,,,"30.04","48","61",,,,,"63",,"CLR:00","30.03","10.00","54","310",,"6",,,,,,,,,,,,,,,,,,,,,,,,,,,,,,,,,,,,,"MET07307/03/20 22:35:02 METAR KSQL 040635Z 31005KT 10SM CLR 16/09 A3004 RMK AO2","FM-15","7",,,,,,,,,,,,,,,,,,,,,,,,,,,,
"72493893231","2020-07-03T22:40:00","FM-15","7",,,,,,,,,,,,,,,,,,,,,,,,,,,,,,,,,,,,,,"30.04","48","59",,,,,"68",,"CLR:00","30.03","10.00","53","310",,"6",,,,,,,,,,,,,,,,,,,,,,,,,,,,,,,,,,,,,"MET07307/03/20 22:40:02 METAR KSQL 040640Z 31005KT 10SM CLR 15/09 A3004 RMK AO2","FM-15","7",,,,,,,,,,,,,,,,,,,,,,,,,,,,
"72493893231","2020-07-03T22:55:00","FM-15","7",,,,,,,,,,,,,,,,,,,,,,,,,,,,,,,,,,,,,,"30.04","48","59",,,,,"68",,"CLR:00","30.03","10.00","53","300",,"6",,,,,,,,,,,,,,,,,,,,,,,,,,,,,,,,,,,,,"MET07307/03/20 22:55:02 METAR KSQL 040655Z 30005KT 10SM CLR 15/09 A3004 RMK AO2","FM-15","7",,,,,,,,,,,,,,,,,,,,,,,,,,,,
"72493893231","2020-07-03T23:15:00","FM-15","7",,,,,,,,,,,,,,,,,,,,,,,,,,,,,,,,,,,,,,"30.04","48","59",,,,,"68",,"CLR:00","30.03","10.00","53","310",,"5",,,,,,,,,,,,,,,,,,,,,,,,,,,,,,,,,,,,,"MET07307/03/20 23:15:02 METAR KSQL 040715Z 31004KT 10SM CLR 15/09 A3004 RMK AO2","FM-15","7",,,,,,,,,,,,,,,,,,,,,,,,,,,,
"72493893231","2020-07-03T23:35:00","FM-15","7",,,,,,,,,,,,,,,,,,,,,,,,,,,,,,,,,,,,,,"30.04","48","59",,,,,"68",,"CLR:00","30.03","10.00","53","310",,"3",,,,,,,,,,,,,,,,,,,,,,,,,,,,,,,,,,,,,"MET07307/03/20 23:35:02 METAR KSQL 040735Z 31003KT 10SM CLR 15/09 A3004 RMK AO2","FM-15","7",,,,,,,,,,,,,,,,,,,,,,,,,,,,
"72493893231","2020-07-03T23:55:00","FM-15","7",,,,,,,,,,,,,,,,,,,,,,,,,,,,,,,,,,,,,,"30.04","48","57",,,,,"72",,"CLR:00","30.03","10.00","52","310",,"5",,,,,,,,,,,,,,,,,,,,,,,,,,,,,,,,,,,,,"MET07307/03/20 23:55:02 METAR KSQL 040755Z 31004KT 10SM CLR 14/09 A3004 RMK AO2","FM-15","7",,,,,,,,,,,,,,,,,,,,,,,,,,,,
"72493893231","2020-07-04T00:15:00","FM-15","7",,,,,,,,,,,,,,,,,,,,,,,,,,,,,,,,,,,,,,"30.03","48","57",,,,,"72",,"CLR:00","30.02","10.00","52","320",,"3",,,,,,,,,,,,,,,,,,,,,,,,,,,,,,,,,,,,,"MET07307/04/20 00:15:02 METAR KSQL 040815Z 32003KT 10SM CLR 14/09 A3003 RMK AO2","FM-15","7",,,,,,,,,,,,,,,,,,,,,,,,,,,,
"72493893231","2020-07-04T00:35:00","FM-15","7",,,,,,,,,,,,,,,,,,,,,,,,,,,,,,,,,,,,,,"30.03","48","57",,,,,"72",,"CLR:00","30.02","10.00","52","300",,"3",,,,,,,,,,,,,,,,,,,,,,,,,,,,,,,,,,,,,"MET07307/04/20 00:35:02 METAR KSQL 040835Z 30003KT 10SM CLR 14/09 A3003 RMK AO2","FM-15","7",,,,,,,,,,,,,,,,,,,,,,,,,,,,
"72493893231","2020-07-04T00:55:00","FM-15","7",,,,,,,,,,,,,,,,,,,,,,,,,,,,,,,,,,,,,,"30.03","48","57",,,,,"72",,"CLR:00","30.02","10.00","52","300",,"3",,,,,,,,,,,,,,,,,,,,,,,,,,,,,,,,,,,,,"MET07307/04/20 00:55:02 METAR KSQL 040855Z 30003KT 10SM CLR 14/09 A3003 RMK AO2","FM-15","7",,,,,,,,,,,,,,,,,,,,,,,,,,,,
"72493893231","2020-07-04T01:15:00","FM-15","7",,,,,,,,,,,,,,,,,,,,,,,,,,,,,,,,,,,,,,"30.03","48","57",,,,,"72",,"CLR:00","30.02","10.00","52","000",,"0",,,,,,,,,,,,,,,,,,,,,,,,,,,,,,,,,,,,,"MET07307/04/20 01:15:02 METAR KSQL 040915Z 00000KT 10SM CLR 14/09 A3003 RMK AO2","FM-15","7",,,,,,,,,,,,,,,,,,,,,,,,,,,,
"72493893231","2020-07-04T01:35:00","FM-15","7",,,,,,,,,,,,,,,,,,,,,,,,,,,,,,,,,,,,,,"30.03","48","57",,,,,"72",,"CLR:00","30.02","10.00","52","300",,"5",,,,,,,,,,,,,,,,,,,,,,,,,,,,,,,,,,,,,"MET07307/04/20 01:35:02 METAR KSQL 040935Z 30004KT 10SM CLR 14/09 A3003 RMK AO2","FM-15","7",,,,,,,,,,,,,,,,,,,,,,,,,,,,
"72493893231","2020-07-04T01:55:00","FM-15","7",,,,,,,,,,,,,,,,,,,,,,,,,,,,,,,,,,,,,,"30.03","48","57",,,,,"72",,"CLR:00","30.02","10.00","52","280",,"3",,,,,,,,,,,,,,,,,,,,,,,,,,,,,,,,,,,,,"MET07307/04/20 01:55:02 METAR KSQL 040955Z 28003KT 10SM CLR 14/09 A3003 RMK AO2","FM-15","7",,,,,,,,,,,,,,,,,,,,,,,,,,,,
"72493893231","2020-07-04T02:15:00","FM-15","7",,,,,,,,,,,,,,,,,,,,,,,,,,,,,,,,,,,,,,"30.03","48","57",,,,,"72",,"CLR:00","30.02","10.00","52","000",,"0",,,,,,,,,,,,,,,,,,,,,,,,,,,,,,,,,,,,,"MET07307/04/20 02:15:02 METAR KSQL 041015Z 00000KT 10SM CLR 14/09 A3003 RMK AO2","FM-15","7",,,,,,,,,,,,,,,,,,,,,,,,,,,,
"72493893231","2020-07-04T02:20:00","FM-15","7",,,,,,,,,,,,,,,,,,,,,,,,,,,,,,,,,,,,,,"30.02","48","57",,,,,"72",,"CLR:00","30.01","10.00","52","000",,"0",,,,,,,,,,,,,,,,,,,,,,,,,,,,,,,,,,,,,"MET07307/04/20 02:20:02 METAR KSQL 041020Z 00000KT 10SM CLR 14/09 A3002 RMK AO2","FM-15","7",,,,,,,,,,,,,,,,,,,,,,,,,,,,
"72493893231","2020-07-04T02:35:00","FM-15","7",,,,,,,,,,,,,,,,,,,,,,,,,,,,,,,,,,,,,,"30.02","48","57",,,,,"72",,"CLR:00","30.01","10.00","52","000",,"0",,,,,,,,,,,,,,,,,,,,,,,,,,,,,,,,,,,,,"MET07307/04/20 02:35:02 METAR KSQL 041035Z 00000KT 10SM CLR 14/09 A3002 RMK AO2","FM-15","7",,,,,,,,,,,,,,,,,,,,,,,,,,,,
"72493893231","2020-07-04T02:55:00","FM-15","7",,,,,,,,,,,,,,,,,,,,,,,,,,,,,,,,,,,,,,"30.02","48","57",,,,,"72",,"CLR:00","30.01","10.00","52","000",,"0",,,,,,,,,,,,,,,,,,,,,,,,,,,,,,,,,,,,,"MET07307/04/20 02:55:02 METAR KSQL 041055Z 00000KT 10SM CLR 14/09 A3002 RMK AO2","FM-15","7",,,,,,,,,,,,,,,,,,,,,,,,,,,,
"72493893231","2020-07-04T03:15:00","FM-15","7",,,,,,,,,,,,,,,,,,,,,,,,,,,,,,,,,,,,,,"30.02","48","57",,,,,"72",,"CLR:00","30.01","10.00","52","000",,"0",,,,,,,,,,,,,,,,,,,,,,,,,,,,,,,,,,,,,"MET07307/04/20 03:15:02 METAR KSQL 041115Z 00000KT 10SM CLR 14/09 A3002 RMK AO2","FM-15","7",,,,,,,,,,,,,,,,,,,,,,,,,,,,
"72493893231","2020-07-04T03:35:00","FM-15","7",,,,,,,,,,,,,,,,,,,,,,,,,,,,,,,,,,,,,,"30.02","50","57",,,,,"77",,"CLR:00","30.01","10.00","53","000",,"0",,,,,,,,,,,,,,,,,,,,,,,,,,,,,,,,,,,,,"MET07307/04/20 03:35:02 METAR KSQL 041135Z 00000KT 10SM CLR 14/10 A3002 RMK AO2","FM-15","7",,,,,,,,,,,,,,,,,,,,,,,,,,,,
"72493893231","2020-07-04T03:55:00","FM-15","7",,,,,,,,,,,,,,,,,,,,,,,,,,,,,,,,,,,,,,"30.02","48","57",,,,,"72",,"CLR:00","30.01","10.00","52","000",,"0",,,,,,,,,,,,,,,,,,,,,,,,,,,,,,,,,,,,,"MET07307/04/20 03:55:02 METAR KSQL 041155Z 00000KT 10SM CLR 14/09 A3002 RMK AO2","FM-15","7",,,,,,,,,,,,,,,,,,,,,,,,,,,,
"72493893231","2020-07-04T04:15:00","FM-15","7",,,,,,,,,,,,,,,,,,,,,,,,,,,,,,,,,,,,,,"30.02","48","55",,,,,"77",,"CLR:00","30.01","10.00","51","000",,"0",,,,,,,,,,,,,,,,,,,,,,,,,,,,,,,,,,,,,"MET07307/04/20 04:15:02 METAR KSQL 041215Z 00000KT 10SM CLR 13/09 A3002 RMK AO2","FM-15","7",,,,,,,,,,,,,,,,,,,,,,,,,,,,
"72493893231","2020-07-04T04:20:00","FM-15","7",,,,,,,,,,,,,,,,,,,,,,,,,,,,,,,,,,,,,,"30.02","48","55",,,,,"77",,"CLR:00","30.01","10.00","51","000",,"0",,,,,,,,,,,,,,,,,,,,,,,,,,,,,,,,,,,,,"MET07307/04/20 04:20:02 METAR KSQL 041220Z 00000KT 10SM CLR 13/09 A3002 RMK AO2","FM-15","7",,,,,,,,,,,,,,,,,,,,,,,,,,,,
"72493893231","2020-07-04T04:35:00","FM-15","7",,,,,,,,,,,,,,,,,,,,,,,,,,,,,,,,,,,,,,"30.03","48","55",,,,,"77",,"CLR:00","30.02","10.00","51","000",,"0",,,,,,,,,,,,,,,,,,,,,,,,,,,,,,,,,,,,,"MET07307/04/20 04:35:02 METAR KSQL 041235Z 00000KT 10SM CLR 13/09 A3003 RMK AO2","FM-15","7",,,,,,,,,,,,,,,,,,,,,,,,,,,,
"72493893231","2020-07-04T04:55:00","FM-15","7",,,,,,,,,,,,,,,,,,,,,,,,,,,,,,,,,,,,,,"30.03","50","55",,,,,"82",,"CLR:00","30.02","10.00","52","000",,"0",,,,,,,,,,,,,,,,,,,,,,,,,,,,,,,,,,,,,"MET07307/04/20 04:55:02 METAR KSQL 041255Z 00000KT 10SM CLR 13/10 A3003 RMK AO2","FM-15","7",,,,,,,,,,,,,,,,,,,,,,,,,,,,
"72493893231","2020-07-04T05:15:00","FM-15","7",,,,,,,,,,,,,,,,,,,,,,,,,,,,,,,,,,,,,,"30.04","50","55",,,,,"82",,"CLR:00","30.03","9.00","52","000",,"0",,,,,,,,,,,,,,,,,,,,,,,,,,,,,,,,,,,,,"MET07207/04/20 05:15:02 METAR KSQL 041315Z 00000KT 9SM CLR 13/10 A3004 RMK AO2","FM-15","7",,,,,,,,,,,,,,,,,,,,,,,,,,,,
"72493893231","2020-07-04T05:35:00","FM-15","7",,,,,,,,,,,,,,,,,,,,,,,,,,,,,,,,,,,,,,"30.04","50","55",,,,,"82",,"CLR:00","30.03","9.00","52","300",,"3",,,,,,,,,,,,,,,,,,,,,,,,,,,,,,,,,,,,,"MET07207/04/20 05:35:02 METAR KSQL 041335Z 30003KT 9SM CLR 13/10 A3004 RMK AO2","FM-15","7",,,,,,,,,,,,,,,,,,,,,,,,,,,,
"72493893231","2020-07-04T05:55:00","FM-15","7",,,,,,,,,,,,,,,,,,,,,,,,,,,,,,,,,,,,,,"30.04","50","57",,,,,"77",,"CLR:00","30.03","9.00","53","300",,"3",,,,,,,,,,,,,,,,,,,,,,,,,,,,,,,,,,,,,"MET07207/04/20 05:55:02 METAR KSQL 041355Z 30003KT 9SM CLR 14/10 A3004 RMK AO2","FM-15","7",,,,,,,,,,,,,,,,,,,,,,,,,,,,
"72493893231","2020-07-04T06:47:00","FM-15","7",,,,,,,,,,,,,,,,,,,,,,,,,,,,,,,,,,,,,,"30.05","52","61",,,,,"72",,"*","30.04","10.00","56","000",,"0",,,,,,,,,,,,,,,,,,,,,,,,,,,,,,,,,,,,,"MET06907/04/20 06:47:02 METAR KSQL 041447Z 00000KT 10SM SKC 16/11 A3005 RMK","FM-15","7",,,,,,,,,,,,,,,,,,,,,,,,,,,,
"72493893231","2020-07-04T07:47:00","FM-15","7",,,,,,,,,,,,,,,,,,,,,,,,,,,,,,,,,,,,,,"30.06","55","63",,,,,"77",,"*","30.05","10.00","58","000",,"0",,,,,,,,,,,,,,,,,,,,,,,,,,,,,,,,,,,,,"MET06907/04/20 07:47:02 METAR KSQL 041547Z 00000KT 10SM SKC 17/13 A3006 RMK","FM-15","7",,,,,,,,,,,,,,,,,,,,,,,,,,,,
"72493893231","2020-07-04T08:47:00","FM-15","7",,,,,,,,,,,,,,,,,,,,,,,,,,,,,,,,,,,,,,"30.06","57","66",,,,,"73",,"*","30.05","10.00","61","000",,"0",,,,,,,,,,,,,,,,,,,,,,,,,,,,,,,,,,,,,"MET06907/04/20 08:47:02 METAR KSQL 041647Z 00000KT 10SM SKC 19/14 A3006 RMK","FM-15","7",,,,,,,,,,,,,,,,,,,,,,,,,,,,
"72493893231","2020-07-04T09:47:00","FM-15","7",,,,,,,,,,,,,,,,,,,,,,,,,,,,,,,,,,,,,,"30.06","57","68",,,,,"69",,"*","30.05","10.00","62","360",,"6",,,,,,,,,,,,,,,,,,,,,,,,,,,,,,,,,,,,,"MET06907/04/20 09:47:02 METAR KSQL 041747Z 36005KT 10SM SKC 20/14 A3006 RMK","FM-15","7",,,,,,,,,,,,,,,,,,,,,,,,,,,,
"72493893231","2020-07-04T10:47:00","FM-15","7",,,,,,,,,,,,,,,,,,,,,,,,,,,,,,,,,,,,,,"30.06","59","72",,,,,"65",,"*","30.05","10.00","64","020",,"8",,,,,,,,,,,,,,,,,,,,,,,,,,,,,,,,,,,,,"MET06907/04/20 10:47:02 METAR KSQL 041847Z 02007KT 10SM SKC 22/15 A3006 RMK","FM-15","7",,,,,,,,,,,,,,,,,,,,,,,,,,,,
"72493893231","2020-07-04T11:56:00","FM-15","7",,,,,,,,,,,,,,,,,,,,,,,,,,,,,,,,,,,,,,"30.04","55","75",,,,,"50",,"*","30.03","10.00","63","360",,"8",,,,,,,,,,,,,,,,,,,,,,,,,,,,,,,,,,,,,"MET06907/04/20 11:56:02 METAR KSQL 041956Z 36007KT 10SM SKC 24/13 A3004 RMK","FM-15","7",,,,,,,,,,,,,,,,,,,,,,,,,,,,
"72493893231","2020-07-04T12:47:00","FM-15","7",,,,,,,,,,,,,,,,,,,,,,,,,,,,,,,,,,,,,,"30.03","50","81",,,,,"34",,"*","30.02","10.00","63","320",,"9",,,,,,,,,,,,,,,,,,,,,,,,,,,,,,,,,,,,,"MET06907/04/20 12:47:02 METAR KSQL 042047Z 32008KT 10SM SKC 27/10 A3003 RMK","FM-15","7",,,,,,,,,,,,,,,,,,,,,,,,,,,,
"72493893231","2020-07-04T13:52:00","FM-15","7",,,,,,,,,,,,,,,,,,,,,,,,,,,,,,,,,,,,,,"30.02","52","84",,,,,"33",,"*","30.01","10.00","65","340",,"11",,,,,,,,,,,,,,,,,,,,,,,,,,,,,,,,,,,,,"MET06907/04/20 13:52:02 METAR KSQL 042152Z 34010KT 10SM SKC 29/11 A3002 RMK","FM-15","7",,,,,,,,,,,,,,,,,,,,,,,,,,,,
"72493893231","2020-07-04T14:47:00","FM-15","7",,,,,,,,,,,,,,,,,,,,,,,,,,,,,,,,,,,,,,"30.00","50","88",,,,,"27",,"*","29.99","10.00","65","250",,"9",,,,,,,,,,,,,,,,,,,,,,,,,,,,,,,,,,,,,"MET06907/04/20 14:47:02 METAR KSQL 042247Z 25008KT 10SM SKC 31/10 A3000 RMK","FM-15","7",,,,,,,,,,,,,,,,,,,,,,,,,,,,
"72493893231","2020-07-04T15:47:00","FM-15","7",,,,,,,,,,,,,,,,,,,,,,,,,,,,,,,,,,,,,,"29.99","48","84",,,,,"29",,"*","29.98","10.00","63","250",,"10",,,,,,,,,,,,,,,,,,,,,,,,,,,,,,,,,,,,,"MET06907/04/20 15:47:02 METAR KSQL 042347Z 25009KT 10SM SKC 29/09 A2999 RMK","FM-15","7",,,,,,,,,,,,,,,,,,,,,,,,,,,,
"72493893231","2020-07-04T16:47:00","FM-15","7",,,,,,,,,,,,,,,,,,,,,,,,,,,,,,,,,,,,,,"29.98","46","82",,,,,"28",,"*","29.97","10.00","62","250",,"14",,,,,,,,,,,,,,,,,,,,,,,,,,,,,,,,,,,,,"MET06907/04/20 16:47:01 METAR KSQL 050047Z 25012KT 10SM SKC 28/08 A2998 RMK","FM-15","7",,,,,,,,,,,,,,,,,,,,,,,,,,,,
"72493893231","2020-07-04T17:47:00","FM-15","7",,,,,,,,,,,,,,,,,,,,,,,,,,,,,,,,,,,,,,"29.98","41","81",,,,,"24",,"*","29.97","10.00","59","250","17","11",,,,,,,,,,,,,,,,,,,,,,,,,,,,,,,,,,,,,"MET07207/04/20 17:47:01 METAR KSQL 050147Z 25010G15KT 10SM SKC 27/05 A2998 RMK","FM-15","7",,,,,,,,,,,,,,,,,,,,,,,,,,,,
"72493893231","2020-07-04T18:58:00","FM-15","7",,,,,,,,,,,,,,,,,,,,,,,,,,,,,,,,,,,,,,"29.99","39","75",,,,,"27",,"*","29.98","10.00","56","290",,"10",,,,,,,,,,,,,,,,,,,,,,,,,,,,,,,,,,,,,"MET06907/04/20 18:58:01 METAR KSQL 050258Z 29009KT 10SM SKC 24/04 A2999 RMK","FM-15","7",,,,,,,,,,,,,,,,,,,,,,,,,,,,
"72493893231","2020-07-04T19:58:00","FM-15","7",,,,,,,,,,,,,,,,,,,,,,,,,,,,,,,,,,,,,,"30.00","45","72",,,,,"38",,"*","29.99","10.00","57","310",,"6",,,,,,,,,,,,,,,,,,,,,,,,,,,,,,,,,,,,,"MET07407/04/20 19:58:02 METAR KSQL 050358Z 31005KT 10SM SKC 22/07 A3000 RMK LAST","FM-15","7",,,,,,,,,,,,,,,,,,,,,,,,,,,,
"72493893231","2020-07-04T20:15:00","FM-15","7",,,,,,,,,,,,,,,,,,,,,,,,,,,,,,,,,,,,,,"30.00","46","70",,,,,"43",,"CLR:00","29.99","10.00","57","340",,"3",,,,,,,,,,,,,,,,,,,,,,,,,,,,,,,,,,,,,"MET07307/04/20 20:15:02 METAR KSQL 050415Z 34003KT 10SM CLR 21/08 A3000 RMK AO2","FM-15","7",,,,,,,,,,,,,,,,,,,,,,,,,,,,
"72493893231","2020-07-04T20:35:00","FM-15","7",,,,,,,,,,,,,,,,,,,,,,,,,,,,,,,,,,,,,,"30.00","45","68",,,,,"43",,"CLR:00","29.99","10.00","56","330",,"6",,,,,,,,,,,,,,,,,,,,,,,,,,,,,,,,,,,,,"MET07307/04/20 20:35:02 METAR KSQL 050435Z 33005KT 10SM CLR 20/07 A3000 RMK AO2","FM-15","7",,,,,,,,,,,,,,,,,,,,,,,,,,,,
"72493893231","2020-07-04T20:55:00","FM-15","7",,,,,,,,,,,,,,,,,,,,,,,,,,,,,,,,,,,,,,"30.01","48","66",,,,,"52",,"CLR:00","30.00","10.00","56","360",,"5",,,,,,,,,,,,,,,,,,,,,,,,,,,,,,,,,,,,,"MET07307/04/20 20:55:02 METAR KSQL 050455Z 36004KT 10SM CLR 19/09 A3001 RMK AO2","FM-15","7",,,,,,,,,,,,,,,,,,,,,,,,,,,,
"72493893231","2020-07-04T21:00:00","FM-15","4",,,,,,,,,,,,,,,,,,,,,,,,,,,,,,,,,,,,,,"30.01","48","66",,,,,"52",,,,"10.00",,"350",,"6",,,,,,,,,,,,,,,,,,,,,,,,,,,,,,,,,,,,,"MET061METAR KSQL 050500Z AUTO 35005KT 10SM CLR 19/09 A3001 RMK AO2=","FM-15","4",,,,,,,,,,,,,,,,,,,,,,,,,,,,
"72493893231","2020-07-04T21:15:00","FM-15","7",,,,,,,,,,,,,,,,,,,,,,,,,,,,,,,,,,,,,,"30.01","48","66",,,,,"52",,"CLR:00","30.00","10.00","56","350",,"3",,,,,,,,,,,,,,,,,,,,,,,,,,,,,,,,,,,,,"MET07307/04/20 21:15:02 METAR KSQL 050515Z 35003KT 10SM CLR 19/09 A3001 RMK AO2","FM-15","7",,,,,,,,,,,,,,,,,,,,,,,,,,,,
"72493893231","2020-07-04T21:35:00","FM-15","7",,,,,,,,,,,,,,,,,,,,,,,,,,,,,,,,,,,,,,"30.01","48","64",,,,,"56",,"CLR:00","30.00","10.00","55","000",,"0",,,,,,,,,,,,,,,,,,,,,,,,,,,,,,,,,,,,,"MET07307/04/20 21:35:02 METAR KSQL 050535Z 00000KT 10SM CLR 18/09 A3001 RMK AO2","FM-15","7",,,,,,,,,,,,,,,,,,,,,,,,,,,,
"72493893231","2020-07-04T21:40:00","FM-15","7",,,,,,,,,,,,,,,,,,,,,,,,,,,,,,,,,,,,,,"30.01","48","66",,,,,"52",,"CLR:00","30.00","10.00","56","010",,"3",,,,,,,,,,,,,,,,,,,,,,,,,,,,,,,,,,,,,"MET07307/04/20 21:40:02 METAR KSQL 050540Z 01003KT 10SM CLR 19/09 A3001 RMK AO2","FM-15","7",,,,,,,,,,,,,,,,,,,,,,,,,,,,
"72493893231","2020-07-04T21:55:00","FM-15","7",,,,,,,,,,,,,,,,,,,,,,,,,,,,,,,,,,,,,,"30.01","50","64",,,,,"60",,"FEW:02 3","30.00","10.00","56","350",,"3",,,,,,,,,,,,,,,,,,,,,,,,,,,,,,,,,,,,,"MET07607/04/20 21:55:02 METAR KSQL 050555Z 35003KT 10SM FEW003 18/10 A3001 RMK AO2","FM-15","7",,,,,,,,,,,,,,,,,,,,,,,,,,,,
"72493893231","2020-07-04T22:00:00","FM-15","4",,,,,,,,,,,,,,,,,,,,,,,,,,,,,,,,,,,,,,"30.01","48","64",,,,,"56",,,,"10.00",,"350",,"3",,,,,,,,,,,,,,,,,,,,,,,,,,,,,,,,,,,,,"MET064METAR KSQL 050600Z AUTO 35003KT 10SM SCT003 18/09 A3001 RMK AO2=","FM-15","4",,,,,,,,,,,,,,,,,,,,,,,,,,,,
"72493893231","2020-07-04T22:15:00","FM-15","7",,,,,,,,,,,,,,,,,,,,,,,,,,,,,,,,,,,,,,"30.01","48","64",,,,,"56",,"FEW:02 3","30.00","10.00","55","310",,"3",,,,,,,,,,,,,,,,,,,,,,,,,,,,,,,,,,,,,"MET07607/04/20 22:15:02 METAR KSQL 050615Z 31003KT 10SM FEW003 18/09 A3001 RMK AO2","FM-15","7",,,,,,,,,,,,,,,,,,,,,,,,,,,,
"72493893231","2020-07-04T22:35:00","FM-15","7",,,,,,,,,,,,,,,,,,,,,,,,,,,,,,,,,,,,,,"30.01","50","64",,,,,"60",,"FEW:02 3","30.00","9.00","56","000",,"0",,,,,,,,,,,,,,,,,,,,,,,,,,,,,,,,,,,,,"MET07507/04/20 22:35:02 METAR KSQL 050635Z 00000KT 9SM FEW003 18/10 A3001 RMK AO2","FM-15","7",,,,,,,,,,,,,,,,,,,,,,,,,,,,
"72493893231","2020-07-04T22:55:00","FM-15","7",,,,,,,,,,,,,,,,,,,,,,,,,,,,,,,,,,,,,,"30.01","50","64",,,,,"60",,"FEW:02 3","30.00","10.00","56","300",,"3",,,,,,,,,,,,,,,,,,,,,,,,,,,,,,,,,,,,,"MET07607/04/20 22:55:02 METAR KSQL 050655Z 30003KT 10SM FEW003 18/10 A3001 RMK AO2","FM-15","7",,,,,,,,,,,,,,,,,,,,,,,,,,,,
"72493893231","2020-07-04T23:15:00","FM-15","7",,,,,,,,,,,,,,,,,,,,,,,,,,,,,,,,,,,,,,"30.01","50","64",,,,,"60",,"FEW:02 3","30.00","9.00","56","000",,"0",,,,,,,,,,,,,,,,,,,,,,,,,,,,,,,,,,,,,"MET07507/04/20 23:15:02 METAR KSQL 050715Z 00000KT 9SM FEW003 18/10 A3001 RMK AO2","FM-15","7",,,,,,,,,,,,,,,,,,,,,,,,,,,,
"72493893231","2020-07-04T23:20:00","FM-15","7",,,,,,,,,,,,,,,,,,,,,,,,,,,,,,,,,,,,,,"30.01","50","64",,,,,"60",,"CLR:00","30.00","9.00","56","300",,"3",,,,,,,,,,,,,,,,,,,,,,,,,,,,,,,,,,,,,"MET07207/04/20 23:20:02 METAR KSQL 050720Z 30003KT 9SM CLR 18/10 A3001 RMK AO2","FM-15","7",,,,,,,,,,,,,,,,,,,,,,,,,,,,
"72493893231","2020-07-04T23:35:00","FM-15","7",,,,,,,,,,,,,,,,,,,,,,,,,,,,,,,,,,,,,,"30.01","50","63",,,,,"64",,"CLR:00","30.00","10.00","56","300",,"5",,,,,,,,,,,,,,,,,,,,,,,,,,,,,,,,,,,,,"MET07307/04/20 23:35:02 METAR KSQL 050735Z 30004KT 10SM CLR 17/10 A3001 RMK AO2","FM-15","7",,,,,,,,,,,,,,,,,,,,,,,,,,,,
"72493893231","2020-07-04T23:55:00","FM-15","7",,,,,,,,,,,,,,,,,,,,,,,,,,,,,,,,,,,,,,"30.01","50","63",,,,,"64",,"CLR:00","30.00","8.00","56","310",,"3",,,,,,,,,,,,,,,,,,,,,,,,,,,,,,,,,,,,,"MET07207/04/20 23:55:02 METAR KSQL 050755Z 31003KT 8SM CLR 17/10 A3001 RMK AO2","FM-15","7",,,,,,,,,,,,,,,,,,,,,,,,,,,,
"72493893231","2020-07-05T00:15:00","FM-15","7",,,,,,,,,,,,,,,,,,,,,,,,,,,,,,,,,,,,,,"30.01","50","63",,,,,"64",,"FEW:02 3","30.00","10.00","56","310",,"3",,,,,,,,,,,,,,,,,,,,,,,,,,,,,,,,,,,,,"MET07607/05/20 00:15:02 METAR KSQL 050815Z 31003KT 10SM FEW003 17/10 A3001 RMK AO2","FM-15","7",,,,,,,,,,,,,,,,,,,,,,,,,,,,
"72493893231","2020-07-05T00:35:00","FM-15","7",,,,,,,,,,,,,,,,,,,,,,,,,,,,,,,,,,,,,,"30.00","50","63",,,,,"64",,"CLR:00","29.99","9.00","56","290",,"3",,,,,,,,,,,,,,,,,,,,,,,,,,,,,,,,,,,,,"MET07207/05/20 00:35:02 METAR KSQL 050835Z 29003KT 9SM CLR 17/10 A3000 RMK AO2","FM-15","7",,,,,,,,,,,,,,,,,,,,,,,,,,,,
"72493893231","2020-07-05T00:40:00","FM-15","7",,,,,,,,,,,,,,,,,,,,,,,,,,,,,,,,,,,,,,"30.00","50","63",,,,,"64",,"FEW:02 3","29.99","9.00","56","000",,"0",,,,,,,,,,,,,,,,,,,,,,,,,,,,,,,,,,,,,"MET07507/05/20 00:40:02 METAR KSQL 050840Z 00000KT 9SM FEW003 17/10 A3000 RMK AO2","FM-15","7",,,,,,,,,,,,,,,,,,,,,,,,,,,,
"72493893231","2020-07-05T00:55:00","FM-15","7",,,,,,,,,,,,,,,,,,,,,,,,,,,,,,,,,,,,,,"30.00","50","63",,,,,"64",,"CLR:00","29.99","9.00","56","000",,"0",,,,,,,,,,,,,,,,,,,,,,,,,,,,,,,,,,,,,"MET07207/05/20 00:55:02 METAR KSQL 050855Z 00000KT 9SM CLR 17/10 A3000 RMK AO2","FM-15","7",,,,,,,,,,,,,,,,,,,,,,,,,,,,
"72493893231","2020-07-05T01:15:00","FM-15","7",,,,,,,,,,,,,,,,,,,,,,,,,,,,,,,,,,,,,,"30.00","50","63",,,,,"64",,"CLR:00","29.99","9.00","56","000",,"0",,,,,,,,,,,,,,,,,,,,,,,,,,,,,,,,,,,,,"MET07207/05/20 01:15:02 METAR KSQL 050915Z 00000KT 9SM CLR 17/10 A3000 RMK AO2","FM-15","7",,,,,,,,,,,,,,,,,,,,,,,,,,,,
"72493893231","2020-07-05T01:35:00","FM-15","7",,,,,,,,,,,,,,,,,,,,,,,,,,,,,,,,,,,,,,"30.01","50","63",,,,,"64",,"CLR:00","30.00","9.00","56","000",,"0",,,,,,,,,,,,,,,,,,,,,,,,,,,,,,,,,,,,,"MET07207/05/20 01:35:02 METAR KSQL 050935Z 00000KT 9SM CLR 17/10 A3001 RMK AO2","FM-15","7",,,,,,,,,,,,,,,,,,,,,,,,,,,,
"72493893231","2020-07-05T01:55:00","FM-15","7",,,,,,,,,,,,,,,,,,,,,,,,,,,,,,,,,,,,,,"30.00","50","61",,,,,"68",,"CLR:00","29.99","10.00","55","000",,"0",,,,,,,,,,,,,,,,,,,,,,,,,,,,,,,,,,,,,"MET07307/05/20 01:55:02 METAR KSQL 050955Z 00000KT 10SM CLR 16/10 A3000 RMK AO2","FM-15","7",,,,,,,,,,,,,,,,,,,,,,,,,,,,
"72493893231","2020-07-05T02:15:00","FM-15","7",,,,,,,,,,,,,,,,,,,,,,,,,,,,,,,,,,,,,,"30.01","50","61",,,,,"68",,"CLR:00","30.00","9.00","55","000",,"0",,,,,,,,,,,,,,,,,,,,,,,,,,,,,,,,,,,,,"MET07207/05/20 02:15:02 METAR KSQL 051015Z 00000KT 9SM CLR 16/10 A3001 RMK AO2","FM-15","7",,,,,,,,,,,,,,,,,,,,,,,,,,,,
"72493893231","2020-07-05T02:35:00","FM-15","7",,,,,,,,,,,,,,,,,,,,,,,,,,,,,,,,,,,,,,"30.01","50","61",,,,,"68",,"CLR:00","30.00","9.00","55","300",,"3",,,,,,,,,,,,,,,,,,,,,,,,,,,,,,,,,,,,,"MET07207/05/20 02:35:02 METAR KSQL 051035Z 30003KT 9SM CLR 16/10 A3001 RMK AO2","FM-15","7",,,,,,,,,,,,,,,,,,,,,,,,,,,,
"72493893231","2020-07-05T02:40:00","FM-15","7",,,,,,,,,,,,,,,,,,,,,,,,,,,,,,,,,,,,,,"30.01","50","59",,,,,"72",,"CLR:00","30.00","9.00","54","310",,"5",,,,,,,,,,,,,,,,,,,,,,,,,,,,,,,,,,,,,"MET07207/05/20 02:40:02 METAR KSQL 051040Z 31004KT 9SM CLR 15/10 A3001 RMK AO2","FM-15","7",,,,,,,,,,,,,,,,,,,,,,,,,,,,
"72493893231","2020-07-05T02:55:00","FM-15","7",,,,,,,,,,,,,,,,,,,,,,,,,,,,,,,,,,,,,,"30.01","50","59",,,,,"72",,"FEW:02 3","30.00","8.00","54","310",,"5",,,,,,,,,,,,,,,,,,,,,,,,,,,,,,,,,,,,,"MET07507/05/20 02:55:02 METAR KSQL 051055Z 31004KT 8SM FEW003 15/10 A3001 RMK AO2","FM-15","7",,,,,,,,,,,,,,,,,,,,,,,,,,,,
"72493893231","2020-07-05T03:15:00","FM-15","7",,,,,,,,,,,,,,,,,,,,,,,,,,,,,,,,,,,,,,"30.01","50","59",,,,,"72",,"FEW:02 3","30.00","9.00","54","310",,"5",,,,,,,,,,,,,,,,,,,,,,,,,,,,,,,,,,,,,"MET07507/05/20 03:15:02 METAR KSQL 051115Z 31004KT 9SM FEW003 15/10 A3001 RMK AO2","FM-15","7",,,,,,,,,,,,,,,,,,,,,,,,,,,,
"72493893231","2020-07-05T03:35:00","FM-15","7",,,,,,,,,,,,,,,,,,,,,,,,,,,,,,,,,,,,,,"30.01","50","59",,,,,"72",,"CLR:00","30.00","9.00","54","000",,"0",,,,,,,,,,,,,,,,,,,,,,,,,,,,,,,,,,,,,"MET07207/05/20 03:35:02 METAR KSQL 051135Z 00000KT 9SM CLR 15/10 A3001 RMK AO2","FM-15","7",,,,,,,,,,,,,,,,,,,,,,,,,,,,
"72493893231","2020-07-05T03:55:00","FM-15","7",,,,,,,,,,,,,,,,,,,,,,,,,,,,,,,,,,,,,,"30.01","50","59",,,,,"72",,"CLR:00","30.00","8.00","54","000",,"0",,,,,,,,,,,,,,,,,,,,,,,,,,,,,,,,,,,,,"MET07207/05/20 03:55:02 METAR KSQL 051155Z 00000KT 8SM CLR 15/10 A3001 RMK AO2","FM-15","7",,,,,,,,,,,,,,,,,,,,,,,,,,,,
"72493893231","2020-07-05T04:00:00","FM-15","4",,,,,,,,,,,,,,,,,,,,,,,,,,,,,,,,,,,,,,"30.01","52","59",,,,,"77",,,,"9.00",,"000",,"0",,,,,,,,,,,,,,,,,,,,,,,,,,,,,,,,,,,,,"MET060METAR KSQL 051200Z AUTO 00000KT 9SM CLR 15/11 A3001 RMK AO2=","FM-15","4",,,,,,,,,,,,,,,,,,,,,,,,,,,,
"72493893231","2020-07-05T04:15:00","FM-15","7",,,,,,,,,,,,,,,,,,,,,,,,,,,,,,,,,,,,,,"30.01","52","59",,,,,"77",,"CLR:00","30.00","8.00","55","300",,"3",,,,,,,,,,,,,,,,,,,,,,,,,,,,,,,,,,,,,"MET07207/05/20 04:15:02 METAR KSQL 051215Z 30003KT 8SM CLR 15/11 A3001 RMK AO2","FM-15","7",,,,,,,,,,,,,,,,,,,,,,,,,,,,
"72493893231","2020-07-05T04:20:00","FM-15","7",,,,,,,,,,,,,,,,,,,,,,,,,,,,,,,,,,,,,,"30.01","52","59",,,,,"77",,"CLR:00","30.00","8.00","55","000",,"0",,,,,,,,,,,,,,,,,,,,,,,,,,,,,,,,,,,,,"MET07207/05/20 04:20:02 METAR KSQL 051220Z 00000KT 8SM CLR 15/11 A3001 RMK AO2","FM-15","7",,,,,,,,,,,,,,,,,,,,,,,,,,,,
"72493893231","2020-07-05T04:35:00","FM-15","7",,,,,,,,,,,,,,,,,,,,,,,,,,,,,,,,,,,,,,"30.01","50","57",,,,,"77",,"SCT:04 3","30.00","8.00","53","000",,"0",,,,,,,,,,,,,,,,,,,,,,,,,,,,,,,,,,,,,"MET07507/05/20 04:35:02 METAR KSQL 051235Z 00000KT 8SM SCT003 14/10 A3001 RMK AO2","FM-15","7",,,,,,,,,,,,,,,,,,,,,,,,,,,,
"72493893231","2020-07-05T04:55:00","FM-15","7",,,,,,,,,,,,,,,,,,,,,,,,,,,,,,,,,,,,,,"30.01","52","57",,"HZ:7 |FU |HZ",,,"82",,"SCT:04 3","30.00","6.00","54","000",,"0",,,,,,,,,,,,,,,,,,,,,,,,,,,,,,,,,,,,,"MET07807/05/20 04:55:02 METAR KSQL 051255Z 00000KT 6SM HZ SCT003 14/11 A3001 RMK AO2","FM-15","7",,,,,,,,,,,,,,,,,,,,,,,,,,,,
"72493893231","2020-07-05T05:15:00","FM-15","7",,,,,,,,,,,,,,,,,,,,,,,,,,,,,,,,,,,,,,"30.02","50","57",,,,,"77",,"FEW:02 3","30.01","7.00","53","000",,"0",,,,,,,,,,,,,,,,,,,,,,,,,,,,,,,,,,,,,"MET07507/05/20 05:15:02 METAR KSQL 051315Z 00000KT 7SM FEW003 14/10 A3002 RMK AO2","FM-15","7",,,,,,,,,,,,,,,,,,,,,,,,,,,,
"72493893231","2020-07-05T05:35:00","FM-15","7",,,,,,,,,,,,,,,,,,,,,,,,,,,,,,,,,,,,,,"30.02","50","59",,,,,"72",,"CLR:00","30.01","7.00","54","000",,"0",,,,,,,,,,,,,,,,,,,,,,,,,,,,,,,,,,,,,"MET07207/05/20 05:35:02 METAR KSQL 051335Z 00000KT 7SM CLR 15/10 A3002 RMK AO2","FM-15","7",,,,,,,,,,,,,,,,,,,,,,,,,,,,
"72493893231","2020-07-05T05:47:00","FM-15","4",,,,,,,,,,,,,,,,,,,,,,,,,,,,,,,,,,,,,,"30.02","50","59",,,,,"72",,,,,,"000",,"0",,,,,,,,,,,,,,,,,,,,,,,,,,,,,,,,,,,,,"MET043METAR KSQL 051347Z 00000KT SKC 15/10 A3002=","FM-15","4",,,,,,,,,,,,,,,,,,,,,,,,,,,,
"72493893231","2020-07-05T05:55:00","FM-15","7",,,,,,,,,,,,,,,,,,,,,,,,,,,,,,,,,,,,,,"30.02","50","59",,,,,"72",,"CLR:00","30.01","7.00","54","000",,"0",,,,,,,,,,,,,,,,,,,,,,,,,,,,,,,,,,,,,"MET07207/05/20 05:55:02 METAR KSQL 051355Z 00000KT 7SM CLR 15/10 A3002 RMK AO2","FM-15","7",,,,,,,,,,,,,,,,,,,,,,,,,,,,
"72493893231","2020-07-05T06:47:00","FM-15","7",,,,,,,,,,,,,,,,,,,,,,,,,,,,,,,,,,,,,,"30.03","52","61",,,,,"72",,"*","30.02","8.00","56","000",,"0",,,,,,,,,,,,,,,,,,,,,,,,,,,,,,,,,,,,,"MET06807/05/20 06:47:02 METAR KSQL 051447Z 00000KT 8SM SKC 16/11 A3003 RMK","FM-15","7",,,,,,,,,,,,,,,,,,,,,,,,,,,,
"72493893231","2020-07-05T07:47:00","FM-15","7",,,,,,,,,,,,,,,,,,,,,,,,,,,,,,,,,,,,,,"30.04","54","64",,,,,"68",,"*","30.03","10.00","58","VRB",,"3",,,,,,,,,,,,,,,,,,,,,,,,,,,,,,,,,,,,,"MET06907/05/20 07:47:02 METAR KSQL 051547Z VRB03KT 10SM SKC 18/12 A3004 RMK","FM-15","7",,,,,,,,,,,,,,,,,,,,,,,,,,,,
"72493893231","2020-07-05T08:47:00","FM-15","7",,,,,,,,,,,,,,,,,,,,,,,,,,,,,,,,,,,,,,"30.02","54","70",,,,,"57",,"*","30.01","10.00","61","VRB",,"3",,,,,,,,,,,,,,,,,,,,,,,,,,,,,,,,,,,,,"MET06907/05/20 08:47:02 METAR KSQL 051647Z VRB03KT 10SM SKC 21/12 A3002 RMK","FM-15","7",,,,,,,,,,,,,,,,,,,,,,,,,,,,
"72493893231","2020-07-05T09:47:00","FM-15","7",,,,,,,,,,,,,,,,,,,,,,,,,,,,,,,,,,,,,,"30.02","55","73",,,,,"53",,"*","30.01","10.00","62","360",,"6",,,,,,,,,,,,,,,,,,,,,,,,,,,,,,,,,,,,,"MET06907/05/20 09:47:02 METAR KSQL 051747Z 36005KT 10SM SKC 23/13 A3002 RMK","FM-15","7",,,,,,,,,,,,,,,,,,,,,,,,,,,,
"72493893231","2020-07-05T10:47:00","FM-15","7",,,,,,,,,,,,,,,,,,,,,,,,,,,,,,,,,,,,,,"30.02","55","73",,,,,"53",,"*","30.01","10.00","62","030",,"7",,,,,,,,,,,,,,,,,,,,,,,,,,,,,,,,,,,,,"MET06907/05/20 10:47:02 METAR KSQL 051847Z 03006KT 10SM SKC 23/13 A3002 RMK","FM-15","7",,,,,,,,,,,,,,,,,,,,,,,,,,,,
"72493893231","2020-07-05T11:58:00","FM-15","7",,,,,,,,,,,,,,,,,,,,,,,,,,,,,,,,,,,,,,"30.00","52","77",,,,,"42",,"*","29.99","10.00","62","020",,"6",,,,,,,,,,,,,,,,,,,,,,,,,,,,,,,,,,,,,"MET06907/05/20 11:58:02 METAR KSQL 051958Z 02005KT 10SM SKC 25/11 A3000 RMK","FM-15","7",,,,,,,,,,,,,,,,,,,,,,,,,,,,
"72493893231","2020-07-05T12:47:00","FM-15","7",,,,,,,,,,,,,,,,,,,,,,,,,,,,,,,,,,,,,,"29.99","50","82",,,,,"32",,"*","29.98","10.00","63","340",,"10",,,,,,,,,,,,,,,,,,,,,,,,,,,,,,,,,,,,,"MET06907/05/20 12:47:02 METAR KSQL 052047Z 34009KT 10SM SKC 28/10 A2999 RMK","FM-15","7",,,,,,,,,,,,,,,,,,,,,,,,,,,,
"72493893231","2020-07-05T14:56:00","FM-15","7",,,,,,,,,,,,,,,,,,,,,,,,,,,,,,,,,,,,,,"29.97","45","79",,,,,"30",,"*","29.96","10.00","60","250","17","13",,,,,,,,,,,,,,,,,,,,,,,,,,,,,,,,,,,,,"MET07207/05/20 14:56:02 METAR KSQL 052256Z 25011G15KT 10SM SKC 26/07 A2997 RMK","FM-15","7",,,,,,,,,,,,,,,,,,,,,,,,,,,,
"72493893231","2020-07-05T15:50:00","FM-15","7",,,,,,,,,,,,,,,,,,,,,,,,,,,,,,,,,,,,,,"29.96","39","79",,,,,"24",,"*","29.95","10.00","58","260","23","17",,,,,,,,,,,,,,,,,,,,,,,,,,,,,,,,,,,,,"MET07207/05/20 15:50:02 METAR KSQL 052350Z 26015G20KT 10SM SKC 26/04 A2996 RMK","FM-15","7",,,,,,,,,,,,,,,,,,,,,,,,,,,,
"72493893231","2020-07-05T16:47:00","FM-15","7",,,,,,,,,,,,,,,,,,,,,,,,,,,,,,,,,,,,,,"29.96","45","75",,,,,"34",,"*","29.95","10.00","59","260","20","9",,,,,,,,,,,,,,,,,,,,,,,,,,,,,,,,,,,,,"MET07207/05/20 16:47:01 METAR KSQL 060047Z 26008G17KT 10SM SKC 24/07 A2996 RMK","FM-15","7",,,,,,,,,,,,,,,,,,,,,,,,,,,,
"72493893231","2020-07-05T17:58:00","FM-15","7",,,,,,,,,,,,,,,,,,,,,,,,,,,,,,,,,,,,,,"29.96","45","72",,,,,"38",,"*","29.95","10.00","57","250","16","11",,,,,,,,,,,,,,,,,,,,,,,,,,,,,,,,,,,,,"MET07207/05/20 17:58:01 METAR KSQL 060158Z 25010G14KT 10SM SKC 22/07 A2996 RMK","FM-15","7",,,,,,,,,,,,,,,,,,,,,,,,,,,,
"72493893231","2020-07-05T18:58:00","FM-15","7",,,,,,,,,,,,,,,,,,,,,,,,,,,,,,,,,,,,,,"29.96","46","68",,,,,"46",,"*","29.95","10.00","56","240",,"9",,,,,,,,,,,,,,,,,,,,,,,,,,,,,,,,,,,,,"MET06907/05/20 18:58:01 METAR KSQL 060258Z 24008KT 10SM SKC 20/08 A2996 RMK","FM-15","7",,,,,,,,,,,,,,,,,,,,,,,,,,,,
"72493893231","2020-07-05T19:58:00","FM-15","7",,,,,,,,,,,,,,,,,,,,,,,,,,,,,,,,,,,,,,"29.96","46","64",,,,,"52",,"*","29.95","10.00","54","VRB",,"3",,,,,,,,,,,,,,,,,,,,,,,,,,,,,,,,,,,,,"MET07407/05/20 19:58:02 METAR KSQL 060358Z VRB03KT 10SM SKC 18/08 A2996 RMK LAST","FM-15","7",,,,,,,,,,,,,,,,,,,,,,,,,,,,
"72493893231","2020-07-05T20:15:00","FM-15","7",,,,,,,,,,,,,,,,,,,,,,,,,,,,,,,,,,,,,,"29.96","46","64",,,,,"52",,"CLR:00","29.95","10.00","54","310",,"6",,,,,,,,,,,,,,,,,,,,,,,,,,,,,,,,,,,,,"MET07307/05/20 20:15:02 METAR KSQL 060415Z 31005KT 10SM CLR 18/08 A2996 RMK AO2","FM-15","7",,,,,,,,,,,,,,,,,,,,,,,,,,,,
"72493893231","2020-07-05T20:35:00","FM-15","7",,,,,,,,,,,,,,,,,,,,,,,,,,,,,,,,,,,,,,"29.97","45","64",,,,,"49",,"CLR:00","29.96","10.00","54","280",,"3",,,,,,,,,,,,,,,,,,,,,,,,,,,,,,,,,,,,,"MET07307/05/20 20:35:02 METAR KSQL 060435Z 28003KT 10SM CLR 18/07 A2997 RMK AO2","FM-15","7",,,,,,,,,,,,,,,,,,,,,,,,,,,,
"72493893231","2020-07-05T20:55:00","FM-15","7",,,,,,,,,,,,,,,,,,,,,,,,,,,,,,,,,,,,,,"29.97","46","64",,,,,"52",,"CLR:00","29.96","10.00","54","290",,"8",,,,,,,,,,,,,,,,,,,,,,,,,,,,,,,,,,,,,"MET07307/05/20 20:55:02 METAR KSQL 060455Z 29007KT 10SM CLR 18/08 A2997 RMK AO2","FM-15","7",,,,,,,,,,,,,,,,,,,,,,,,,,,,
"72493893231","2020-07-05T21:15:00","FM-15","7",,,,,,,,,,,,,,,,,,,,,,,,,,,,,,,,,,,,,,"29.97","46","64",,,,,"52",,"CLR:00","29.96","10.00","54","280",,"8",,,,,,,,,,,,,,,,,,,,,,,,,,,,,,,,,,,,,"MET07307/05/20 21:15:02 METAR KSQL 060515Z 28007KT 10SM CLR 18/08 A2997 RMK AO2","FM-15","7",,,,,,,,,,,,,,,,,,,,,,,,,,,,
"72493893231","2020-07-05T21:20:00","FM-15","7",,,,,,,,,,,,,,,,,,,,,,,,,,,,,,,,,,,,,,"29.98","46","63",,,,,"56",,"CLR:00","29.97","10.00","54","290",,"9",,,,,,,,,,,,,,,,,,,,,,,,,,,,,,,,,,,,,"MET07307/05/20 21:20:02 METAR KSQL 060520Z 29008KT 10SM CLR 17/08 A2998 RMK AO2","FM-15","7",,,,,,,,,,,,,,,,,,,,,,,,,,,,
"72493893231","2020-07-05T21:35:00","FM-15","7",,,,,,,,,,,,,,,,,,,,,,,,,,,,,,,,,,,,,,"29.97","46","63",,,,,"56",,"CLR:00","29.96","10.00","54","290",,"8",,,,,,,,,,,,,,,,,,,,,,,,,,,,,,,,,,,,,"MET07307/05/20 21:35:02 METAR KSQL 060535Z 29007KT 10SM CLR 17/08 A2997 RMK AO2","FM-15","7",,,,,,,,,,,,,,,,,,,,,,,,,,,,
"72493893231","2020-07-05T21:55:00","FM-15","7",,,,,,,,,,,,,,,,,,,,,,,,,,,,,,,,,,,,,,"29.97","48","63",,,,,"59",,"CLR:00","29.96","10.00","55","290",,"8",,,,,,,,,,,,,,,,,,,,,,,,,,,,,,,,,,,,,"MET07307/05/20 21:55:02 METAR KSQL 060555Z 29007KT 10SM CLR 17/09 A2997 RMK AO2","FM-15","7",,,,,,,,,,,,,,,,,,,,,,,,,,,,
"72493893231","2020-07-05T22:15:00","FM-15","7",,,,,,,,,,,,,,,,,,,,,,,,,,,,,,,,,,,,,,"29.97","48","63",,,,,"59",,"CLR:00","29.96","10.00","55","280",,"8",,,,,,,,,,,,,,,,,,,,,,,,,,,,,,,,,,,,,"MET07307/05/20 22:15:02 METAR KSQL 060615Z 28007KT 10SM CLR 17/09 A2997 RMK AO2","FM-15","7",,,,,,,,,,,,,,,,,,,,,,,,,,,,
"72493893231","2020-07-05T22:35:00","FM-15","7",,,,,,,,,,,,,,,,,,,,,,,,,,,,,,,,,,,,,,"29.97","48","61",,,,,"63",,"CLR:00","29.96","10.00","54","290",,"7",,,,,,,,,,,,,,,,,,,,,,,,,,,,,,,,,,,,,"MET07307/05/20 22:35:02 METAR KSQL 060635Z 29006KT 10SM CLR 16/09 A2997 RMK AO2","FM-15","7",,,,,,,,,,,,,,,,,,,,,,,,,,,,
"72493893231","2020-07-05T22:55:00","FM-15","7",,,,,,,,,,,,,,,,,,,,,,,,,,,,,,,,,,,,,,"29.97","48","61",,,,,"63",,"CLR:00","29.96","10.00","54","300",,"8",,,,,,,,,,,,,,,,,,,,,,,,,,,,,,,,,,,,,"MET07307/05/20 22:55:02 METAR KSQL 060655Z 30007KT 10SM CLR 16/09 A2997 RMK AO2","FM-15","7",,,,,,,,,,,,,,,,,,,,,,,,,,,,
"72493893231","2020-07-05T23:15:00","FM-15","7",,,,,,,,,,,,,,,,,,,,,,,,,,,,,,,,,,,,,,"29.97","48","61",,,,,"63",,"CLR:00","29.96","10.00","54","290",,"3",,,,,,,,,,,,,,,,,,,,,,,,,,,,,,,,,,,,,"MET07307/05/20 23:15:02 METAR KSQL 060715Z 29003KT 10SM CLR 16/09 A2997 RMK AO2","FM-15","7",,,,,,,,,,,,,,,,,,,,,,,,,,,,
"72493893231","2020-07-05T23:35:00","FM-15","7",,,,,,,,,,,,,,,,,,,,,,,,,,,,,,,,,,,,,,"29.97","48","61",,,,,"63",,"CLR:00","29.96","10.00","54","290",,"7",,,,,,,,,,,,,,,,,,,,,,,,,,,,,,,,,,,,,"MET07307/05/20 23:35:02 METAR KSQL 060735Z 29006KT 10SM CLR 16/09 A2997 RMK AO2","FM-15","7",,,,,,,,,,,,,,,,,,,,,,,,,,,,
"72493893231","2020-07-05T23:55:00","FM-15","7",,,,,,,,,,,,,,,,,,,,,,,,,,,,,,,,,,,,,,"29.97","48","63",,,,,"59",,"CLR:00","29.96","10.00","55","270",,"3",,,,,,,,,,,,,,,,,,,,,,,,,,,,,,,,,,,,,"MET07307/05/20 23:55:02 METAR KSQL 060755Z 27003KT 10SM CLR 17/09 A2997 RMK AO2","FM-15","7",,,,,,,,,,,,,,,,,,,,,,,,,,,,
"72493893231","2020-07-05T23:59:00","SOD  ","O",,,,,,,,,,,,,,,,,,,,,,,,,,,,,,,,,,"HZ",,,,,,,,,,,,,,,,,,,,,,,,,,,,,,,,,,,,,,,,,,,,,,,,,,,,,,,,,"SOD  ","O",,,,,,,,,,,,,,,,,,,,,,,,,"0454","1933",,
"72493893231","2020-07-06T00:15:00","FM-15","7",,,,,,,,,,,,,,,,,,,,,,,,,,,,,,,,,,,,,,"29.97","48","63",,,,,"59",,"CLR:00","29.96","10.00","55","270",,"6",,,,,,,,,,,,,,,,,,,,,,,,,,,,,,,,,,,,,"MET07307/06/20 00:15:02 METAR KSQL 060815Z 27005KT 10SM CLR 17/09 A2997 RMK AO2","FM-15","7",,,,,,,,,,,,,,,,,,,,,,,,,,,,
"72493893231","2020-07-06T00:35:00","FM-15","7",,,,,,,,,,,,,,,,,,,,,,,,,,,,,,,,,,,,,,"29.96","48","63",,,,,"59",,"CLR:00","29.95","10.00","55","280",,"3",,,,,,,,,,,,,,,,,,,,,,,,,,,,,,,,,,,,,"MET07307/06/20 00:35:02 METAR KSQL 060835Z 28003KT 10SM CLR 17/09 A2996 RMK AO2","FM-15","7",,,,,,,,,,,,,,,,,,,,,,,,,,,,
"72493893231","2020-07-06T00:55:00","FM-15","7",,,,,,,,,,,,,,,,,,,,,,,,,,,,,,,,,,,,,,"29.96","48","61",,,,,"63",,"CLR:00","29.95","10.00","54","300",,"5",,,,,,,,,,,,,,,,,,,,,,,,,,,,,,,,,,,,,"MET07307/06/20 00:55:02 METAR KSQL 060855Z 30004KT 10SM CLR 16/09 A2996 RMK AO2","FM-15","7",,,,,,,,,,,,,,,,,,,,,,,,,,,,
"72493893231","2020-07-06T01:15:00","FM-15","7",,,,,,,,,,,,,,,,,,,,,,,,,,,,,,,,,,,,,,"29.96","48","61",,,,,"63",,"CLR:00","29.95","10.00","54","290",,"3",,,,,,,,,,,,,,,,,,,,,,,,,,,,,,,,,,,,,"MET07307/06/20 01:15:02 METAR KSQL 060915Z 29003KT 10SM CLR 16/09 A2996 RMK AO2","FM-15","7",,,,,,,,,,,,,,,,,,,,,,,,,,,,
"72493893231","2020-07-06T01:35:00","FM-15","7",,,,,,,,,,,,,,,,,,,,,,,,,,,,,,,,,,,,,,"29.96","48","59",,,,,"68",,"CLR:00","29.95","10.00","53","240",,"3",,,,,,,,,,,,,,,,,,,,,,,,,,,,,,,,,,,,,"MET07307/06/20 01:35:02 METAR KSQL 060935Z 24003KT 10SM CLR 15/09 A2996 RMK AO2","FM-15","7",,,,,,,,,,,,,,,,,,,,,,,,,,,,
"72493893231","2020-07-06T01:55:00","FM-15","7",,,,,,,,,,,,,,,,,,,,,,,,,,,,,,,,,,,,,,"29.95","50","59",,,,,"72",,"CLR:00","29.94","10.00","54","000",,"0",,,,,,,,,,,,,,,,,,,,,,,,,,,,,,,,,,,,,"MET07307/06/20 01:55:02 METAR KSQL 060955Z 00000KT 10SM CLR 15/10 A2995 RMK AO2","FM-15","7",,,,,,,,,,,,,,,,,,,,,,,,,,,,
"72493893231","2020-07-06T02:15:00","FM-15","7",,,,,,,,,,,,,,,,,,,,,,,,,,,,,,,,,,,,,,"29.95","48","59",,,,,"68",,"CLR:00","29.94","10.00","53","250",,"5",,,,,,,,,,,,,,,,,,,,,,,,,,,,,,,,,,,,,"MET07307/06/20 02:15:02 METAR KSQL 061015Z 25004KT 10SM CLR 15/09 A2995 RMK AO2","FM-15","7",,,,,,,,,,,,,,,,,,,,,,,,,,,,
"72493893231","2020-07-06T02:35:00","FM-15","7",,,,,,,,,,,,,,,,,,,,,,,,,,,,,,,,,,,,,,"29.95","48","61",,,,,"63",,"CLR:00","29.94","10.00","54","240",,"6",,,,,,,,,,,,,,,,,,,,,,,,,,,,,,,,,,,,,"MET07307/06/20 02:35:02 METAR KSQL 061035Z 24005KT 10SM CLR 16/09 A2995 RMK AO2","FM-15","7",,,,,,,,,,,,,,,,,,,,,,,,,,,,
"72493893231","2020-07-06T02:55:00","FM-15","7",,,,,,,,,,,,,,,,,,,,,,,,,,,,,,,,,,,,,,"29.94","48","61",,,,,"63",,"CLR:00","29.93","10.00","54","230",,"5",,,,,,,,,,,,,,,,,,,,,,,,,,,,,,,,,,,,,"MET07307/06/20 02:55:02 METAR KSQL 061055Z 23004KT 10SM CLR 16/09 A2994 RMK AO2","FM-15","7",,,,,,,,,,,,,,,,,,,,,,,,,,,,
"72493893231","2020-07-06T03:15:00","FM-15","7",,,,,,,,,,,,,,,,,,,,,,,,,,,,,,,,,,,,,,"29.95","48","59",,,,,"68",,"CLR:00","29.94","10.00","53","230",,"6",,,,,,,,,,,,,,,,,,,,,,,,,,,,,,,,,,,,,"MET07307/06/20 03:15:02 METAR KSQL 061115Z 23005KT 10SM CLR 15/09 A2995 RMK AO2","FM-15","7",,,,,,,,,,,,,,,,,,,,,,,,,,,,
"72493893231","2020-07-06T03:35:00","FM-15","7",,,,,,,,,,,,,,,,,,,,,,,,,,,,,,,,,,,,,,"29.95","48","59",,,,,"68",,"CLR:00","29.94","10.00","53","240",,"5",,,,,,,,,,,,,,,,,,,,,,,,,,,,,,,,,,,,,"MET07307/06/20 03:35:02 METAR KSQL 061135Z 24004KT 10SM CLR 15/09 A2995 RMK AO2","FM-15","7",,,,,,,,,,,,,,,,,,,,,,,,,,,,
"72493893231","2020-07-06T03:40:00","FM-15","7",,,,,,,,,,,,,,,,,,,,,,,,,,,,,,,,,,,,,,"29.95","48","59",,,,,"68",,"CLR:00","29.94","10.00","53","240",,"5",,,,,,,,,,,,,,,,,,,,,,,,,,,,,,,,,,,,,"MET07307/06/20 03:40:02 METAR KSQL 061140Z 24004KT 10SM CLR 15/09 A2995 RMK AO2","FM-15","7",,,,,,,,,,,,,,,,,,,,,,,,,,,,
"72493893231","2020-07-06T03:55:00","FM-15","7",,,,,,,,,,,,,,,,,,,,,,,,,,,,,,,,,,,,,,"29.95","48","59",,,,,"68",,"CLR:00","29.94","10.00","53","250",,"3",,,,,,,,,,,,,,,,,,,,,,,,,,,,,,,,,,,,,"MET07307/06/20 03:55:02 METAR KSQL 061155Z 25003KT 10SM CLR 15/09 A2995 RMK AO2","FM-15","7",,,,,,,,,,,,,,,,,,,,,,,,,,,,
"72493893231","2020-07-06T04:15:00","FM-15","7",,,,,,,,,,,,,,,,,,,,,,,,,,,,,,,,,,,,,,"29.95","48","59",,,,,"68",,"CLR:00","29.94","10.00","53","250",,"5",,,,,,,,,,,,,,,,,,,,,,,,,,,,,,,,,,,,,"MET07307/06/20 04:15:02 METAR KSQL 061215Z 25004KT 10SM CLR 15/09 A2995 RMK AO2","FM-15","7",,,,,,,,,,,,,,,,,,,,,,,,,,,,
"72493893231","2020-07-06T04:35:00","FM-15","7",,,,,,,,,,,,,,,,,,,,,,,,,,,,,,,,,,,,,,"29.95","48","59",,,,,"68",,"CLR:00","29.94","10.00","53","250",,"3",,,,,,,,,,,,,,,,,,,,,,,,,,,,,,,,,,,,,"MET07307/06/20 04:35:02 METAR KSQL 061235Z 25003KT 10SM CLR 15/09 A2995 RMK AO2","FM-15","7",,,,,,,,,,,,,,,,,,,,,,,,,,,,
"72493893231","2020-07-06T04:55:00","FM-15","7",,,,,,,,,,,,,,,,,,,,,,,,,,,,,,,,,,,,,,"29.95","48","59",,,,,"68",,"CLR:00","29.94","9.00","53","270",,"7",,,,,,,,,,,,,,,,,,,,,,,,,,,,,,,,,,,,,"MET07207/06/20 04:55:02 METAR KSQL 061255Z 27006KT 9SM CLR 15/09 A2995 RMK AO2","FM-15","7",,,,,,,,,,,,,,,,,,,,,,,,,,,,
"72493893231","2020-07-06T05:15:00","FM-15","7",,,,,,,,,,,,,,,,,,,,,,,,,,,,,,,,,,,,,,"29.96","48","59",,,,,"68",,"CLR:00","29.95","10.00","53","260",,"8",,,,,,,,,,,,,,,,,,,,,,,,,,,,,,,,,,,,,"MET07307/06/20 05:15:02 METAR KSQL 061315Z 26007KT 10SM CLR 15/09 A2996 RMK AO2","FM-15","7",,,,,,,,,,,,,,,,,,,,,,,,,,,,
"72493893231","2020-07-06T05:35:00","FM-15","7",,,,,,,,,,,,,,,,,,,,,,,,,,,,,,,,,,,,,,"29.96","48","59",,,,,"68",,"CLR:00","29.95","9.00","53","250",,"3",,,,,,,,,,,,,,,,,,,,,,,,,,,,,,,,,,,,,"MET07207/06/20 05:35:02 METAR KSQL 061335Z 25003KT 9SM CLR 15/09 A2996 RMK AO2","FM-15","7",,,,,,,,,,,,,,,,,,,,,,,,,,,,
"72493893231","2020-07-06T05:40:00","FM-15","7",,,,,,,,,,,,,,,,,,,,,,,,,,,,,,,,,,,,,,"29.96","48","59",,,,,"68",,"CLR:00","29.95","9.00","53","270",,"6",,,,,,,,,,,,,,,,,,,,,,,,,,,,,,,,,,,,,"MET07207/06/20 05:40:02 METAR KSQL 061340Z 27005KT 9SM CLR 15/09 A2996 RMK AO2","FM-15","7",,,,,,,,,,,,,,,,,,,,,,,,,,,,
"72493893231","2020-07-06T05:55:00","FM-15","7",,,,,,,,,,,,,,,,,,,,,,,,,,,,,,,,,,,,,,"29.96","48","59",,,,,"68",,"CLR:00","29.95","10.00","53","260",,"7",,,,,,,,,,,,,,,,,,,,,,,,,,,,,,,,,,,,,"MET07307/06/20 05:55:02 METAR KSQL 061355Z 26006KT 10SM CLR 15/09 A2996 RMK AO2","FM-15","7",,,,,,,,,,,,,,,,,,,,,,,,,,,,
"72493893231","2020-07-06T06:00:00","FM-15","4",,,,,,,,,,,,,,,,,,,,,,,,,,,,,,,,,,,,,,"29.96","48","59",,,,,"68",,,,"10.00",,"250",,"8",,,,,,,,,,,,,,,,,,,,,,,,,,,,,,,,,,,,,"MET048METAR KSQL 061400Z 25007KT 10SM SKC 15/09 A2996=","FM-15","4",,,,,,,,,,,,,,,,,,,,,,,,,,,,
"72493893231","2020-07-06T06:47:00","FM-15","7",,,,,,,,,,,,,,,,,,,,,,,,,,,,,,,,,,,,,,"29.97","48","63",,,,,"59",,"*","29.96","10.00","55","250",,"8",,,,,,,,,,,,,,,,,,,,,,,,,,,,,,,,,,,,,"MET06907/06/20 06:47:02 METAR KSQL 061447Z 25007KT 10SM SKC 17/09 A2997 RMK","FM-15","7",,,,,,,,,,,,,,,,,,,,,,,,,,,,
"72493893231","2020-07-06T07:47:00","FM-15","7",,,,,,,,,,,,,,,,,,,,,,,,,,,,,,,,,,,,,,"29.98","46","64",,,,,"52",,"*","29.97","10.00","54","260",,"9",,,,,,,,,,,,,,,,,,,,,,,,,,,,,,,,,,,,,"MET06907/06/20 07:47:02 METAR KSQL 061547Z 26008KT 10SM SKC 18/08 A2998 RMK","FM-15","7",,,,,,,,,,,,,,,,,,,,,,,,,,,,
"72493893231","2020-07-06T08:47:00","FM-15","7",,,,,,,,,,,,,,,,,,,,,,,,,,,,,,,,,,,,,,"29.98","46","66",,,,,"49",,"*","29.97","10.00","55","270",,"9",,,,,,,,,,,,,,,,,,,,,,,,,,,,,,,,,,,,,"MET06907/06/20 08:47:02 METAR KSQL 061647Z 27008KT 10SM SKC 19/08 A2998 RMK","FM-15","7",,,,,,,,,,,,,,,,,,,,,,,,,,,,
"72493893231","2020-07-06T09:47:00","FM-15","7",,,,,,,,,,,,,,,,,,,,,,,,,,,,,,,,,,,,,,"29.99","46","68",,,,,"46",,"*","29.98","10.00","56","250",,"8",,,,,,,,,,,,,,,,,,,,,,,,,,,,,,,,,,,,,"MET06907/06/20 09:47:02 METAR KSQL 061747Z 25007KT 10SM SKC 20/08 A2999 RMK","FM-15","7",,,,,,,,,,,,,,,,,,,,,,,,,,,,
"72493893231","2020-07-06T10:58:00","FM-15","7",,,,,,,,,,,,,,,,,,,,,,,,,,,,,,,,,,,,,,"30.00","48","70",,,,,"46",,"*","29.99","10.00","58","250","18","11",,,,,,,,,,,,,,,,,,,,,,,,,,,,,,,,,,,,,"MET07207/06/20 10:58:02 METAR KSQL 061858Z 25010G16KT 10SM SKC 21/09 A3000 RMK","FM-15","7",,,,,,,,,,,,,,,,,,,,,,,,,,,,
"72493893231","2020-07-06T11:47:00","FM-15","7",,,,,,,,,,,,,,,,,,,,,,,,,,,,,,,,,,,,,,"29.99","48","70",,,,,"46",,"*","29.98","10.00","58","240","21","15",,,,,,,,,,,,,,,,,,,,,,,,,,,,,,,,,,,,,"MET07207/06/20 11:47:02 METAR KSQL 061947Z 24013G18KT 10SM SKC 21/09 A2999 RMK","FM-15","7",,,,,,,,,,,,,,,,,,,,,,,,,,,,
"72493893231","2020-07-06T12:47:00","FM-15","7",,,,,,,,,,,,,,,,,,,,,,,,,,,,,,,,,,,,,,"29.99","48","72",,,,,"44",,"*","29.98","10.00","59","240","24","16",,,,,,,,,,,,,,,,,,,,,,,,,,,,,,,,,,,,,"MET07207/06/20 12:47:02 METAR KSQL 062047Z 24014G21KT 10SM SKC 22/09 A2999 RMK","FM-15","7",,,,,,,,,,,,,,,,,,,,,,,,,,,,
"72493893231","2020-07-06T14:47:00","FM-15","7",,,,,,,,,,,,,,,,,,,,,,,,,,,,,,,,,,,,,,"29.99","48","70",,,,,"46",,"*","29.98","10.00","58","240","25","17",,,,,,,,,,,,,,,,,,,,,,,,,,,,,,,,,,,,,"MET07207/06/20 14:47:02 METAR KSQL 062247Z 24015G22KT 10SM SKC 21/09 A2999 RMK","FM-15","7",,,,,,,,,,,,,,,,,,,,,,,,,,,,
"72493893231","2020-07-06T16:58:00","FM-15","7",,,,,,,,,,,,,,,,,,,,,,,,,,,,,,,,,,,,,,"29.98","48","66",,,,,"52",,"*","29.97","10.00","56","230","18","11",,,,,,,,,,,,,,,,,,,,,,,,,,,,,,,,,,,,,"MET07207/06/20 16:58:01 METAR KSQL 070058Z 23010G16KT 10SM SKC 19/09 A2998 RMK","FM-15","7",,,,,,,,,,,,,,,,,,,,,,,,,,,,
"72493893231","2020-07-06T17:58:00","FM-15","7",,,,,,,,,,,,,,,,,,,,,,,,,,,,,,,,,,,,,,"29.98","48","63",,,,,"59",,"*","29.97","10.00","55","230",,"15",,,,,,,,,,,,,,,,,,,,,,,,,,,,,,,,,,,,,"MET06907/06/20 17:58:01 METAR KSQL 070158Z 23013KT 10SM SKC 17/09 A2998 RMK","FM-15","7",,,,,,,,,,,,,,,,,,,,,,,,,,,,
"72493893231","2020-07-06T18:58:00","FM-15","7",,,,,,,,,,,,,,,,,,,,,,,,,,,,,,,,,,,,,,"29.98","48","61",,,,,"63",,"*","29.97","10.00","54","230","29","22",,,,,,,,,,,,,,,,,,,,,,,,,,,,,,,,,,,,,"MET07207/06/20 18:58:01 METAR KSQL 070258Z 23019G25KT 10SM SKC 16/09 A2998 RMK","FM-15","7",,,,,,,,,,,,,,,,,,,,,,,,,,,,
"72493893231","2020-07-06T19:56:00","FM-15","7",,,,,,,,,,,,,,,,,,,,,,,,,,,,,,,,,,,,,,"29.97","48","59",,,,,"68",,"*","29.96","10.00","53","240","28","17",,,,,,,,,,,,,,,,,,,,,,,,,,,,,,,,,,,,,"MET07707/06/20 19:56:02 METAR KSQL 070356Z 24015G24KT 10SM SKC 15/09 A2997 RMK LAST","FM-15","7",,,,,,,,,,,,,,,,,,,,,,,,,,,,
"72493893231","2020-07-06T20:15:00","FM-15","7",,,,,,,,,,,,,,,,,,,,,,,,,,,,,,,,,,,,,,"29.97","48","59",,,,,"68",,"CLR:00","29.96","10.00","53","260","23","14",,,,,,,,,,,,,,,,,,,,,,,,,,,,,,,,,,,,,"MET07607/06/20 20:15:02 METAR KSQL 070415Z 26012G20KT 10SM CLR 15/09 A2997 RMK AO2","FM-15","7",,,,,,,,,,,,,,,,,,,,,,,,,,,,
"72493893231","2020-07-06T20:35:00","FM-15","7",,,,,,,,,,,,,,,,,,,,,,,,,,,,,,,,,,,,,,"29.99","48","57",,,,,"72",,"CLR:00","29.98","10.00","52","270",,"6",,,,,,,,,,,,,,,,,,,,,,,,,,,,,,,,,,,,,"MET07307/06/20 20:35:02 METAR KSQL 070435Z 27005KT 10SM CLR 14/09 A2999 RMK AO2","FM-15","7",,,,,,,,,,,,,,,,,,,,,,,,,,,,
"72493893231","2020-07-06T20:40:00","FM-15","7",,,,,,,,,,,,,,,,,,,,,,,,,,,,,,,,,,,,,,"29.99","48","57",,,,,"72",,"CLR:00","29.98","10.00","52","VRB",,"10",,,,,,,,,,,,,,,,,,,,,,,,,,,,,,,,,,,,,"MET07307/06/20 20:40:02 METAR KSQL 070440Z 25009KT 10SM CLR 14/09 A2999 RMK AO2","FM-15","7",,,,,,,,,,,,,,,,,,,,,,,,,,,,
"72493893231","2020-07-06T20:55:00","FM-15","7",,,,,,,,,,,,,,,,,,,,,,,,,,,,,,,,,,,,,,"29.99","48","57",,,,,"72",,"CLR:00","29.98","10.00","52","260","18","10",,,,,,,,,,,,,,,,,,,,,,,,,,,,,,,,,,,,,"MET07607/06/20 20:55:02 METAR KSQL 070455Z 26009G16KT 10SM CLR 14/09 A2999 RMK AO2","FM-15","7",,,,,,,,,,,,,,,,,,,,,,,,,,,,
"72493893231","2020-07-06T21:15:00","FM-15","7",,,,,,,,,,,,,,,,,,,,,,,,,,,,,,,,,,,,,,"30.00","48","57",,,,,"72",,"CLR:00","29.99","10.00","52","260","21","16",,,,,,,,,,,,,,,,,,,,,,,,,,,,,,,,,,,,,"MET07607/06/20 21:15:02 METAR KSQL 070515Z 26014G18KT 10SM CLR 14/09 A3000 RMK AO2","FM-15","7",,,,,,,,,,,,,,,,,,,,,,,,,,,,
"72493893231","2020-07-06T21:20:00","FM-15","7",,,,,,,,,,,,,,,,,,,,,,,,,,,,,,,,,,,,,,"30.00","48","57",,,,,"72",,"CLR:00","29.99","10.00","52","250","21","10",,,,,,,,,,,,,,,,,,,,,,,,,,,,,,,,,,,,,"MET07607/06/20 21:20:02 METAR KSQL 070520Z 25009G18KT 10SM CLR 14/09 A3000 RMK AO2","FM-15","7",,,,,,,,,,,,,,,,,,,,,,,,,,,,
"72493893231","2020-07-06T21:35:00","FM-15","7",,,,,,,,,,,,,,,,,,,,,,,,,,,,,,,,,,,,,,"30.00","48","57",,,,,"72",,"CLR:00","29.99","10.00","52","320","16","3",,,,,,,,,,,,,,,,,,,,,,,,,,,,,,,,,,,,,"MET07607/06/20 21:35:02 METAR KSQL 070535Z 32003G14KT 10SM CLR 14/09 A3000 RMK AO2","FM-15","7",,,,,,,,,,,,,,,,,,,,,,,,,,,,
"72493893231","2020-07-06T21:55:00","FM-15","7",,,,,,,,,,,,,,,,,,,,,,,,,,,,,,,,,,,,,,"30.00","48","57",,,,,"72",,"CLR:00","29.99","10.00","52","290",,"5",,,,,,,,,,,,,,,,,,,,,,,,,,,,,,,,,,,,,"MET07307/06/20 21:55:02 METAR KSQL 070555Z 29004KT 10SM CLR 14/09 A3000 RMK AO2","FM-15","7",,,,,,,,,,,,,,,,,,,,,,,,,,,,
"72493893231","2020-07-06T22:15:00","FM-15","7",,,,,,,,,,,,,,,,,,,,,,,,,,,,,,,,,,,,,,"30.01","48","57",,,,,"72",,"CLR:00","30.00","10.00","52","290",,"7",,,,,,,,,,,,,,,,,,,,,,,,,,,,,,,,,,,,,"MET07307/06/20 22:15:02 METAR KSQL 070615Z 29006KT 10SM CLR 14/09 A3001 RMK AO2","FM-15","7",,,,,,,,,,,,,,,,,,,,,,,,,,,,
"72493893231","2020-07-06T22:35:00","FM-15","7",,,,,,,,,,,,,,,,,,,,,,,,,,,,,,,,,,,,,,"30.00","48","57",,,,,"72",,"CLR:00","29.99","10.00","52","260",,"10",,,,,,,,,,,,,,,,,,,,,,,,,,,,,,,,,,,,,"MET07307/06/20 22:35:02 METAR KSQL 070635Z 26009KT 10SM CLR 14/09 A3000 RMK AO2","FM-15","7",,,,,,,,,,,,,,,,,,,,,,,,,,,,
"72493893231","2020-07-06T22:55:00","FM-15","7",,,,,,,,,,,,,,,,,,,,,,,,,,,,,,,,,,,,,,"30.00","48","57",,,,,"72",,"CLR:00","29.99","10.00","52","260",,"15",,,,,,,,,,,,,,,,,,,,,,,,,,,,,,,,,,,,,"MET07307/06/20 22:55:02 METAR KSQL 070655Z 26013KT 10SM CLR 14/09 A3000 RMK AO2","FM-15","7",,,,,,,,,,,,,,,,,,,,,,,,,,,,
"72493893231","2020-07-06T23:15:00","FM-15","7",,,,,,,,,,,,,,,,,,,,,,,,,,,,,,,,,,,,,,"30.00","48","57",,,,,"72",,"CLR:00","29.99","10.00","52","260",,"15",,,,,,,,,,,,,,,,,,,,,,,,,,,,,,,,,,,,,"MET07307/06/20 23:15:02 METAR KSQL 070715Z 26013KT 10SM CLR 14/09 A3000 RMK AO2","FM-15","7",,,,,,,,,,,,,,,,,,,,,,,,,,,,
"72493893231","2020-07-06T23:20:00","FM-15","7",,,,,,,,,,,,,,,,,,,,,,,,,,,,,,,,,,,,,,"30.00","48","57",,,,,"72",,"CLR:00","29.99","10.00","52","260",,"13",,,,,,,,,,,,,,,,,,,,,,,,,,,,,,,,,,,,,"MET07307/06/20 23:20:02 METAR KSQL 070720Z 26011KT 10SM CLR 14/09 A3000 RMK AO2","FM-15","7",,,,,,,,,,,,,,,,,,,,,,,,,,,,
"72493893231","2020-07-06T23:35:00","FM-15","7",,,,,,,,,,,,,,,,,,,,,,,,,,,,,,,,,,,,,,"30.00","48","57",,,,,"72",,"CLR:00","29.99","10.00","52","250",,"14",,,,,,,,,,,,,,,,,,,,,,,,,,,,,,,,,,,,,"MET07307/06/20 23:35:02 METAR KSQL 070735Z 25012KT 10SM CLR 14/09 A3000 RMK AO2","FM-15","7",,,,,,,,,,,,,,,,,,,,,,,,,,,,
"72493893231","2020-07-06T23:55:00","FM-15","7",,,,,,,,,,,,,,,,,,,,,,,,,,,,,,,,,,,,,,"30.00","48","57",,,,,"72",,"CLR:00","29.99","10.00","52","270",,"10",,,,,,,,,,,,,,,,,,,,,,,,,,,,,,,,,,,,,"MET07307/06/20 23:55:02 METAR KSQL 070755Z 27009KT 10SM CLR 14/09 A3000 RMK AO2","FM-15","7",,,,,,,,,,,,,,,,,,,,,,,,,,,,
"72493893231","2020-07-07T00:00:00","FM-15","4",,,,,,,,,,,,,,,,,,,,,,,,,,,,,,,,,,,,,,"30.00","48","57",,,,,"72",,,,"10.00",,"270",,"10",,,,,,,,,,,,,,,,,,,,,,,,,,,,,,,,,,,,,"MET061METAR KSQL 070800Z AUTO 27009KT 10SM CLR 14/09 A3000 RMK AO2=","FM-15","4",,,,,,,,,,,,,,,,,,,,,,,,,,,,
"72493893231","2020-07-07T00:15:00","FM-15","7",,,,,,,,,,,,,,,,,,,,,,,,,,,,,,,,,,,,,,"29.99","48","57",,,,,"72",,"CLR:00","29.98","10.00","52","280",,"9",,,,,,,,,,,,,,,,,,,,,,,,,,,,,,,,,,,,,"MET07307/07/20 00:15:02 METAR KSQL 070815Z 28008KT 10SM CLR 14/09 A2999 RMK AO2","FM-15","7",,,,,,,,,,,,,,,,,,,,,,,,,,,,
"72493893231","2020-07-07T00:35:00","FM-15","7",,,,,,,,,,,,,,,,,,,,,,,,,,,,,,,,,,,,,,"29.99","48","57",,,,,"72",,"CLR:00","29.98","10.00","52","240",,"6",,,,,,,,,,,,,,,,,,,,,,,,,,,,,,,,,,,,,"MET07307/07/20 00:35:02 METAR KSQL 070835Z 24005KT 10SM CLR 14/09 A2999 RMK AO2","FM-15","7",,,,,,,,,,,,,,,,,,,,,,,,,,,,
"72493893231","2020-07-07T00:55:00","FM-15","7",,,,,,,,,,,,,,,,,,,,,,,,,,,,,,,,,,,,,,"29.99","48","57",,,,,"72",,"CLR:00","29.98","10.00","52","240",,"7",,,,,,,,,,,,,,,,,,,,,,,,,,,,,,,,,,,,,"MET07307/07/20 00:55:02 METAR KSQL 070855Z 24006KT 10SM CLR 14/09 A2999 RMK AO2","FM-15","7",,,,,,,,,,,,,,,,,,,,,,,,,,,,
"72493893231","2020-07-07T01:00:00","FM-15","4",,,,,,,,,,,,,,,,,,,,,,,,,,,,,,,,,,,,,,"29.99","48","57",,,,,"72",,,,"10.00",,"260",,"7",,,,,,,,,,,,,,,,,,,,,,,,,,,,,,,,,,,,,"MET061METAR KSQL 070900Z AUTO 26006KT 10SM CLR 14/09 A2999 RMK AO2=","FM-15","4",,,,,,,,,,,,,,,,,,,,,,,,,,,,
"72493893231","2020-07-07T01:15:00","FM-15","7",,,,,,,,,,,,,,,,,,,,,,,,,,,,,,,,,,,,,,"29.99","48","57",,,,,"72",,"CLR:00","29.98","10.00","52","000",,"0",,,,,,,,,,,,,,,,,,,,,,,,,,,,,,,,,,,,,"MET07307/07/20 01:15:02 METAR KSQL 070915Z 00000KT 10SM CLR 14/09 A2999 RMK AO2","FM-15","7",,,,,,,,,,,,,,,,,,,,,,,,,,,,
"72493893231","2020-07-07T01:35:00","FM-15","7",,,,,,,,,,,,,,,,,,,,,,,,,,,,,,,,,,,,,,"29.98","48","57",,,,,"72",,"CLR:00","29.97","10.00","52","230",,"5",,,,,,,,,,,,,,,,,,,,,,,,,,,,,,,,,,,,,"MET07307/07/20 01:35:02 METAR KSQL 070935Z 23004KT 10SM CLR 14/09 A2998 RMK AO2","FM-15","7",,,,,,,,,,,,,,,,,,,,,,,,,,,,
"72493893231","2020-07-07T01:55:00","FM-15","7",,,,,,,,,,,,,,,,,,,,,,,,,,,,,,,,,,,,,,"29.98","48","57",,,,,"72",,"CLR:00","29.97","10.00","52","170",,"5",,,,,,,,,,,,,,,,,,,,,,,,,,,,,,,,,,,,,"MET07307/07/20 01:55:02 METAR KSQL 070955Z 17004KT 10SM CLR 14/09 A2998 RMK AO2","FM-15","7",,,,,,,,,,,,,,,,,,,,,,,,,,,,
"72493893231","2020-07-07T02:15:00","FM-15","7",,,,,,,,,,,,,,,,,,,,,,,,,,,,,,,,,,,,,,"29.97","46","57",,,,,"67",,"CLR:00","29.96","10.00","51","240",,"7",,,,,,,,,,,,,,,,,,,,,,,,,,,,,,,,,,,,,"MET07307/07/20 02:15:02 METAR KSQL 071015Z 24006KT 10SM CLR 14/08 A2997 RMK AO2","FM-15","7",,,,,,,,,,,,,,,,,,,,,,,,,,,,
"72493893231","2020-07-07T02:35:00","FM-15","7",,,,,,,,,,,,,,,,,,,,,,,,,,,,,,,,,,,,,,"29.97","48","57",,,,,"72",,"CLR:00","29.96","10.00","52","220",,"5",,,,,,,,,,,,,,,,,,,,,,,,,,,,,,,,,,,,,"MET07307/07/20 02:35:02 METAR KSQL 071035Z 22004KT 10SM CLR 14/09 A2997 RMK AO2","FM-15","7",,,,,,,,,,,,,,,,,,,,,,,,,,,,
"72493893231","2020-07-07T02:40:00","FM-15","7",,,,,,,,,,,,,,,,,,,,,,,,,,,,,,,,,,,,,,"29.97","48","57",,,,,"72",,"CLR:00","29.96","10.00","52","230",,"5",,,,,,,,,,,,,,,,,,,,,,,,,,,,,,,,,,,,,"MET07307/07/20 02:40:02 METAR KSQL 071040Z 23004KT 10SM CLR 14/09 A2997 RMK AO2","FM-15","7",,,,,,,,,,,,,,,,,,,,,,,,,,,,
"72493893231","2020-07-07T02:55:00","FM-15","7",,,,,,,,,,,,,,,,,,,,,,,,,,,,,,,,,,,,,,"29.97","48","57",,,,,"72",,"CLR:00","29.96","10.00","52","240",,"6",,,,,,,,,,,,,,,,,,,,,,,,,,,,,,,,,,,,,"MET07307/07/20 02:55:02 METAR KSQL 071055Z 24005KT 10SM CLR 14/09 A2997 RMK AO2","FM-15","7",,,,,,,,,,,,,,,,,,,,,,,,,,,,
"72493893231","2020-07-07T03:15:00","FM-15","7",,,,,,,,,,,,,,,,,,,,,,,,,,,,,,,,,,,,,,"29.97","48","55",,,,,"77",,"CLR:00","29.96","10.00","51","270",,"3",,,,,,,,,,,,,,,,,,,,,,,,,,,,,,,,,,,,,"MET07307/07/20 03:15:02 METAR KSQL 071115Z 27003KT 10SM CLR 13/09 A2997 RMK AO2","FM-15","7",,,,,,,,,,,,,,,,,,,,,,,,,,,,
"72493893231","2020-07-07T03:35:00","FM-15","7",,,,,,,,,,,,,,,,,,,,,,,,,,,,,,,,,,,,,,"29.97","48","57",,,,,"72",,"CLR:00","29.96","10.00","52","250",,"6",,,,,,,,,,,,,,,,,,,,,,,,,,,,,,,,,,,,,"MET07307/07/20 03:35:02 METAR KSQL 071135Z 25005KT 10SM CLR 14/09 A2997 RMK AO2","FM-15","7",,,,,,,,,,,,,,,,,,,,,,,,,,,,
"72493893231","2020-07-07T03:55:00","FM-15","7",,,,,,,,,,,,,,,,,,,,,,,,,,,,,,,,,,,,,,"29.97","48","55",,,,,"77",,"CLR:00","29.96","10.00","51","240",,"7",,,,,,,,,,,,,,,,,,,,,,,,,,,,,,,,,,,,,"MET07307/07/20 03:55:02 METAR KSQL 071155Z 24006KT 10SM CLR 13/09 A2997 RMK AO2","FM-15","7",,,,,,,,,,,,,,,,,,,,,,,,,,,,
"72493893231","2020-07-07T04:15:00","FM-15","7",,,,,,,,,,,,,,,,,,,,,,,,,,,,,,,,,,,,,,"29.97","48","55",,,,,"77",,"CLR:00","29.96","10.00","51","250",,"6",,,,,,,,,,,,,,,,,,,,,,,,,,,,,,,,,,,,,"MET07307/07/20 04:15:02 METAR KSQL 071215Z 25005KT 10SM CLR 13/09 A2997 RMK AO2","FM-15","7",,,,,,,,,,,,,,,,,,,,,,,,,,,,
"72493893231","2020-07-07T04:35:00","FM-15","7",,,,,,,,,,,,,,,,,,,,,,,,,,,,,,,,,,,,,,"29.97","48","55",,,,,"77",,"CLR:00","29.96","10.00","51","250",,"6",,,,,,,,,,,,,,,,,,,,,,,,,,,,,,,,,,,,,"MET07307/07/20 04:35:02 METAR KSQL 071235Z 25005KT 10SM CLR 13/09 A2997 RMK AO2","FM-15","7",,,,,,,,,,,,,,,,,,,,,,,,,,,,
"72493893231","2020-07-07T04:55:00","FM-15","7",,,,,,,,,,,,,,,,,,,,,,,,,,,,,,,,,,,,,,"29.97","46","55",,,,,"72",,"CLR:00","29.96","10.00","50","270",,"5",,,,,,,,,,,,,,,,,,,,,,,,,,,,,,,,,,,,,"MET07307/07/20 04:55:02 METAR KSQL 071255Z 27004KT 10SM CLR 13/08 A2997 RMK AO2","FM-15","7",,,,,,,,,,,,,,,,,,,,,,,,,,,,
"72493893231","2020-07-07T05:15:00","FM-15","7",,,,,,,,,,,,,,,,,,,,,,,,,,,,,,,,,,,,,,"29.98","46","55",,,,,"72",,"CLR:00","29.97","10.00","50","240",,"3",,,,,,,,,,,,,,,,,,,,,,,,,,,,,,,,,,,,,"MET07307/07/20 05:15:02 METAR KSQL 071315Z 24003KT 10SM CLR 13/08 A2998 RMK AO2","FM-15","7",,,,,,,,,,,,,,,,,,,,,,,,,,,,
"72493893231","2020-07-07T05:20:00","FM-15","7",,,,,,,,,,,,,,,,,,,,,,,,,,,,,,,,,,,,,,"29.98","46","57",,,,,"67",,"CLR:00","29.97","10.00","51","240",,"3",,,,,,,,,,,,,,,,,,,,,,,,,,,,,,,,,,,,,"MET07307/07/20 05:20:02 METAR KSQL 071320Z 24003KT 10SM CLR 14/08 A2998 RMK AO2","FM-15","7",,,,,,,,,,,,,,,,,,,,,,,,,,,,
"72493893231","2020-07-07T05:35:00","FM-15","7",,,,,,,,,,,,,,,,,,,,,,,,,,,,,,,,,,,,,,"29.98","46","57",,,,,"67",,"CLR:00","29.97","10.00","51","000",,"0",,,,,,,,,,,,,,,,,,,,,,,,,,,,,,,,,,,,,"MET07307/07/20 05:35:02 METAR KSQL 071335Z 00000KT 10SM CLR 14/08 A2998 RMK AO2","FM-15","7",,,,,,,,,,,,,,,,,,,,,,,,,,,,
"72493893231","2020-07-07T05:55:00","FM-15","4",,,,,,,,,,,,,,,,,,,,,,,,,,,,,,,,,,,,,,"29.98","48","57",,,,,"72",,,,"10.00",,"000",,"0",,,,,,,,,,,,,,,,,,,,,,,,,,,,,,,,,,,,,"MET061METAR KSQL 071355Z AUTO 00000KT 10SM CLR 14/09 A2998 RMK AO2=","FM-15","4",,,,,,,,,,,,,,,,,,,,,,,,,,,,
"72493893231","2020-07-07T05:56:00","FM-15","7",,,,,,,,,,,,,,,,,,,,,,,,,,,,,,,,,,,,,,"29.98","48","57",,,,,"72",,"*","29.97","10.00","52","VRB",,"3",,,,,,,,,,,,,,,,,,,,,,,,,,,,,,,,,,,,,"MET06907/07/20 05:56:02 METAR KSQL 071356Z VRB03KT 10SM SKC 14/09 A2998 RMK","FM-15","7",,,,,,,,,,,,,,,,,,,,,,,,,,,,
"72493893231","2020-07-07T06:54:00","FM-15","7",,,,,,,,,,,,,,,,,,,,,,,,,,,,,,,,,,,,,,"29.99","48","59",,,,,"68",,"*","29.98","10.00","53","VRB",,"3",,,,,,,,,,,,,,,,,,,,,,,,,,,,,,,,,,,,,"MET06907/07/20 06:54:02 METAR KSQL 071454Z VRB03KT 10SM SKC 15/09 A2999 RMK","FM-15","7",,,,,,,,,,,,,,,,,,,,,,,,,,,,
"72493893231","2020-07-07T07:58:00","FM-15","7",,,,,,,,,,,,,,,,,,,,,,,,,,,,,,,,,,,,,,"29.99","48","63",,,,,"59",,"*","29.98","10.00","55","VRB",,"3",,,,,,,,,,,,,,,,,,,,,,,,,,,,,,,,,,,,,"MET06907/07/20 07:58:02 METAR KSQL 071558Z VRB03KT 10SM SKC 17/09 A2999 RMK","FM-15","7",,,,,,,,,,,,,,,,,,,,,,,,,,,,
"72493893231","2020-07-07T08:58:00","FM-15","7",,,,,,,,,,,,,,,,,,,,,,,,,,,,,,,,,,,,,,"30.00","46","66",,,,,"49",,"*","29.99","10.00","55","000",,"0",,,,,,,,,,,,,,,,,,,,,,,,,,,,,,,,,,,,,"MET06907/07/20 08:58:02 METAR KSQL 071658Z 00000KT 10SM SKC 19/08 A3000 RMK","FM-15","7",,,,,,,,,,,,,,,,,,,,,,,,,,,,
"72493893231","2020-07-07T09:50:00","FM-15","7",,,,,,,,,,,,,,,,,,,,,,,,,,,,,,,,,,,,,,"30.00","55","66",,,,,"68",,"*","29.99","10.00","60","010",,"8",,,,,,,,,,,,,,,,,,,,,,,,,,,,,,,,,,,,,"MET06907/07/20 09:50:02 METAR KSQL 071750Z 01007KT 10SM SKC 19/13 A3000 RMK","FM-15","7",,,,,,,,,,,,,,,,,,,,,,,,,,,,
"72493893231","2020-07-07T10:57:00","FM-15","7",,,,,,,,,,,,,,,,,,,,,,,,,,,,,,,,,,,,,,"29.99","54","68",,,,,"60",,"*","29.98","10.00","60","010",,"8",,,,,,,,,,,,,,,,,,,,,,,,,,,,,,,,,,,,,"MET06907/07/20 10:57:02 METAR KSQL 071857Z 01007KT 10SM SKC 20/12 A2999 RMK","FM-15","7",,,,,,,,,,,,,,,,,,,,,,,,,,,,
"72493893231","2020-07-07T11:47:00","FM-15","7",,,,,,,,,,,,,,,,,,,,,,,,,,,,,,,,,,,,,,"29.97","52","73",,,,,"47",,"*","29.96","10.00","61","350",,"10",,,,,,,,,,,,,,,,,,,,,,,,,,,,,,,,,,,,,"MET06907/07/20 11:47:02 METAR KSQL 071947Z 35009KT 10SM SKC 23/11 A2997 RMK","FM-15","7",,,,,,,,,,,,,,,,,,,,,,,,,,,,
"72493893231","2020-07-07T12:56:00","FM-15","7",,,,,,,,,,,,,,,,,,,,,,,,,,,,,,,,,,,,,,"29.95","52","75",,,,,"44",,"*","29.94","10.00","62","350",,"8",,,,,,,,,,,,,,,,,,,,,,,,,,,,,,,,,,,,,"MET06907/07/20 12:56:02 METAR KSQL 072056Z 35007KT 10SM SKC 24/11 A2995 RMK","FM-15","7",,,,,,,,,,,,,,,,,,,,,,,,,,,,
"72493893231","2020-07-07T13:47:00","FM-15","7",,,,,,,,,,,,,,,,,,,,,,,,,,,,,,,,,,,,,,"29.94","50","81",,,,,"34",,"*","29.93","10.00","63","250",,"10",,,,,,,,,,,,,,,,,,,,,,,,,,,,,,,,,,,,,"MET06907/07/20 13:47:02 METAR KSQL 072147Z 25009KT 10SM SKC 27/10 A2994 RMK","FM-15","7",,,,,,,,,,,,,,,,,,,,,,,,,,,,
"72493893231","2020-07-07T14:58:00","FM-15","7",,,,,,,,,,,,,,,,,,,,,,,,,,,,,,,,,,,,,,"29.92","45","81",,,,,"28",,"*","29.91","10.00","61","250",,"15",,,,,,,,,,,,,,,,,,,,,,,,,,,,,,,,,,,,,"MET06907/07/20 14:58:02 METAR KSQL 072258Z 25013KT 10SM SKC 27/07 A2992 RMK","FM-15","7",,,,,,,,,,,,,,,,,,,,,,,,,,,,
"72493893231","2020-07-07T15:47:00","FM-15","7",,,,,,,,,,,,,,,,,,,,,,,,,,,,,,,,,,,,,,"29.91","41","77",,,,,"28",,"*","29.90","10.00","58","240","23","16",,,,,,,,,,,,,,,,,,,,,,,,,,,,,,,,,,,,,"MET07507/07/20 15:47:02 METAR KSQL 072347Z 24014G20KT 10SM SKC 25/05 A2991 RMK DA","FM-15","7",,,,,,,,,,,,,,,,,,,,,,,,,,,,
"72493893231","2020-07-07T16:47:00","FM-15","7",,,,,,,,,,,,,,,,,,,,,,,,,,,,,,,,,,,,,,"29.90","48","73",,,,,"41",,"*","29.89","10.00","59","270",,"16",,,,,,,,,,,,,,,,,,,,,,,,,,,,,,,,,,,,,"MET06907/07/20 16:47:01 METAR KSQL 080047Z 27014KT 10SM SKC 23/09 A2990 RMK","FM-15","7",,,,,,,,,,,,,,,,,,,,,,,,,,,,
"72493893231","2020-07-07T17:47:00","FM-15","7",,,,,,,,,,,,,,,,,,,,,,,,,,,,,,,,,,,,,,"29.90","48","68",,,,,"49",,"*","29.89","10.00","57","250",,"10",,,,,,,,,,,,,,,,,,,,,,,,,,,,,,,,,,,,,"MET06907/07/20 17:47:01 METAR KSQL 080147Z 25009KT 10SM SKC 20/09 A2990 RMK","FM-15","7",,,,,,,,,,,,,,,,,,,,,,,,,,,,
"72493893231","2020-07-07T18:47:00","FM-15","7",,,,,,,,,,,,,,,,,,,,,,,,,,,,,,,,,,,,,,"29.89","48","66",,,,,"52",,"*","29.88","10.00","56","270",,"8",,,,,,,,,,,,,,,,,,,,,,,,,,,,,,,,,,,,,"MET06907/07/20 18:47:01 METAR KSQL 080247Z 27007KT 10SM SKC 19/09 A2989 RMK","FM-15","7",,,,,,,,,,,,,,,,,,,,,,,,,,,,
"72493893231","2020-07-07T19:47:00","FM-15","7",,,,,,,,,,,,,,,,,,,,,,,,,,,,,,,,,,,,,,"29.90","50","63",,,,,"64",,"*","29.89","10.00","56","280",,"13",,,,,,,,,,,,,,,,,,,,,,,,,,,,,,,,,,,,,"MET07707/07/20 19:47:02 METAR KSQL 080347Z 28011KT 10SM SKC 17/10 A2990 RMK LAST QT","FM-15","7",,,,,,,,,,,,,,,,,,,,,,,,,,,,
"72493893231","2020-07-07T20:15:00","FM-15","7",,,,,,,,,,,,,,,,,,,,,,,,,,,,,,,,,,,,,,"29.90","50","63",,,,,"64",,"CLR:00","29.89","10.00","56","310",,"11",,,,,,,,,,,,,,,,,,,,,,,,,,,,,,,,,,,,,"MET07307/07/20 20:15:02 METAR KSQL 080415Z 31010KT 10SM CLR 17/10 A2990 RMK AO2","FM-15","7",,,,,,,,,,,,,,,,,,,,,,,,,,,,
"72493893231","2020-07-07T20:20:00","FM-15","7",,,,,,,,,,,,,,,,,,,,,,,,,,,,,,,,,,,,,,"29.90","50","63",,,,,"64",,"CLR:00","29.89","10.00","56","310",,"10",,,,,,,,,,,,,,,,,,,,,,,,,,,,,,,,,,,,,"MET07307/07/20 20:20:02 METAR KSQL 080420Z 31009KT 10SM CLR 17/10 A2990 RMK AO2","FM-15","7",,,,,,,,,,,,,,,,,,,,,,,,,,,,
"72493893231","2020-07-07T20:35:00","FM-15","7",,,,,,,,,,,,,,,,,,,,,,,,,,,,,,,,,,,,,,"29.91","50","63",,,,,"64",,"CLR:00","29.90","10.00","56","300",,"11",,,,,,,,,,,,,,,,,,,,,,,,,,,,,,,,,,,,,"MET07307/07/20 20:35:02 METAR KSQL 080435Z 30010KT 10SM CLR 17/10 A2991 RMK AO2","FM-15","7",,,,,,,,,,,,,,,,,,,,,,,,,,,,
"72493893231","2020-07-07T20:40:00","FM-15","7",,,,,,,,,,,,,,,,,,,,,,,,,,,,,,,,,,,,,,"29.91","50","63",,,,,"64",,"CLR:00","29.90","10.00","56","310",,"10",,,,,,,,,,,,,,,,,,,,,,,,,,,,,,,,,,,,,"MET07307/07/20 20:40:02 METAR KSQL 080440Z 31009KT 10SM CLR 17/10 A2991 RMK AO2","FM-15","7",,,,,,,,,,,,,,,,,,,,,,,,,,,,
"72493893231","2020-07-07T20:55:00","FM-15","7",,,,,,,,,,,,,,,,,,,,,,,,,,,,,,,,,,,,,,"29.91","50","63",,,,,"64",,"CLR:00","29.90","10.00","56","300",,"7",,,,,,,,,,,,,,,,,,,,,,,,,,,,,,,,,,,,,"MET07307/07/20 20:55:02 METAR KSQL 080455Z 30006KT 10SM CLR 17/10 A2991 RMK AO2","FM-15","7",,,,,,,,,,,,,,,,,,,,,,,,,,,,
"72493893231","2020-07-07T21:15:00","FM-15","7",,,,,,,,,,,,,,,,,,,,,,,,,,,,,,,,,,,,,,"29.92","50","63",,,,,"64",,"CLR:00","29.91","10.00","56","300",,"8",,,,,,,,,,,,,,,,,,,,,,,,,,,,,,,,,,,,,"MET07307/07/20 21:15:02 METAR KSQL 080515Z 30007KT 10SM CLR 17/10 A2992 RMK AO2","FM-15","7",,,,,,,,,,,,,,,,,,,,,,,,,,,,
"72493893231","2020-07-07T21:35:00","FM-15","7",,,,,,,,,,,,,,,,,,,,,,,,,,,,,,,,,,,,,,"29.92","50","63",,,,,"64",,"CLR:00","29.91","10.00","56","310",,"7",,,,,,,,,,,,,,,,,,,,,,,,,,,,,,,,,,,,,"MET07307/07/20 21:35:02 METAR KSQL 080535Z 31006KT 10SM CLR 17/10 A2992 RMK AO2","FM-15","7",,,,,,,,,,,,,,,,,,,,,,,,,,,,
"72493893231","2020-07-07T21:55:00","FM-15","7",,,,,,,,,,,,,,,,,,,,,,,,,,,,,,,,,,,,,,"29.92","50","61",,,,,"68",,"CLR:00","29.91","10.00","55","320",,"6",,,,,,,,,,,,,,,,,,,,,,,,,,,,,,,,,,,,,"MET07307/07/20 21:55:02 METAR KSQL 080555Z 32005KT 10SM CLR 16/10 A2992 RMK AO2","FM-15","7",,,,,,,,,,,,,,,,,,,,,,,,,,,,
"72493893231","2020-07-07T22:00:00","FM-15","4",,,,,,,,,,,,,,,,,,,,,,,,,,,,,,,,,,,,,,"29.92","50","61",,,,,"68",,,,"10.00",,"310",,"7",,,,,,,,,,,,,,,,,,,,,,,,,,,,,,,,,,,,,"MET061METAR KSQL 080600Z AUTO 31006KT 10SM CLR 16/10 A2992 RMK AO2=","FM-15","4",,,,,,,,,,,,,,,,,,,,,,,,,,,,
"72493893231","2020-07-07T22:15:00","FM-15","7",,,,,,,,,,,,,,,,,,,,,,,,,,,,,,,,,,,,,,"29.92","50","61",,,,,"68",,"CLR:00","29.91","10.00","55","300",,"7",,,,,,,,,,,,,,,,,,,,,,,,,,,,,,,,,,,,,"MET07307/07/20 22:15:02 METAR KSQL 080615Z 30006KT 10SM CLR 16/10 A2992 RMK AO2","FM-15","7",,,,,,,,,,,,,,,,,,,,,,,,,,,,
"72493893231","2020-07-07T22:35:00","FM-15","7",,,,,,,,,,,,,,,,,,,,,,,,,,,,,,,,,,,,,,"29.91","50","59",,,,,"72",,"CLR:00","29.90","10.00","54","310",,"7",,,,,,,,,,,,,,,,,,,,,,,,,,,,,,,,,,,,,"MET07307/07/20 22:35:02 METAR KSQL 080635Z 31006KT 10SM CLR 15/10 A2991 RMK AO2","FM-15","7",,,,,,,,,,,,,,,,,,,,,,,,,,,,
"72493893231","2020-07-07T22:55:00","FM-15","7",,,,,,,,,,,,,,,,,,,,,,,,,,,,,,,,,,,,,,"29.91","50","59",,,,,"72",,"CLR:00","29.90","10.00","54","300",,"5",,,,,,,,,,,,,,,,,,,,,,,,,,,,,,,,,,,,,"MET07307/07/20 22:55:02 METAR KSQL 080655Z 30004KT 10SM CLR 15/10 A2991 RMK AO2","FM-15","7",,,,,,,,,,,,,,,,,,,,,,,,,,,,
"72493893231","2020-07-07T23:15:00","FM-15","7",,,,,,,,,,,,,,,,,,,,,,,,,,,,,,,,,,,,,,"29.91","50","59",,,,,"72",,"CLR:00","29.90","10.00","54","290",,"5",,,,,,,,,,,,,,,,,,,,,,,,,,,,,,,,,,,,,"MET07307/07/20 23:15:02 METAR KSQL 080715Z 29004KT 10SM CLR 15/10 A2991 RMK AO2","FM-15","7",,,,,,,,,,,,,,,,,,,,,,,,,,,,
"72493893231","2020-07-07T23:20:00","FM-15","7",,,,,,,,,,,,,,,,,,,,,,,,,,,,,,,,,,,,,,"29.91","50","59",,,,,"72",,"CLR:00","29.90","10.00","54","300",,"3",,,,,,,,,,,,,,,,,,,,,,,,,,,,,,,,,,,,,"MET07307/07/20 23:20:02 METAR KSQL 080720Z 30003KT 10SM CLR 15/10 A2991 RMK AO2","FM-15","7",,,,,,,,,,,,,,,,,,,,,,,,,,,,
"72493893231","2020-07-07T23:35:00","FM-15","7",,,,,,,,,,,,,,,,,,,,,,,,,,,,,,,,,,,,,,"29.91","50","59",,,,,"72",,"CLR:00","29.90","10.00","54","300",,"5",,,,,,,,,,,,,,,,,,,,,,,,,,,,,,,,,,,,,"MET07307/07/20 23:35:02 METAR KSQL 080735Z 30004KT 10SM CLR 15/10 A2991 RMK AO2","FM-15","7",,,,,,,,,,,,,,,,,,,,,,,,,,,,
"72493893231","2020-07-07T23:40:00","FM-15","7",,,,,,,,,,,,,,,,,,,,,,,,,,,,,,,,,,,,,,"29.91","50","59",,,,,"72",,"CLR:00","29.90","10.00","54","300",,"3",,,,,,,,,,,,,,,,,,,,,,,,,,,,,,,,,,,,,"MET07307/07/20 23:40:02 METAR KSQL 080740Z 30003KT 10SM CLR 15/10 A2991 RMK AO2","FM-15","7",,,,,,,,,,,,,,,,,,,,,,,,,,,,
"72493893231","2020-07-07T23:55:00","FM-15","7",,,,,,,,,,,,,,,,,,,,,,,,,,,,,,,,,,,,,,"29.91","50","59",,,,,"72",,"CLR:00","29.90","10.00","54","000",,"0",,,,,,,,,,,,,,,,,,,,,,,,,,,,,,,,,,,,,"MET07307/07/20 23:55:02 METAR KSQL 080755Z 00000KT 10SM CLR 15/10 A2991 RMK AO2","FM-15","7",,,,,,,,,,,,,,,,,,,,,,,,,,,,
"72493893231","2020-07-08T00:15:00","FM-15","7",,,,,,,,,,,,,,,,,,,,,,,,,,,,,,,,,,,,,,"29.90","50","59",,,,,"72",,"CLR:00","29.89","10.00","54","270",,"3",,,,,,,,,,,,,,,,,,,,,,,,,,,,,,,,,,,,,"MET07307/08/20 00:15:02 METAR KSQL 080815Z 27003KT 10SM CLR 15/10 A2990 RMK AO2","FM-15","7",,,,,,,,,,,,,,,,,,,,,,,,,,,,
"72493893231","2020-07-08T00:35:00","FM-15","7",,,,,,,,,,,,,,,,,,,,,,,,,,,,,,,,,,,,,,"29.90","50","59",,,,,"72",,"CLR:00","29.89","10.00","54","300",,"5",,,,,,,,,,,,,,,,,,,,,,,,,,,,,,,,,,,,,"MET07307/08/20 00:35:02 METAR KSQL 080835Z 30004KT 10SM CLR 15/10 A2990 RMK AO2","FM-15","7",,,,,,,,,,,,,,,,,,,,,,,,,,,,
"72493893231","2020-07-08T00:55:00","FM-15","7",,,,,,,,,,,,,,,,,,,,,,,,,,,,,,,,,,,,,,"29.89","50","59",,,,,"72",,"CLR:00","29.88","10.00","54","310",,"5",,,,,,,,,,,,,,,,,,,,,,,,,,,,,,,,,,,,,"MET07307/08/20 00:55:02 METAR KSQL 080855Z 31004KT 10SM CLR 15/10 A2989 RMK AO2","FM-15","7",,,,,,,,,,,,,,,,,,,,,,,,,,,,
"72493893231","2020-07-08T01:15:00","FM-15","7",,,,,,,,,,,,,,,,,,,,,,,,,,,,,,,,,,,,,,"29.89","50","57",,,,,"77",,"CLR:00","29.88","10.00","53","000",,"0",,,,,,,,,,,,,,,,,,,,,,,,,,,,,,,,,,,,,"MET07307/08/20 01:15:02 METAR KSQL 080915Z 00000KT 10SM CLR 14/10 A2989 RMK AO2","FM-15","7",,,,,,,,,,,,,,,,,,,,,,,,,,,,
"72493893231","2020-07-08T01:35:00","FM-15","7",,,,,,,,,,,,,,,,,,,,,,,,,,,,,,,,,,,,,,"29.89","50","59",,,,,"72",,"CLR:00","29.88","10.00","54","000",,"0",,,,,,,,,,,,,,,,,,,,,,,,,,,,,,,,,,,,,"MET07307/08/20 01:35:02 METAR KSQL 080935Z 00000KT 10SM CLR 15/10 A2989 RMK AO2","FM-15","7",,,,,,,,,,,,,,,,,,,,,,,,,,,,
"72493893231","2020-07-08T01:55:00","FM-15","7",,,,,,,,,,,,,,,,,,,,,,,,,,,,,,,,,,,,,,"29.89","50","57",,,,,"77",,"CLR:00","29.88","10.00","53","310",,"3",,,,,,,,,,,,,,,,,,,,,,,,,,,,,,,,,,,,,"MET07307/08/20 01:55:02 METAR KSQL 080955Z 31003KT 10SM CLR 14/10 A2989 RMK AO2","FM-15","7",,,,,,,,,,,,,,,,,,,,,,,,,,,,
"72493893231","2020-07-08T02:15:00","FM-15","7",,,,,,,,,,,,,,,,,,,,,,,,,,,,,,,,,,,,,,"29.88","50","57",,,,,"77",,"CLR:00","29.87","10.00","53","000",,"0",,,,,,,,,,,,,,,,,,,,,,,,,,,,,,,,,,,,,"MET07307/08/20 02:15:02 METAR KSQL 081015Z 00000KT 10SM CLR 14/10 A2988 RMK AO2","FM-15","7",,,,,,,,,,,,,,,,,,,,,,,,,,,,
"72493893231","2020-07-08T02:35:00","FM-15","7",,,,,,,,,,,,,,,,,,,,,,,,,,,,,,,,,,,,,,"29.88","52","57",,,,,"82",,"CLR:00","29.87","10.00","54","000",,"0",,,,,,,,,,,,,,,,,,,,,,,,,,,,,,,,,,,,,"MET07307/08/20 02:35:02 METAR KSQL 081035Z 00000KT 10SM CLR 14/11 A2988 RMK AO2","FM-15","7",,,,,,,,,,,,,,,,,,,,,,,,,,,,
"72493893231","2020-07-08T02:55:00","FM-15","7",,,,,,,,,,,,,,,,,,,,,,,,,,,,,,,,,,,,,,"29.88","54","57",,,,,"88",,"CLR:00","29.87","10.00","55","200",,"3",,,,,,,,,,,,,,,,,,,,,,,,,,,,,,,,,,,,,"MET07307/08/20 02:55:02 METAR KSQL 081055Z 20003KT 10SM CLR 14/12 A2988 RMK AO2","FM-15","7",,,,,,,,,,,,,,,,,,,,,,,,,,,,
"72493893231","2020-07-08T03:00:00","FM-15","4",,,,,,,,,,,,,,,,,,,,,,,,,,,,,,,,,,,,,,"29.88","54","59",,,,,"82",,,,"10.00",,"210",,"3",,,,,,,,,,,,,,,,,,,,,,,,,,,,,,,,,,,,,"MET061METAR KSQL 081100Z AUTO 21003KT 10SM CLR 15/12 A2988 RMK AO2=","FM-15","4",,,,,,,,,,,,,,,,,,,,,,,,,,,,
"72493893231","2020-07-08T03:15:00","FM-15","7",,,,,,,,,,,,,,,,,,,,,,,,,,,,,,,,,,,,,,"29.88","54","59",,,,,"82",,"CLR:00","29.87","10.00","56","000",,"0",,,,,,,,,,,,,,,,,,,,,,,,,,,,,,,,,,,,,"MET07307/08/20 03:15:02 METAR KSQL 081115Z 00000KT 10SM CLR 15/12 A2988 RMK AO2","FM-15","7",,,,,,,,,,,,,,,,,,,,,,,,,,,,
"72493893231","2020-07-08T03:35:00","FM-15","7",,,,,,,,,,,,,,,,,,,,,,,,,,,,,,,,,,,,,,"29.89","54","59",,,,,"82",,"CLR:00","29.88","10.00","56","000",,"0",,,,,,,,,,,,,,,,,,,,,,,,,,,,,,,,,,,,,"MET07307/08/20 03:35:02 METAR KSQL 081135Z 00000KT 10SM CLR 15/12 A2989 RMK AO2","FM-15","7",,,,,,,,,,,,,,,,,,,,,,,,,,,,
"72493893231","2020-07-08T03:55:00","FM-15","7",,,,,,,,,,,,,,,,,,,,,,,,,,,,,,,,,,,,,,"29.89","52","57",,,,,"82",,"CLR:00","29.88","10.00","54","320",,"3",,,,,,,,,,,,,,,,,,,,,,,,,,,,,,,,,,,,,"MET07307/08/20 03:55:02 METAR KSQL 081155Z 32003KT 10SM CLR 14/11 A2989 RMK AO2","FM-15","7",,,,,,,,,,,,,,,,,,,,,,,,,,,,
"72493893231","2020-07-08T04:15:00","FM-15","7",,,,,,,,,,,,,,,,,,,,,,,,,,,,,,,,,,,,,,"29.89","52","57",,,,,"82",,"CLR:00","29.88","10.00","54","320",,"3",,,,,,,,,,,,,,,,,,,,,,,,,,,,,,,,,,,,,"MET07307/08/20 04:15:02 METAR KSQL 081215Z 32003KT 10SM CLR 14/11 A2989 RMK AO2","FM-15","7",,,,,,,,,,,,,,,,,,,,,,,,,,,,
"72493893231","2020-07-08T04:20:00","FM-15","7",,,,,,,,,,,,,,,,,,,,,,,,,,,,,,,,,,,,,,"29.89","52","57",,,,,"82",,"CLR:00","29.88","10.00","54","310",,"3",,,,,,,,,,,,,,,,,,,,,,,,,,,,,,,,,,,,,"MET07307/08/20 04:20:02 METAR KSQL 081220Z 31003KT 10SM CLR 14/11 A2989 RMK AO2","FM-15","7",,,,,,,,,,,,,,,,,,,,,,,,,,,,
"72493893231","2020-07-08T04:35:00","FM-15","7",,,,,,,,,,,,,,,,,,,,,,,,,,,,,,,,,,,,,,"29.89","52","57",,,,,"82",,"CLR:00","29.88","10.00","54","000",,"0",,,,,,,,,,,,,,,,,,,,,,,,,,,,,,,,,,,,,"MET07307/08/20 04:35:02 METAR KSQL 081235Z 00000KT 10SM CLR 14/11 A2989 RMK AO2","FM-15","7",,,,,,,,,,,,,,,,,,,,,,,,,,,,
"72493893231","2020-07-08T04:55:00","FM-15","7",,,,,,,,,,,,,,,,,,,,,,,,,,,,,,,,,,,,,,"29.90","52","57",,,,,"82",,"CLR:00","29.89","10.00","54","000",,"0",,,,,,,,,,,,,,,,,,,,,,,,,,,,,,,,,,,,,"MET07307/08/20 04:55:02 METAR KSQL 081255Z 00000KT 10SM CLR 14/11 A2990 RMK AO2","FM-15","7",,,,,,,,,,,,,,,,,,,,,,,,,,,,
"72493893231","2020-07-08T05:15:00","FM-15","7",,,,,,,,,,,,,,,,,,,,,,,,,,,,,,,,,,,,,,"29.90","52","57",,,,,"82",,"CLR:00","29.89","10.00","54","310",,"3",,,,,,,,,,,,,,,,,,,,,,,,,,,,,,,,,,,,,"MET07307/08/20 05:15:02 METAR KSQL 081315Z 31003KT 10SM CLR 14/11 A2990 RMK AO2","FM-15","7",,,,,,,,,,,,,,,,,,,,,,,,,,,,
"72493893231","2020-07-08T05:35:00","FM-15","6",,,,,,,,,,,,,,,,,,,,,,,,,,,,,,,,,,,,,,"29.90","52","57",,,,,"82",,"CLR:00","29.89","9.00","54","310",,"3",,,,,,,,,,,,,,,,,,,,,,,,,,,,,,,,,,,,,"MET07207/08/20 05:35:02 METAR KSQL 081335Z 31003KT 9SM CLR 14/11 A2990 RMK AO2","FM-15","6",,,,,,,,,,,,,,,,,,,,,,,,,,,,
"72493893231","2020-07-08T05:40:00","FM-15","7",,,,,,,,,,,,,,,,,,,,,,,,,,,,,,,,,,,,,,"29.90","52","57",,,,,"82",,"CLR:00","29.89","8.00","54","310",,"3",,,,,,,,,,,,,,,,,,,,,,,,,,,,,,,,,,,,,"MET07207/08/20 05:40:02 METAR KSQL 081340Z 31003KT 8SM CLR 14/11 A2990 RMK AO2","FM-15","7",,,,,,,,,,,,,,,,,,,,,,,,,,,,
"72493893231","2020-07-08T05:47:00","FM-15","4",,,,,,,,,,,,,,,,,,,,,,,,,,,,,,,,,,,,,,"29.90","52","57",,,,,"82",,,,"10.00",,"300",,"3",,,,,,,,,,,,,,,,,,,,,,,,,,,,,,,,,,,,,"MET048METAR KSQL 081347Z 30003KT 10SM SKC 14/11 A2990=","FM-15","4",,,,,,,,,,,,,,,,,,,,,,,,,,,,
"72493893231","2020-07-08T05:55:00","FM-15","7",,,,,,,,,,,,,,,,,,,,,,,,,,,,,,,,,,,,,,"29.90","52","57",,,,,"82",,"CLR:00","29.89","9.00","54","320",,"3",,,,,,,,,,,,,,,,,,,,,,,,,,,,,,,,,,,,,"MET07207/08/20 05:55:02 METAR KSQL 081355Z 32003KT 9SM CLR 14/11 A2990 RMK AO2","FM-15","7",,,,,,,,,,,,,,,,,,,,,,,,,,,,
"72493893231","2020-07-08T06:47:00","FM-15","7",,,,,,,,,,,,,,,,,,,,,,,,,,,,,,,,,,,,,,"29.91","55","61",,,,,"83",,"*","29.90","10.00","58","000",,"0",,,,,,,,,,,,,,,,,,,,,,,,,,,,,,,,,,,,,"MET06907/08/20 06:47:02 METAR KSQL 081447Z 00000KT 10SM SKC 16/13 A2991 RMK","FM-15","7",,,,,,,,,,,,,,,,,,,,,,,,,,,,
"72493893231","2020-07-08T07:47:00","FM-15","7",,,,,,,,,,,,,,,,,,,,,,,,,,,,,,,,,,,,,,"29.92","57","63",,,,,"83",,"*","29.91","10.00","60","070",,"3",,,,,,,,,,,,,,,,,,,,,,,,,,,,,,,,,,,,,"MET06907/08/20 07:47:02 METAR KSQL 081547Z 07003KT 10SM SKC 17/14 A2992 RMK","FM-15","7",,,,,,,,,,,,,,,,,,,,,,,,,,,,
"72493893231","2020-07-08T08:47:00","FM-15","7",,,,,,,,,,,,,,,,,,,,,,,,,,,,,,,,,,,,,,"29.92","57","66",,,,,"73",,"*","29.91","10.00","61","000",,"0",,,,,,,,,,,,,,,,,,,,,,,,,,,,,,,,,,,,,"MET06907/08/20 08:47:02 METAR KSQL 081647Z 00000KT 10SM SKC 19/14 A2992 RMK","FM-15","7",,,,,,,,,,,,,,,,,,,,,,,,,,,,
"72493893231","2020-07-08T09:47:00","FM-15","7",,,,,,,,,,,,,,,,,,,,,,,,,,,,,,,,,,,,,,"29.91","59","68",,,,,"73",,"*","29.90","10.00","63","350",,"7",,,,,,,,,,,,,,,,,,,,,,,,,,,,,,,,,,,,,"MET06907/08/20 09:47:02 METAR KSQL 081747Z 35006KT 10SM SKC 20/15 A2991 RMK","FM-15","7",,,,,,,,,,,,,,,,,,,,,,,,,,,,
"72493893231","2020-07-08T10:47:00","FM-15","7",,,,,,,,,,,,,,,,,,,,,,,,,,,,,,,,,,,,,,"29.90","59","70",,,,,"69",,"*","29.89","10.00","63","360",,"14",,,,,,,,,,,,,,,,,,,,,,,,,,,,,,,,,,,,,"MET06907/08/20 10:47:02 METAR KSQL 081847Z 36012KT 10SM SKC 21/15 A2990 RMK","FM-15","7",,,,,,,,,,,,,,,,,,,,,,,,,,,,
"72493893231","2020-07-08T11:47:00","FM-15","7",,,,,,,,,,,,,,,,,,,,,,,,,,,,,,,,,,,,,,"29.90","50","73",,,,,"44",,"*","29.89","10.00","60","320",,"11",,,,,,,,,,,,,,,,,,,,,,,,,,,,,,,,,,,,,"MET06907/08/20 11:47:02 METAR KSQL 081947Z 32010KT 10SM SKC 23/10 A2990 RMK","FM-15","7",,,,,,,,,,,,,,,,,,,,,,,,,,,,
"72493893231","2020-07-08T12:47:00","FM-15","7",,,,,,,,,,,,,,,,,,,,,,,,,,,,,,,,,,,,,,"29.89","54","79",,,,,"42",,"*","29.88","10.00","64","289",,"11",,,,,,,,,,,,,,,,,,,,,,,,,,,,,,,,,,,,,"MET06907/08/20 12:47:02 METAR KSQL 082047Z 28901KT 10SM SKC 26/12 A2989 RMK","FM-15","7",,,,,,,,,,,,,,,,,,,,,,,,,,,,
"72493893231","2020-07-08T13:47:00","FM-15","7",,,,,,,,,,,,,,,,,,,,,,,,,,,,,,,,,,,,,,"29.87","50","81",,,,,"34",,"*","29.86","10.00","63","250",,"15",,,,,,,,,,,,,,,,,,,,,,,,,,,,,,,,,,,,,"MET07207/08/20 13:47:02 METAR KSQL 082147Z 25013KT 10SM SKC 27/10 A2987 RMK DA","FM-15","7",,,,,,,,,,,,,,,,,,,,,,,,,,,,
"72493893231","2020-07-08T14:47:00","FM-15","7",,,,,,,,,,,,,,,,,,,,,,,,,,,,,,,,,,,,,,"29.85","50","79",,,,,"37",,"*","29.84","10.00","62","300","22","17",,,,,,,,,,,,,,,,,,,,,,,,,,,,,,,,,,,,,"MET07507/08/20 14:47:02 METAR KSQL 082247Z 30015G19KT 10SM SKC 26/10 A2985 RMK DA","FM-15","7",,,,,,,,,,,,,,,,,,,,,,,,,,,,
"72493893231","2020-07-08T15:47:00","FM-15","7",,,,,,,,,,,,,,,,,,,,,,,,,,,,,,,,,,,,,,"29.84","50","81",,,,,"34",,"*","29.83","10.00","63","280","24","17",,,,,,,,,,,,,,,,,,,,,,,,,,,,,,,,,,,,,"MET07207/08/20 15:47:02 METAR KSQL 082347Z 28015G21KT 10SM SKC 27/10 A2984 RMK","FM-15","7",,,,,,,,,,,,,,,,,,,,,,,,,,,,
"72493893231","2020-07-08T16:47:00","FM-15","7",,,,,,,,,,,,,,,,,,,,,,,,,,,,,,,,,,,,,,"29.85","48","75",,,,,"39",,"*","29.84","10.00","60","250","24","17",,,,,,,,,,,,,,,,,,,,,,,,,,,,,,,,,,,,,"MET07207/08/20 16:47:01 METAR KSQL 090047Z 25015G21KT 10SM SKC 24/09 A2985 RMK","FM-15","7",,,,,,,,,,,,,,,,,,,,,,,,,,,,
"72493893231","2020-07-08T17:47:00","FM-15","7",,,,,,,,,,,,,,,,,,,,,,,,,,,,,,,,,,,,,,"29.86","48","72",,,,,"44",,"*","29.85","10.00","59","250","24","17",,,,,,,,,,,,,,,,,,,,,,,,,,,,,,,,,,,,,"MET07207/08/20 17:47:01 METAR KSQL 090147Z 25015G21KT 10SM SKC 22/09 A2986 RMK","FM-15","7",,,,,,,,,,,,,,,,,,,,,,,,,,,,
"72493893231","2020-07-08T18:47:00","FM-15","7",,,,,,,,,,,,,,,,,,,,,,,,,,,,,,,,,,,,,,"29.87","46","68",,,,,"46",,"*","29.86","10.00","56","250","24","17",,,,,,,,,,,,,,,,,,,,,,,,,,,,,,,,,,,,,"MET07207/08/20 18:47:01 METAR KSQL 090247Z 25015G21KT 10SM SKC 20/08 A2987 RMK","FM-15","7",,,,,,,,,,,,,,,,,,,,,,,,,,,,
"72493893231","2020-07-08T19:47:00","FM-15","7",,,,,,,,,,,,,,,,,,,,,,,,,,,,,,,,,,,,,,"29.87","48","63",,,,,"59",,"*","29.86","10.00","55","290",,"11",,,,,,,,,,,,,,,,,,,,,,,,,,,,,,,,,,,,,"MET07407/08/20 19:47:02 METAR KSQL 090347Z 29010KT 10SM SKC 17/09 A2987 RMK LAST","FM-15","7",,,,,,,,,,,,,,,,,,,,,,,,,,,,
"72493893231","2020-07-08T20:15:00","FM-15","7",,,,,,,,,,,,,,,,,,,,,,,,,,,,,,,,,,,,,,"29.88","48","63",,,,,"59",,"CLR:00","29.87","10.00","55","020",,"3",,,,,,,,,,,,,,,,,,,,,,,,,,,,,,,,,,,,,"MET07307/08/20 20:15:02 METAR KSQL 090415Z 02003KT 10SM CLR 17/09 A2988 RMK AO2","FM-15","7",,,,,,,,,,,,,,,,,,,,,,,,,,,,
"72493893231","2020-07-08T20:35:00","FM-15","7",,,,,,,,,,,,,,,,,,,,,,,,,,,,,,,,,,,,,,"29.89","50","61",,,,,"68",,"CLR:00","29.88","10.00","55","340",,"5",,,,,,,,,,,,,,,,,,,,,,,,,,,,,,,,,,,,,"MET07307/08/20 20:35:02 METAR KSQL 090435Z 34004KT 10SM CLR 16/10 A2989 RMK AO2","FM-15","7",,,,,,,,,,,,,,,,,,,,,,,,,,,,
"72493893231","2020-07-08T20:55:00","FM-15","7",,,,,,,,,,,,,,,,,,,,,,,,,,,,,,,,,,,,,,"29.89","50","59",,,,,"72",,"CLR:00","29.88","10.00","54","330",,"6",,,,,,,,,,,,,,,,,,,,,,,,,,,,,,,,,,,,,"MET07307/08/20 20:55:02 METAR KSQL 090455Z 33005KT 10SM CLR 15/10 A2989 RMK AO2","FM-15","7",,,,,,,,,,,,,,,,,,,,,,,,,,,,
"72493893231","2020-07-08T21:15:00","FM-15","7",,,,,,,,,,,,,,,,,,,,,,,,,,,,,,,,,,,,,,"29.89","50","61",,,,,"68",,"CLR:00","29.88","10.00","55","300",,"8",,,,,,,,,,,,,,,,,,,,,,,,,,,,,,,,,,,,,"MET07307/08/20 21:15:02 METAR KSQL 090515Z 30007KT 10SM CLR 16/10 A2989 RMK AO2","FM-15","7",,,,,,,,,,,,,,,,,,,,,,,,,,,,
"72493893231","2020-07-08T21:35:00","FM-15","7",,,,,,,,,,,,,,,,,,,,,,,,,,,,,,,,,,,,,,"29.90","48","63",,,,,"59",,"CLR:00","29.89","10.00","55","300",,"9",,,,,,,,,,,,,,,,,,,,,,,,,,,,,,,,,,,,,"MET07307/08/20 21:35:02 METAR KSQL 090535Z 30008KT 10SM CLR 17/09 A2990 RMK AO2","FM-15","7",,,,,,,,,,,,,,,,,,,,,,,,,,,,
"72493893231","2020-07-08T21:55:00","FM-15","7",,,,,,,,,,,,,,,,,,,,,,,,,,,,,,,,,,,,,,"29.90","50","61",,,,,"68",,"CLR:00","29.89","10.00","55","280",,"6",,,,,,,,,,,,,,,,,,,,,,,,,,,,,,,,,,,,,"MET07307/08/20 21:55:02 METAR KSQL 090555Z 28005KT 10SM CLR 16/10 A2990 RMK AO2","FM-15","7",,,,,,,,,,,,,,,,,,,,,,,,,,,,
"72493893231","2020-07-08T22:15:00","FM-15","7",,,,,,,,,,,,,,,,,,,,,,,,,,,,,,,,,,,,,,"29.90","50","59",,,,,"72",,"CLR:00","29.89","10.00","54","310",,"3",,,,,,,,,,,,,,,,,,,,,,,,,,,,,,,,,,,,,"MET07307/08/20 22:15:02 METAR KSQL 090615Z 31003KT 10SM CLR 15/10 A2990 RMK AO2","FM-15","7",,,,,,,,,,,,,,,,,,,,,,,,,,,,
"72493893231","2020-07-08T22:35:00","FM-15","7",,,,,,,,,,,,,,,,,,,,,,,,,,,,,,,,,,,,,,"29.90","48","61",,,,,"63",,"CLR:00","29.89","10.00","54","000",,"0",,,,,,,,,,,,,,,,,,,,,,,,,,,,,,,,,,,,,"MET07307/08/20 22:35:02 METAR KSQL 090635Z 00000KT 10SM CLR 16/09 A2990 RMK AO2","FM-15","7",,,,,,,,,,,,,,,,,,,,,,,,,,,,
"72493893231","2020-07-08T22:55:00","FM-15","7",,,,,,,,,,,,,,,,,,,,,,,,,,,,,,,,,,,,,,"29.90","50","59",,,,,"72",,"CLR:00","29.89","10.00","54","320",,"6",,,,,,,,,,,,,,,,,,,,,,,,,,,,,,,,,,,,,"MET07307/08/20 22:55:02 METAR KSQL 090655Z 32005KT 10SM CLR 15/10 A2990 RMK AO2","FM-15","7",,,,,,,,,,,,,,,,,,,,,,,,,,,,
"72493893231","2020-07-08T23:15:00","FM-15","7",,,,,,,,,,,,,,,,,,,,,,,,,,,,,,,,,,,,,,"29.89","50","59",,,,,"72",,"CLR:00","29.88","10.00","54","300",,"6",,,,,,,,,,,,,,,,,,,,,,,,,,,,,,,,,,,,,"MET07307/08/20 23:15:02 METAR KSQL 090715Z 30005KT 10SM CLR 15/10 A2989 RMK AO2","FM-15","7",,,,,,,,,,,,,,,,,,,,,,,,,,,,
"72493893231","2020-07-08T23:35:00","FM-15","7",,,,,,,,,,,,,,,,,,,,,,,,,,,,,,,,,,,,,,"29.89","50","59",,,,,"72",,"CLR:00","29.88","10.00","54","310",,"3",,,,,,,,,,,,,,,,,,,,,,,,,,,,,,,,,,,,,"MET07307/08/20 23:35:02 METAR KSQL 090735Z 31003KT 10SM CLR 15/10 A2989 RMK AO2","FM-15","7",,,,,,,,,,,,,,,,,,,,,,,,,,,,
"72493893231","2020-07-08T23:55:00","FM-15","7",,,,,,,,,,,,,,,,,,,,,,,,,,,,,,,,,,,,,,"29.89","48","59",,,,,"68",,"CLR:00","29.88","10.00","53","270",,"3",,,,,,,,,,,,,,,,,,,,,,,,,,,,,,,,,,,,,"MET07307/08/20 23:55:02 METAR KSQL 090755Z 27003KT 10SM CLR 15/09 A2989 RMK AO2","FM-15","7",,,,,,,,,,,,,,,,,,,,,,,,,,,,
"72493893231","2020-07-09T00:00:00","FM-15","4",,,,,,,,,,,,,,,,,,,,,,,,,,,,,,,,,,,,,,"29.89","50","59",,,,,"72",,,,"10.00",,"270",,"3",,,,,,,,,,,,,,,,,,,,,,,,,,,,,,,,,,,,,"MET061METAR KSQL 090800Z AUTO 27003KT 10SM CLR 15/10 A2989 RMK AO2=","FM-15","4",,,,,,,,,,,,,,,,,,,,,,,,,,,,
"72493893231","2020-07-09T00:15:00","FM-15","7",,,,,,,,,,,,,,,,,,,,,,,,,,,,,,,,,,,,,,"29.89","50","59",,,,,"72",,"CLR:00","29.88","10.00","54","310",,"3",,,,,,,,,,,,,,,,,,,,,,,,,,,,,,,,,,,,,"MET07307/09/20 00:15:02 METAR KSQL 090815Z 31003KT 10SM CLR 15/10 A2989 RMK AO2","FM-15","7",,,,,,,,,,,,,,,,,,,,,,,,,,,,
"72493893231","2020-07-09T00:35:00","FM-15","7",,,,,,,,,,,,,,,,,,,,,,,,,,,,,,,,,,,,,,"29.89","50","59",,,,,"72",,"CLR:00","29.88","10.00","54","000",,"0",,,,,,,,,,,,,,,,,,,,,,,,,,,,,,,,,,,,,"MET07307/09/20 00:35:02 METAR KSQL 090835Z 00000KT 10SM CLR 15/10 A2989 RMK AO2","FM-15","7",,,,,,,,,,,,,,,,,,,,,,,,,,,,
"72493893231","2020-07-09T00:55:00","FM-15","7",,,,,,,,,,,,,,,,,,,,,,,,,,,,,,,,,,,,,,"29.89","50","59",,,,,"72",,"CLR:00","29.88","10.00","54","280",,"5",,,,,,,,,,,,,,,,,,,,,,,,,,,,,,,,,,,,,"MET07307/09/20 00:55:02 METAR KSQL 090855Z 28004KT 10SM CLR 15/10 A2989 RMK AO2","FM-15","7",,,,,,,,,,,,,,,,,,,,,,,,,,,,
"72493893231","2020-07-09T01:15:00","FM-15","7",,,,,,,,,,,,,,,,,,,,,,,,,,,,,,,,,,,,,,"29.89","50","59",,,,,"72",,"CLR:00","29.88","10.00","54","290",,"3",,,,,,,,,,,,,,,,,,,,,,,,,,,,,,,,,,,,,"MET07307/09/20 01:15:02 METAR KSQL 090915Z 29003KT 10SM CLR 15/10 A2989 RMK AO2","FM-15","7",,,,,,,,,,,,,,,,,,,,,,,,,,,,
"72493893231","2020-07-09T01:35:00","FM-15","7",,,,,,,,,,,,,,,,,,,,,,,,,,,,,,,,,,,,,,"29.89","50","57",,,,,"77",,"CLR:00","29.88","10.00","53","000",,"0",,,,,,,,,,,,,,,,,,,,,,,,,,,,,,,,,,,,,"MET07307/09/20 01:35:02 METAR KSQL 090935Z 00000KT 10SM CLR 14/10 A2989 RMK AO2","FM-15","7",,,,,,,,,,,,,,,,,,,,,,,,,,,,
"72493893231","2020-07-09T01:55:00","FM-15","7",,,,,,,,,,,,,,,,,,,,,,,,,,,,,,,,,,,,,,"29.89","50","57",,,,,"77",,"CLR:00","29.88","10.00","53","000",,"0",,,,,,,,,,,,,,,,,,,,,,,,,,,,,,,,,,,,,"MET07307/09/20 01:55:02 METAR KSQL 090955Z 00000KT 10SM CLR 14/10 A2989 RMK AO2","FM-15","7",,,,,,,,,,,,,,,,,,,,,,,,,,,,
"72493893231","2020-07-09T02:15:00","FM-15","7",,,,,,,,,,,,,,,,,,,,,,,,,,,,,,,,,,,,,,"29.89","50","57",,,,,"77",,"CLR:00","29.88","10.00","53","000",,"0",,,,,,,,,,,,,,,,,,,,,,,,,,,,,,,,,,,,,"MET07307/09/20 02:15:02 METAR KSQL 091015Z 00000KT 10SM CLR 14/10 A2989 RMK AO2","FM-15","7",,,,,,,,,,,,,,,,,,,,,,,,,,,,
"72493893231","2020-07-09T02:35:00","FM-15","7",,,,,,,,,,,,,,,,,,,,,,,,,,,,,,,,,,,,,,"29.89","50","57",,,,,"77",,"CLR:00","29.88","10.00","53","000",,"0",,,,,,,,,,,,,,,,,,,,,,,,,,,,,,,,,,,,,"MET07307/09/20 02:35:02 METAR KSQL 091035Z 00000KT 10SM CLR 14/10 A2989 RMK AO2","FM-15","7",,,,,,,,,,,,,,,,,,,,,,,,,,,,
"72493893231","2020-07-09T02:55:00","FM-15","7",,,,,,,,,,,,,,,,,,,,,,,,,,,,,,,,,,,,,,"29.88","50","57",,,,,"77",,"CLR:00","29.87","10.00","53","000",,"0",,,,,,,,,,,,,,,,,,,,,,,,,,,,,,,,,,,,,"MET07307/09/20 02:55:02 METAR KSQL 091055Z 00000KT 10SM CLR 14/10 A2988 RMK AO2","FM-15","7",,,,,,,,,,,,,,,,,,,,,,,,,,,,
"72493893231","2020-07-09T03:15:00","FM-15","7",,,,,,,,,,,,,,,,,,,,,,,,,,,,,,,,,,,,,,"29.88","50","57",,,,,"77",,"CLR:00","29.87","10.00","53","000",,"0",,,,,,,,,,,,,,,,,,,,,,,,,,,,,,,,,,,,,"MET07307/09/20 03:15:02 METAR KSQL 091115Z 00000KT 10SM CLR 14/10 A2988 RMK AO2","FM-15","7",,,,,,,,,,,,,,,,,,,,,,,,,,,,
"72493893231","2020-07-09T03:35:00","FM-15","7",,,,,,,,,,,,,,,,,,,,,,,,,,,,,,,,,,,,,,"29.88","50","57",,,,,"77",,"CLR:00","29.87","10.00","53","000",,"0",,,,,,,,,,,,,,,,,,,,,,,,,,,,,,,,,,,,,"MET07307/09/20 03:35:02 METAR KSQL 091135Z 00000KT 10SM CLR 14/10 A2988 RMK AO2","FM-15","7",,,,,,,,,,,,,,,,,,,,,,,,,,,,
"72493893231","2020-07-09T03:55:00","FM-15","7",,,,,,,,,,,,,,,,,,,,,,,,,,,,,,,,,,,,,,"29.88","50","57",,,,,"77",,"CLR:00","29.87","10.00","53","320",,"3",,,,,,,,,,,,,,,,,,,,,,,,,,,,,,,,,,,,,"MET07307/09/20 03:55:02 METAR KSQL 091155Z 32003KT 10SM CLR 14/10 A2988 RMK AO2","FM-15","7",,,,,,,,,,,,,,,,,,,,,,,,,,,,
"72493893231","2020-07-09T04:15:00","FM-15","7",,,,,,,,,,,,,,,,,,,,,,,,,,,,,,,,,,,,,,"29.88","50","55",,,,,"82",,"CLR:00","29.87","10.00","52","320",,"5",,,,,,,,,,,,,,,,,,,,,,,,,,,,,,,,,,,,,"MET07307/09/20 04:15:02 METAR KSQL 091215Z 32004KT 10SM CLR 13/10 A2988 RMK AO2","FM-15","7",,,,,,,,,,,,,,,,,,,,,,,,,,,,
"72493893231","2020-07-09T04:20:00","FM-15","7",,,,,,,,,,,,,,,,,,,,,,,,,,,,,,,,,,,,,,"29.89","50","55",,,,,"82",,"CLR:00","29.88","10.00","52","320",,"3",,,,,,,,,,,,,,,,,,,,,,,,,,,,,,,,,,,,,"MET07307/09/20 04:20:02 METAR KSQL 091220Z 32003KT 10SM CLR 13/10 A2989 RMK AO2","FM-15","7",,,,,,,,,,,,,,,,,,,,,,,,,,,,
"72493893231","2020-07-09T04:35:00","FM-15","7",,,,,,,,,,,,,,,,,,,,,,,,,,,,,,,,,,,,,,"29.88","50","55",,,,,"82",,"CLR:00","29.87","10.00","52","320",,"5",,,,,,,,,,,,,,,,,,,,,,,,,,,,,,,,,,,,,"MET07307/09/20 04:35:02 METAR KSQL 091235Z 32004KT 10SM CLR 13/10 A2988 RMK AO2","FM-15","7",,,,,,,,,,,,,,,,,,,,,,,,,,,,
"72493893231","2020-07-09T04:55:00","FM-15","7",,,,,,,,,,,,,,,,,,,,,,,,,,,,,,,,,,,,,,"29.89","50","55",,,,,"82",,"CLR:00","29.88","10.00","52","310",,"5",,,,,,,,,,,,,,,,,,,,,,,,,,,,,,,,,,,,,"MET07307/09/20 04:55:02 METAR KSQL 091255Z 31004KT 10SM CLR 13/10 A2989 RMK AO2","FM-15","7",,,,,,,,,,,,,,,,,,,,,,,,,,,,
"72493893231","2020-07-09T05:15:00","FM-15","7",,,,,,,,,,,,,,,,,,,,,,,,,,,,,,,,,,,,,,"29.89","50","55",,,,,"82",,"CLR:00","29.88","10.00","52","300",,"3",,,,,,,,,,,,,,,,,,,,,,,,,,,,,,,,,,,,,"MET07307/09/20 05:15:02 METAR KSQL 091315Z 30003KT 10SM CLR 13/10 A2989 RMK AO2","FM-15","7",,,,,,,,,,,,,,,,,,,,,,,,,,,,
"72493893231","2020-07-09T05:35:00","FM-15","7",,,,,,,,,,,,,,,,,,,,,,,,,,,,,,,,,,,,,,"29.89","50","57",,,,,"77",,"CLR:00","29.88","10.00","53","000",,"0",,,,,,,,,,,,,,,,,,,,,,,,,,,,,,,,,,,,,"MET07307/09/20 05:35:02 METAR KSQL 091335Z 00000KT 10SM CLR 14/10 A2989 RMK AO2","FM-15","7",,,,,,,,,,,,,,,,,,,,,,,,,,,,
"72493893231","2020-07-09T05:47:00","FM-15","4",,,,,,,,,,,,,,,,,,,,,,,,,,,,,,,,,,,,,,"29.89","50","57",,,,,"77",,,,"10.00",,"000",,"0",,,,,,,,,,,,,,,,,,,,,,,,,,,,,,,,,,,,,"MET048METAR KSQL 091347Z 00000KT 10SM SKC 14/10 A2989=","FM-15","4",,,,,,,,,,,,,,,,,,,,,,,,,,,,
"72493893231","2020-07-09T05:55:00","FM-15","7",,,,,,,,,,,,,,,,,,,,,,,,,,,,,,,,,,,,,,"29.89","50","57",,,,,"77",,"CLR:00","29.88","10.00","53","000",,"0",,,,,,,,,,,,,,,,,,,,,,,,,,,,,,,,,,,,,"MET07307/09/20 05:55:02 METAR KSQL 091355Z 00000KT 10SM CLR 14/10 A2989 RMK AO2","FM-15","7",,,,,,,,,,,,,,,,,,,,,,,,,,,,
"72493893231","2020-07-09T06:47:00","FM-15","7",,,,,,,,,,,,,,,,,,,,,,,,,,,,,,,,,,,,,,"29.90","54","59",,,,,"82",,"*","29.89","10.00","56","000",,"0",,,,,,,,,,,,,,,,,,,,,,,,,,,,,,,,,,,,,"MET06907/09/20 06:47:02 METAR KSQL 091447Z 00000KT 10SM SKC 15/12 A2990 RMK","FM-15","7",,,,,,,,,,,,,,,,,,,,,,,,,,,,
"72493893231","2020-07-09T07:47:00","FM-15","7",,,,,,,,,,,,,,,,,,,,,,,,,,,,,,,,,,,,,,"29.91","55","63",,,,,"77",,"*","29.90","10.00","58","000",,"0",,,,,,,,,,,,,,,,,,,,,,,,,,,,,,,,,,,,,"MET06907/09/20 07:47:02 METAR KSQL 091547Z 00000KT 10SM SKC 17/13 A2991 RMK","FM-15","7",,,,,,,,,,,,,,,,,,,,,,,,,,,,
"72493893231","2020-07-09T08:47:00","FM-15","7",,,,,,,,,,,,,,,,,,,,,,,,,,,,,,,,,,,,,,"29.91","57","66",,,,,"73",,"*","29.90","10.00","61","030",,"5",,,,,,,,,,,,,,,,,,,,,,,,,,,,,,,,,,,,,"MET06907/09/20 08:47:02 METAR KSQL 091647Z 03004KT 10SM SKC 19/14 A2991 RMK","FM-15","7",,,,,,,,,,,,,,,,,,,,,,,,,,,,
"72493893231","2020-07-09T09:47:00","FM-15","7",,,,,,,,,,,,,,,,,,,,,,,,,,,,,,,,,,,,,,"29.92","57","68",,,,,"69",,"*","29.91","10.00","62","010",,"6",,,,,,,,,,,,,,,,,,,,,,,,,,,,,,,,,,,,,"MET06907/09/20 09:47:02 METAR KSQL 091747Z 01005KT 10SM SKC 20/14 A2992 RMK","FM-15","7",,,,,,,,,,,,,,,,,,,,,,,,,,,,
"72493893231","2020-07-09T10:47:00","FM-15","7",,,,,,,,,,,,,,,,,,,,,,,,,,,,,,,,,,,,,,"29.91","59","70",,,,,"69",,"*","29.90","10.00","63","360",,"17",,,,,,,,,,,,,,,,,,,,,,,,,,,,,,,,,,,,,"MET06907/09/20 10:47:02 METAR KSQL 091847Z 36015KT 10SM SKC 21/15 A2991 RMK","FM-15","7",,,,,,,,,,,,,,,,,,,,,,,,,,,,
"72493893231","2020-07-09T11:47:00","FM-15","7",,,,,,,,,,,,,,,,,,,,,,,,,,,,,,,,,,,,,,"29.91","55","75",,,,,"50",,"*","29.90","10.00","63","350",,"13",,,,,,,,,,,,,,,,,,,,,,,,,,,,,,,,,,,,,"MET06907/09/20 11:47:02 METAR KSQL 091947Z 35011KT 10SM SKC 24/13 A2991 RMK","FM-15","7",,,,,,,,,,,,,,,,,,,,,,,,,,,,
"72493893231","2020-07-09T14:47:00","FM-15","7",,,,,,,,,,,,,,,,,,,,,,,,,,,,,,,,,,,,,,"29.89","50","84",,,,,"31",,"*","29.88","10.00","64","280",,"14",,,,,,,,,,,,,,,,,,,,,,,,,,,,,,,,,,,,,"MET07207/09/20 14:47:02 METAR KSQL 092247Z 28012KT 10SM SKC 29/10 A2989 RMK DA","FM-15","7",,,,,,,,,,,,,,,,,,,,,,,,,,,,
"72493893231","2020-07-09T15:47:00","FM-15","7",,,,,,,,,,,,,,,,,,,,,,,,,,,,,,,,,,,,,,"29.89","52","82",,,,,"35",,"*","29.88","10.00","64","260",,"11",,,,,,,,,,,,,,,,,,,,,,,,,,,,,,,,,,,,,"MET06907/09/20 15:47:02 METAR KSQL 092347Z 26010KT 10SM SKC 28/11 A2989 RMK","FM-15","7",,,,,,,,,,,,,,,,,,,,,,,,,,,,
"72493893231","2020-07-09T16:47:00","FM-15","7",,,,,,,,,,,,,,,,,,,,,,,,,,,,,,,,,,,,,,"29.88","50","81",,,,,"34",,"*","29.87","10.00","63","250",,"11",,,,,,,,,,,,,,,,,,,,,,,,,,,,,,,,,,,,,"MET06907/09/20 16:47:01 METAR KSQL 100047Z 25010KT 10SM SKC 27/10 A2988 RMK","FM-15","7",,,,,,,,,,,,,,,,,,,,,,,,,,,,
"72493893231","2020-07-09T17:47:00","FM-15","7",,,,,,,,,,,,,,,,,,,,,,,,,,,,,,,,,,,,,,"29.89","48","75",,,,,"39",,"*","29.88","10.00","60","260",,"11",,,,,,,,,,,,,,,,,,,,,,,,,,,,,,,,,,,,,"MET06907/09/20 17:47:01 METAR KSQL 100147Z 26010KT 10SM SKC 24/09 A2989 RMK","FM-15","7",,,,,,,,,,,,,,,,,,,,,,,,,,,,
"72493893231","2020-07-09T18:47:00","FM-15","7",,,,,,,,,,,,,,,,,,,,,,,,,,,,,,,,,,,,,,"29.89","48","73",,,,,"41",,"*","29.88","10.00","59","260",,"11",,,,,,,,,,,,,,,,,,,,,,,,,,,,,,,,,,,,,"MET06907/09/20 18:47:01 METAR KSQL 100247Z 26010KT 10SM SKC 23/09 A2989 RMK","FM-15","7",,,,,,,,,,,,,,,,,,,,,,,,,,,,
"72493893231","2020-07-09T19:47:00","FM-15","7",,,,,,,,,,,,,,,,,,,,,,,,,,,,,,,,,,,,,,"29.90","50","66",,,,,"56",,"*","29.89","10.00","57","330",,"9",,,,,,,,,,,,,,,,,,,,,,,,,,,,,,,,,,,,,"MET07407/09/20 19:47:02 METAR KSQL 100347Z 33008KT 10SM SKC 19/10 A2990 RMK LAST","FM-15","7",,,,,,,,,,,,,,,,,,,,,,,,,,,,
"72493893231","2020-07-09T20:15:00","FM-15","7",,,,,,,,,,,,,,,,,,,,,,,,,,,,,,,,,,,,,,"29.92","54","64",,,,,"68",,"CLR:00","29.91","10.00","58","010",,"5",,,,,,,,,,,,,,,,,,,,,,,,,,,,,,,,,,,,,"MET07307/09/20 20:15:02 METAR KSQL 100415Z 01004KT 10SM CLR 18/12 A2992 RMK AO2","FM-15","7",,,,,,,,,,,,,,,,,,,,,,,,,,,,
"72493893231","2020-07-09T20:35:00","FM-15","7",,,,,,,,,,,,,,,,,,,,,,,,,,,,,,,,,,,,,,"29.93","52","64",,,,,"64",,"CLR:00","29.92","10.00","57","340",,"3",,,,,,,,,,,,,,,,,,,,,,,,,,,,,,,,,,,,,"MET07307/09/20 20:35:02 METAR KSQL 100435Z 34003KT 10SM CLR 18/11 A2993 RMK AO2","FM-15","7",,,,,,,,,,,,,,,,,,,,,,,,,,,,
"72493893231","2020-07-09T20:55:00","FM-15","7",,,,,,,,,,,,,,,,,,,,,,,,,,,,,,,,,,,,,,"29.93","52","64",,,,,"64",,"CLR:00","29.92","10.00","57","340",,"3",,,,,,,,,,,,,,,,,,,,,,,,,,,,,,,,,,,,,"MET07307/09/20 20:55:02 METAR KSQL 100455Z 34003KT 10SM CLR 18/11 A2993 RMK AO2","FM-15","7",,,,,,,,,,,,,,,,,,,,,,,,,,,,
"72493893231","2020-07-09T21:00:00","FM-15","4",,,,,,,,,,,,,,,,,,,,,,,,,,,,,,,,,,,,,,"29.94","52","64",,,,,"64",,,,"10.00",,"000",,"0",,,,,,,,,,,,,,,,,,,,,,,,,,,,,,,,,,,,,"MET061METAR KSQL 100500Z AUTO 00000KT 10SM CLR 18/11 A2994 RMK AO2=","FM-15","4",,,,,,,,,,,,,,,,,,,,,,,,,,,,
"72493893231","2020-07-09T21:15:00","FM-15","7",,,,,,,,,,,,,,,,,,,,,,,,,,,,,,,,,,,,,,"29.94","52","64",,,,,"64",,"CLR:00","29.93","10.00","57","000",,"0",,,,,,,,,,,,,,,,,,,,,,,,,,,,,,,,,,,,,"MET07307/09/20 21:15:02 METAR KSQL 100515Z 00000KT 10SM CLR 18/11 A2994 RMK AO2","FM-15","7",,,,,,,,,,,,,,,,,,,,,,,,,,,,
"72493893231","2020-07-09T21:35:00","FM-15","7",,,,,,,,,,,,,,,,,,,,,,,,,,,,,,,,,,,,,,"29.95","52","64",,,,,"64",,"CLR:00","29.94","10.00","57","000",,"0",,,,,,,,,,,,,,,,,,,,,,,,,,,,,,,,,,,,,"MET07307/09/20 21:35:02 METAR KSQL 100535Z 00000KT 10SM CLR 18/11 A2995 RMK AO2","FM-15","7",,,,,,,,,,,,,,,,,,,,,,,,,,,,
"72493893231","2020-07-09T21:55:00","FM-15","7",,,,,,,,,,,,,,,,,,,,,,,,,,,,,,,,,,,,,,"29.95","54","64",,,,,"68",,"CLR:00","29.94","10.00","58","010",,"5",,,,,,,,,,,,,,,,,,,,,,,,,,,,,,,,,,,,,"MET07307/09/20 21:55:02 METAR KSQL 100555Z 01004KT 10SM CLR 18/12 A2995 RMK AO2","FM-15","7",,,,,,,,,,,,,,,,,,,,,,,,,,,,
"72493893231","2020-07-09T22:15:00","FM-15","7",,,,,,,,,,,,,,,,,,,,,,,,,,,,,,,,,,,,,,"29.95","52","63",,,,,"68",,"CLR:00","29.94","10.00","57","330",,"3",,,,,,,,,,,,,,,,,,,,,,,,,,,,,,,,,,,,,"MET07307/09/20 22:15:02 METAR KSQL 100615Z 33003KT 10SM CLR 17/11 A2995 RMK AO2","FM-15","7",,,,,,,,,,,,,,,,,,,,,,,,,,,,
"72493893231","2020-07-09T22:35:00","FM-15","7",,,,,,,,,,,,,,,,,,,,,,,,,,,,,,,,,,,,,,"29.96","52","63",,,,,"68",,"CLR:00","29.95","10.00","57","310",,"3",,,,,,,,,,,,,,,,,,,,,,,,,,,,,,,,,,,,,"MET07307/09/20 22:35:02 METAR KSQL 100635Z 31003KT 10SM CLR 17/11 A2996 RMK AO2","FM-15","7",,,,,,,,,,,,,,,,,,,,,,,,,,,,
"72493893231","2020-07-09T22:55:00","FM-15","7",,,,,,,,,,,,,,,,,,,,,,,,,,,,,,,,,,,,,,"29.96","54","63",,,,,"73",,"CLR:00","29.95","10.00","58","000",,"0",,,,,,,,,,,,,,,,,,,,,,,,,,,,,,,,,,,,,"MET07307/09/20 22:55:02 METAR KSQL 100655Z 00000KT 10SM CLR 17/12 A2996 RMK AO2","FM-15","7",,,,,,,,,,,,,,,,,,,,,,,,,,,,
"72493893231","2020-07-09T23:15:00","FM-15","7",,,,,,,,,,,,,,,,,,,,,,,,,,,,,,,,,,,,,,"29.96","52","63",,,,,"68",,"CLR:00","29.95","10.00","57","000",,"0",,,,,,,,,,,,,,,,,,,,,,,,,,,,,,,,,,,,,"MET07307/09/20 23:15:02 METAR KSQL 100715Z 00000KT 10SM CLR 17/11 A2996 RMK AO2","FM-15","7",,,,,,,,,,,,,,,,,,,,,,,,,,,,
"72493893231","2020-07-09T23:35:00","FM-15","7",,,,,,,,,,,,,,,,,,,,,,,,,,,,,,,,,,,,,,"29.96","52","63",,,,,"68",,"CLR:00","29.95","10.00","57","000",,"0",,,,,,,,,,,,,,,,,,,,,,,,,,,,,,,,,,,,,"MET07307/09/20 23:35:02 METAR KSQL 100735Z 00000KT 10SM CLR 17/11 A2996 RMK AO2","FM-15","7",,,,,,,,,,,,,,,,,,,,,,,,,,,,
"72493893231","2020-07-09T23:55:00","FM-15","7",,,,,,,,,,,,,,,,,,,,,,,,,,,,,,,,,,,,,,"29.96","54","61",,,,,"77",,"CLR:00","29.95","10.00","57","000",,"0",,,,,,,,,,,,,,,,,,,,,,,,,,,,,,,,,,,,,"MET07307/09/20 23:55:02 METAR KSQL 100755Z 00000KT 10SM CLR 16/12 A2996 RMK AO2","FM-15","7",,,,,,,,,,,,,,,,,,,,,,,,,,,,
"72493893231","2020-07-10T00:15:00","FM-15","7",,,,,,,,,,,,,,,,,,,,,,,,,,,,,,,,,,,,,,"29.96","54","61",,,,,"77",,"CLR:00","29.95","10.00","57","000",,"0",,,,,,,,,,,,,,,,,,,,,,,,,,,,,,,,,,,,,"MET07307/10/20 00:15:02 METAR KSQL 100815Z 00000KT 10SM CLR 16/12 A2996 RMK AO2","FM-15","7",,,,,,,,,,,,,,,,,,,,,,,,,,,,
"72493893231","2020-07-10T00:35:00","FM-15","7",,,,,,,,,,,,,,,,,,,,,,,,,,,,,,,,,,,,,,"29.96","54","59",,,,,"82",,"CLR:00","29.95","10.00","56","310",,"3",,,,,,,,,,,,,,,,,,,,,,,,,,,,,,,,,,,,,"MET07307/10/20 00:35:02 METAR KSQL 100835Z 31003KT 10SM CLR 15/12 A2996 RMK AO2","FM-15","7",,,,,,,,,,,,,,,,,,,,,,,,,,,,
"72493893231","2020-07-10T00:55:00","FM-15","7",,,,,,,,,,,,,,,,,,,,,,,,,,,,,,,,,,,,,,"29.97","52","59",,,,,"77",,"CLR:00","29.96","10.00","55","000",,"0",,,,,,,,,,,,,,,,,,,,,,,,,,,,,,,,,,,,,"MET07307/10/20 00:55:02 METAR KSQL 100855Z 00000KT 10SM CLR 15/11 A2997 RMK AO2","FM-15","7",,,,,,,,,,,,,,,,,,,,,,,,,,,,
"72493893231","2020-07-10T01:15:00","FM-15","7",,,,,,,,,,,,,,,,,,,,,,,,,,,,,,,,,,,,,,"29.97","54","59",,,,,"82",,"CLR:00","29.96","10.00","56","000",,"0",,,,,,,,,,,,,,,,,,,,,,,,,,,,,,,,,,,,,"MET07307/10/20 01:15:02 METAR KSQL 100915Z 00000KT 10SM CLR 15/12 A2997 RMK AO2","FM-15","7",,,,,,,,,,,,,,,,,,,,,,,,,,,,
"72493893231","2020-07-10T01:35:00","FM-15","7",,,,,,,,,,,,,,,,,,,,,,,,,,,,,,,,,,,,,,"29.97","52","59",,,,,"77",,"CLR:00","29.96","10.00","55","000",,"0",,,,,,,,,,,,,,,,,,,,,,,,,,,,,,,,,,,,,"MET07307/10/20 01:35:02 METAR KSQL 100935Z 00000KT 10SM CLR 15/11 A2997 RMK AO2","FM-15","7",,,,,,,,,,,,,,,,,,,,,,,,,,,,
"72493893231","2020-07-10T01:55:00","FM-15","7",,,,,,,,,,,,,,,,,,,,,,,,,,,,,,,,,,,,,,"29.97","52","59",,,,,"77",,"CLR:00","29.96","10.00","55","310",,"3",,,,,,,,,,,,,,,,,,,,,,,,,,,,,,,,,,,,,"MET07307/10/20 01:55:02 METAR KSQL 100955Z 31003KT 10SM CLR 15/11 A2997 RMK AO2","FM-15","7",,,,,,,,,,,,,,,,,,,,,,,,,,,,
"72493893231","2020-07-10T02:15:00","FM-15","7",,,,,,,,,,,,,,,,,,,,,,,,,,,,,,,,,,,,,,"29.97","50","59",,,,,"72",,"CLR:00","29.96","10.00","54","310",,"3",,,,,,,,,,,,,,,,,,,,,,,,,,,,,,,,,,,,,"MET07307/10/20 02:15:02 METAR KSQL 101015Z 31003KT 10SM CLR 15/10 A2997 RMK AO2","FM-15","7",,,,,,,,,,,,,,,,,,,,,,,,,,,,
"72493893231","2020-07-10T02:35:00","FM-15","7",,,,,,,,,,,,,,,,,,,,,,,,,,,,,,,,,,,,,,"29.97","52","59",,,,,"77",,"CLR:00","29.96","10.00","55","310",,"5",,,,,,,,,,,,,,,,,,,,,,,,,,,,,,,,,,,,,"MET07307/10/20 02:35:02 METAR KSQL 101035Z 31004KT 10SM CLR 15/11 A2997 RMK AO2","FM-15","7",,,,,,,,,,,,,,,,,,,,,,,,,,,,
"72493893231","2020-07-10T02:55:00","FM-15","7",,,,,,,,,,,,,,,,,,,,,,,,,,,,,,,,,,,,,,"29.98","52","57",,,,,"82",,"CLR:00","29.97","10.00","54","320",,"5",,,,,,,,,,,,,,,,,,,,,,,,,,,,,,,,,,,,,"MET07307/10/20 02:55:02 METAR KSQL 101055Z 32004KT 10SM CLR 14/11 A2998 RMK AO2","FM-15","7",,,,,,,,,,,,,,,,,,,,,,,,,,,,
"72493893231","2020-07-10T03:15:00","FM-15","7",,,,,,,,,,,,,,,,,,,,,,,,,,,,,,,,,,,,,,"29.98","52","57",,,,,"82",,"CLR:00","29.97","10.00","54","310",,"6",,,,,,,,,,,,,,,,,,,,,,,,,,,,,,,,,,,,,"MET07307/10/20 03:15:02 METAR KSQL 101115Z 31005KT 10SM CLR 14/11 A2998 RMK AO2","FM-15","7",,,,,,,,,,,,,,,,,,,,,,,,,,,,
"72493893231","2020-07-10T03:35:00","FM-15","7",,,,,,,,,,,,,,,,,,,,,,,,,,,,,,,,,,,,,,"29.98","50","57",,,,,"77",,"CLR:00","29.97","10.00","53","320",,"5",,,,,,,,,,,,,,,,,,,,,,,,,,,,,,,,,,,,,"MET07307/10/20 03:35:02 METAR KSQL 101135Z 32004KT 10SM CLR 14/10 A2998 RMK AO2","FM-15","7",,,,,,,,,,,,,,,,,,,,,,,,,,,,
"72493893231","2020-07-10T03:55:00","FM-15","7",,,,,,,,,,,,,,,,,,,,,,,,,,,,,,,,,,,,,,"29.98","50","55",,,,,"82",,"CLR:00","29.97","10.00","52","310",,"5",,,,,,,,,,,,,,,,,,,,,,,,,,,,,,,,,,,,,"MET07307/10/20 03:55:02 METAR KSQL 101155Z 31004KT 10SM CLR 13/10 A2998 RMK AO2","FM-15","7",,,,,,,,,,,,,,,,,,,,,,,,,,,,
"72493893231","2020-07-10T04:15:00","FM-15","7",,,,,,,,,,,,,,,,,,,,,,,,,,,,,,,,,,,,,,"29.99","50","55",,,,,"82",,"CLR:00","29.98","10.00","52","300",,"3",,,,,,,,,,,,,,,,,,,,,,,,,,,,,,,,,,,,,"MET07307/10/20 04:15:02 METAR KSQL 101215Z 30003KT 10SM CLR 13/10 A2999 RMK AO2","FM-15","7",,,,,,,,,,,,,,,,,,,,,,,,,,,,
"72493893231","2020-07-10T04:35:00","FM-15","7",,,,,,,,,,,,,,,,,,,,,,,,,,,,,,,,,,,,,,"29.99","50","55",,,,,"82",,"CLR:00","29.98","10.00","52","320",,"3",,,,,,,,,,,,,,,,,,,,,,,,,,,,,,,,,,,,,"MET07307/10/20 04:35:02 METAR KSQL 101235Z 32003KT 10SM CLR 13/10 A2999 RMK AO2","FM-15","7",,,,,,,,,,,,,,,,,,,,,,,,,,,,
"72493893231","2020-07-10T04:55:00","FM-15","7",,,,,,,,,,,,,,,,,,,,,,,,,,,,,,,,,,,,,,"30.00","50","55",,,,,"82",,"CLR:00","29.99","10.00","52","310",,"5",,,,,,,,,,,,,,,,,,,,,,,,,,,,,,,,,,,,,"MET07307/10/20 04:55:02 METAR KSQL 101255Z 31004KT 10SM CLR 13/10 A3000 RMK AO2","FM-15","7",,,,,,,,,,,,,,,,,,,,,,,,,,,,
"72493893231","2020-07-10T05:15:00","FM-15","7",,,,,,,,,,,,,,,,,,,,,,,,,,,,,,,,,,,,,,"30.00","50","55",,,,,"82",,"CLR:00","29.99","10.00","52","310",,"6",,,,,,,,,,,,,,,,,,,,,,,,,,,,,,,,,,,,,"MET07307/10/20 05:15:02 METAR KSQL 101315Z 31005KT 10SM CLR 13/10 A3000 RMK AO2","FM-15","7",,,,,,,,,,,,,,,,,,,,,,,,,,,,
"72493893231","2020-07-10T05:35:00","FM-15","7",,,,,,,,,,,,,,,,,,,,,,,,,,,,,,,,,,,,,,"30.01","50","55",,,,,"82",,"CLR:00","30.00","10.00","52","300",,"3",,,,,,,,,,,,,,,,,,,,,,,,,,,,,,,,,,,,,"MET07307/10/20 05:35:02 METAR KSQL 101335Z 30003KT 10SM CLR 13/10 A3001 RMK AO2","FM-15","7",,,,,,,,,,,,,,,,,,,,,,,,,,,,
"72493893231","2020-07-10T05:47:00","FM-15","4",,,,,,,,,,,,,,,,,,,,,,,,,,,,,,,,,,,,,,"30.01","52","55",,,,,"88",,,,"10.00",,"000",,"0",,,,,,,,,,,,,,,,,,,,,,,,,,,,,,,,,,,,,"MET048METAR KSQL 101347Z 00000KT 10SM SKC 13/11 A3001=","FM-15","4",,,,,,,,,,,,,,,,,,,,,,,,,,,,
"72493893231","2020-07-10T05:55:00","FM-15","7",,,,,,,,,,,,,,,,,,,,,,,,,,,,,,,,,,,,,,"30.01","50","55",,,,,"82",,"CLR:00","30.00","10.00","52","000",,"0",,,,,,,,,,,,,,,,,,,,,,,,,,,,,,,,,,,,,"MET07307/10/20 05:55:02 METAR KSQL 101355Z 00000KT 10SM CLR 13/10 A3001 RMK AO2","FM-15","7",,,,,,,,,,,,,,,,,,,,,,,,,,,,
"72493893231","2020-07-10T06:47:00","FM-15","7",,,,,,,,,,,,,,,,,,,,,,,,,,,,,,,,,,,,,,"30.02","52","59",,,,,"77",,"*","30.01","10.00","55","000",,"0",,,,,,,,,,,,,,,,,,,,,,,,,,,,,,,,,,,,,"MET06907/10/20 06:47:02 METAR KSQL 101447Z 00000KT 10SM SKC 15/11 A3002 RMK","FM-15","7",,,,,,,,,,,,,,,,,,,,,,,,,,,,
"72493893231","2020-07-10T07:47:00","FM-15","7",,,,,,,,,,,,,,,,,,,,,,,,,,,,,,,,,,,,,,"30.03","55","63",,,,,"77",,"*","30.02","10.00","58","000",,"0",,,,,,,,,,,,,,,,,,,,,,,,,,,,,,,,,,,,,"MET06907/10/20 07:47:02 METAR KSQL 101547Z 00000KT 10SM SKC 17/13 A3003 RMK","FM-15","7",,,,,,,,,,,,,,,,,,,,,,,,,,,,
"72493893231","2020-07-10T08:47:00","FM-15","7",,,,,,,,,,,,,,,,,,,,,,,,,,,,,,,,,,,,,,"30.03","55","63",,,,,"77",,"FEW:02 10 BKN:07 120","30.02","10.00","58","360",,"8",,,,,,,,,,,,,,,,,,,,,,,,,,,,,,,,,,,,,"MET07907/10/20 08:47:02 METAR KSQL 101647Z 36007KT 10SM FEW010 BKN120 17/13 A3003 RMK","FM-15","7",,,,,,,,,,,,,,,,,,,,,,,,,,,,
"72493893231","2020-07-10T09:47:00","FM-15","7",,,,,,,,,,,,,,,,,,,,,,,,,,,,,,,,,,,,,,"30.04","55","64",,,,,"73",,"BKN:07 120","30.03","10.00","59","010",,"8",,,,,,,,,,,,,,,,,,,,,,,,,,,,,,,,,,,,,"MET07207/10/20 09:47:02 METAR KSQL 101747Z 01007KT 10SM BKN120 18/13 A3004 RMK","FM-15","7",,,,,,,,,,,,,,,,,,,,,,,,,,,,
"72493893231","2020-07-10T10:47:00","FM-15","7",,,,,,,,,,,,,,,,,,,,,,,,,,,,,,,,,,,,,,"30.02","55","68",,,,,"64",,"BKN:07 120","30.01","10.00","60","VRB",,"3",,,,,,,,,,,,,,,,,,,,,,,,,,,,,,,,,,,,,"MET07207/10/20 10:47:02 METAR KSQL 101847Z VRB03KT 10SM BKN120 20/13 A3002 RMK","FM-15","7",,,,,,,,,,,,,,,,,,,,,,,,,,,,
"72493893231","2020-07-10T11:47:00","FM-15","7",,,,,,,,,,,,,,,,,,,,,,,,,,,,,,,,,,,,,,"30.02","55","72",,,,,"57",,"BKN:07 120","30.01","10.00","62","350",,"9",,,,,,,,,,,,,,,,,,,,,,,,,,,,,,,,,,,,,"MET07207/10/20 11:47:02 METAR KSQL 101947Z 35008KT 10SM BKN120 22/13 A3002 RMK","FM-15","7",,,,,,,,,,,,,,,,,,,,,,,,,,,,
"72493893231","2020-07-10T12:47:00","FM-15","7",,,,,,,,,,,,,,,,,,,,,,,,,,,,,,,,,,,,,,"30.02","54","73",,,,,"50",,"BKN:07 120","30.01","10.00","62","320",,"6",,,,,,,,,,,,,,,,,,,,,,,,,,,,,,,,,,,,,"MET07207/10/20 12:47:02 METAR KSQL 102047Z 32005KT 10SM BKN120 23/12 A3002 RMK","FM-15","7",,,,,,,,,,,,,,,,,,,,,,,,,,,,
"72493893231","2020-07-10T13:47:00","FM-15","7",,,,,,,,,,,,,,,,,,,,,,,,,,,,,,,,,,,,,,"30.00","55","81",,,,,"42",,"BKN:07 120","29.99","10.00","65","320",,"11",,,,,,,,,,,,,,,,,,,,,,,,,,,,,,,,,,,,,"MET07507/10/20 13:47:02 METAR KSQL 102147Z 32010KT 10SM BKN120 27/13 A3000 RMK DA","FM-15","7",,,,,,,,,,,,,,,,,,,,,,,,,,,,
"72493893231","2020-07-10T14:47:00","FM-15","7",,,,,,,,,,,,,,,,,,,,,,,,,,,,,,,,,,,,,,"29.99","54","82",,,,,"37",,"BKN:07 120","29.98","10.00","65","250",,"8",,,,,,,,,,,,,,,,,,,,,,,,,,,,,,,,,,,,,"MET07507/10/20 14:47:02 METAR KSQL 102247Z 25007KT 10SM BKN120 28/12 A2999 RMK DA","FM-15","7",,,,,,,,,,,,,,,,,,,,,,,,,,,,
"72493893231","2020-07-10T15:47:00","FM-15","7",,,,,,,,,,,,,,,,,,,,,,,,,,,,,,,,,,,,,,"29.99","50","82",,,,,"32",,"BKN:07 120","29.98","10.00","63","250",,"10",,,,,,,,,,,,,,,,,,,,,,,,,,,,,,,,,,,,,"MET07207/10/20 15:47:02 METAR KSQL 102347Z 25009KT 10SM BKN120 28/10 A2999 RMK","FM-15","7",,,,,,,,,,,,,,,,,,,,,,,,,,,,
"72493893231","2020-07-10T16:47:00","FM-15","7",,,,,,,,,,,,,,,,,,,,,,,,,,,,,,,,,,,,,,"29.98","54","81",,,,,"39",,"BKN:07 120","29.97","10.00","65","300",,"7",,,,,,,,,,,,,,,,,,,,,,,,,,,,,,,,,,,,,"MET07207/10/20 16:47:01 METAR KSQL 110047Z 30006KT 10SM BKN120 27/12 A2998 RMK","FM-15","7",,,,,,,,,,,,,,,,,,,,,,,,,,,,
"72493893231","2020-07-10T17:47:00","FM-15","7",,,,,,,,,,,,,,,,,,,,,,,,,,,,,,,,,,,,,,"29.98","50","77",,,,,"39",,"BKN:07 120","29.97","10.00","62","290",,"10",,,,,,,,,,,,,,,,,,,,,,,,,,,,,,,,,,,,,"MET07207/10/20 17:47:01 METAR KSQL 110147Z 29009KT 10SM BKN120 25/10 A2998 RMK","FM-15","7",,,,,,,,,,,,,,,,,,,,,,,,,,,,
"72493893231","2020-07-10T18:47:00","FM-15","7",,,,,,,,,,,,,,,,,,,,,,,,,,,,,,,,,,,,,,"29.98","50","77",,,,,"39",,"BKN:07 120","29.97","10.00","62","270",,"7",,,,,,,,,,,,,,,,,,,,,,,,,,,,,,,,,,,,,"MET07207/10/20 18:47:01 METAR KSQL 110247Z 27006KT 10SM BKN120 25/10 A2998 RMK","FM-15","7",,,,,,,,,,,,,,,,,,,,,,,,,,,,
"72493893231","2020-07-10T19:47:00","FM-15","7",,,,,,,,,,,,,,,,,,,,,,,,,,,,,,,,,,,,,,"29.98","55","68",,,,,"64",,"BKN:07 120","29.97","10.00","60","340",,"6",,,,,,,,,,,,,,,,,,,,,,,,,,,,,,,,,,,,,"MET07707/10/20 19:47:02 METAR KSQL 110347Z 34005KT 10SM BKN120 20/13 A2998 RMK LAST","FM-15","7",,,,,,,,,,,,,,,,,,,,,,,,,,,,
"72493893231","2020-07-10T20:15:00","FM-15","7",,,,,,,,,,,,,,,,,,,,,,,,,,,,,,,,,,,,,,"29.98","54","66",,,,,"64",,"CLR:00","29.97","10.00","59","360",,"5",,,,,,,,,,,,,,,,,,,,,,,,,,,,,,,,,,,,,"MET07307/10/20 20:15:02 METAR KSQL 110415Z 36004KT 10SM CLR 19/12 A2998 RMK AO2","FM-15","7",,,,,,,,,,,,,,,,,,,,,,,,,,,,
"72493893231","2020-07-10T20:20:00","FM-15","7",,,,,,,,,,,,,,,,,,,,,,,,,,,,,,,,,,,,,,"29.98","54","66",,,,,"64",,"CLR:00","29.97","10.00","59","020",,"6",,,,,,,,,,,,,,,,,,,,,,,,,,,,,,,,,,,,,"MET07307/10/20 20:20:02 METAR KSQL 110420Z 02005KT 10SM CLR 19/12 A2998 RMK AO2","FM-15","7",,,,,,,,,,,,,,,,,,,,,,,,,,,,
"72493893231","2020-07-10T20:35:00","FM-15","7",,,,,,,,,,,,,,,,,,,,,,,,,,,,,,,,,,,,,,"29.99","55","66",,,,,"68",,"CLR:00","29.98","10.00","60","020",,"5",,,,,,,,,,,,,,,,,,,,,,,,,,,,,,,,,,,,,"MET07307/10/20 20:35:02 METAR KSQL 110435Z 02004KT 10SM CLR 19/13 A2999 RMK AO2","FM-15","7",,,,,,,,,,,,,,,,,,,,,,,,,,,,
"72493893231","2020-07-10T20:40:00","FM-15","7",,,,,,,,,,,,,,,,,,,,,,,,,,,,,,,,,,,,,,"29.99","55","66",,,,,"68",,"CLR:00","29.98","10.00","60","020",,"5",,,,,,,,,,,,,,,,,,,,,,,,,,,,,,,,,,,,,"MET07307/10/20 20:40:02 METAR KSQL 110440Z 02004KT 10SM CLR 19/13 A2999 RMK AO2","FM-15","7",,,,,,,,,,,,,,,,,,,,,,,,,,,,
"72493893231","2020-07-10T20:55:00","FM-15","7",,,,,,,,,,,,,,,,,,,,,,,,,,,,,,,,,,,,,,"30.00","54","64",,,,,"68",,"CLR:00","29.99","10.00","58","010",,"3",,,,,,,,,,,,,,,,,,,,,,,,,,,,,,,,,,,,,"MET07307/10/20 20:55:02 METAR KSQL 110455Z 01003KT 10SM CLR 18/12 A3000 RMK AO2","FM-15","7",,,,,,,,,,,,,,,,,,,,,,,,,,,,
"72493893231","2020-07-10T21:00:00","FM-15","4",,,,,,,,,,,,,,,,,,,,,,,,,,,,,,,,,,,,,,"29.99","54","64",,,,,"68",,,,"10.00",,"360",,"3",,,,,,,,,,,,,,,,,,,,,,,,,,,,,,,,,,,,,"MET061METAR KSQL 110500Z AUTO 36003KT 10SM CLR 18/12 A2999 RMK AO2=","FM-15","4",,,,,,,,,,,,,,,,,,,,,,,,,,,,
"72493893231","2020-07-10T21:15:00","FM-15","7",,,,,,,,,,,,,,,,,,,,,,,,,,,,,,,,,,,,,,"30.00","55","64",,,,,"73",,"CLR:00","29.99","10.00","59","010",,"3",,,,,,,,,,,,,,,,,,,,,,,,,,,,,,,,,,,,,"MET07307/10/20 21:15:02 METAR KSQL 110515Z 01003KT 10SM CLR 18/13 A3000 RMK AO2","FM-15","7",,,,,,,,,,,,,,,,,,,,,,,,,,,,
"72493893231","2020-07-10T21:20:00","FM-15","7",,,,,,,,,,,,,,,,,,,,,,,,,,,,,,,,,,,,,,"30.00","55","64",,,,,"73",,"CLR:00","29.99","10.00","59","000",,"0",,,,,,,,,,,,,,,,,,,,,,,,,,,,,,,,,,,,,"MET07307/10/20 21:20:02 METAR KSQL 110520Z 00000KT 10SM CLR 18/13 A3000 RMK AO2","FM-15","7",,,,,,,,,,,,,,,,,,,,,,,,,,,,
"72493893231","2020-07-10T21:35:00","FM-15","7",,,,,,,,,,,,,,,,,,,,,,,,,,,,,,,,,,,,,,"30.00","55","64",,,,,"73",,"CLR:00","29.99","10.00","59","010",,"3",,,,,,,,,,,,,,,,,,,,,,,,,,,,,,,,,,,,,"MET07307/10/20 21:35:02 METAR KSQL 110535Z 01003KT 10SM CLR 18/13 A3000 RMK AO2","FM-15","7",,,,,,,,,,,,,,,,,,,,,,,,,,,,
"72493893231","2020-07-10T21:40:00","FM-15","7",,,,,,,,,,,,,,,,,,,,,,,,,,,,,,,,,,,,,,"30.00","55","64",,,,,"73",,"CLR:00","29.99","10.00","59","020",,"3",,,,,,,,,,,,,,,,,,,,,,,,,,,,,,,,,,,,,"MET07307/10/20 21:40:02 METAR KSQL 110540Z 02003KT 10SM CLR 18/13 A3000 RMK AO2","FM-15","7",,,,,,,,,,,,,,,,,,,,,,,,,,,,
"72493893231","2020-07-10T21:55:00","FM-15","7",,,,,,,,,,,,,,,,,,,,,,,,,,,,,,,,,,,,,,"30.00","54","64",,,,,"68",,"CLR:00","29.99","10.00","58","000",,"0",,,,,,,,,,,,,,,,,,,,,,,,,,,,,,,,,,,,,"MET07307/10/20 21:55:02 METAR KSQL 110555Z 00000KT 10SM CLR 18/12 A3000 RMK AO2","FM-15","7",,,,,,,,,,,,,,,,,,,,,,,,,,,,
"72493893231","2020-07-10T22:00:00","FM-15","4",,,,,,,,,,,,,,,,,,,,,,,,,,,,,,,,,,,,,,"30.00","54","63",,,,,"73",,,,"10.00",,"360",,"3",,,,,,,,,,,,,,,,,,,,,,,,,,,,,,,,,,,,,"MET061METAR KSQL 110600Z AUTO 36003KT 10SM CLR 17/12 A3000 RMK AO2=","FM-15","4",,,,,,,,,,,,,,,,,,,,,,,,,,,,
"72493893231","2020-07-10T22:15:00","FM-15","7",,,,,,,,,,,,,,,,,,,,,,,,,,,,,,,,,,,,,,"30.00","54","63",,,,,"73",,"CLR:00","29.99","10.00","58","360",,"3",,,,,,,,,,,,,,,,,,,,,,,,,,,,,,,,,,,,,"MET07307/10/20 22:15:02 METAR KSQL 110615Z 36003KT 10SM CLR 17/12 A3000 RMK AO2","FM-15","7",,,,,,,,,,,,,,,,,,,,,,,,,,,,
"72493893231","2020-07-10T22:20:00","FM-15","7",,,,,,,,,,,,,,,,,,,,,,,,,,,,,,,,,,,,,,"30.00","54","63",,,,,"73",,"CLR:00","29.99","10.00","58","360",,"3",,,,,,,,,,,,,,,,,,,,,,,,,,,,,,,,,,,,,"MET07307/10/20 22:20:02 METAR KSQL 110620Z 36003KT 10SM CLR 17/12 A3000 RMK AO2","FM-15","7",,,,,,,,,,,,,,,,,,,,,,,,,,,,
"72493893231","2020-07-10T22:35:00","FM-15","7",,,,,,,,,,,,,,,,,,,,,,,,,,,,,,,,,,,,,,"30.00","54","63",,,,,"73",,"CLR:00","29.99","10.00","58","000",,"0",,,,,,,,,,,,,,,,,,,,,,,,,,,,,,,,,,,,,"MET07307/10/20 22:35:02 METAR KSQL 110635Z 00000KT 10SM CLR 17/12 A3000 RMK AO2","FM-15","7",,,,,,,,,,,,,,,,,,,,,,,,,,,,
"72493893231","2020-07-10T22:40:00","FM-15","7",,,,,,,,,,,,,,,,,,,,,,,,,,,,,,,,,,,,,,"30.00","54","63",,,,,"73",,"CLR:00","29.99","10.00","58","320",,"3",,,,,,,,,,,,,,,,,,,,,,,,,,,,,,,,,,,,,"MET07307/10/20 22:40:02 METAR KSQL 110640Z 32003KT 10SM CLR 17/12 A3000 RMK AO2","FM-15","7",,,,,,,,,,,,,,,,,,,,,,,,,,,,
"72493893231","2020-07-10T22:55:00","FM-15","7",,,,,,,,,,,,,,,,,,,,,,,,,,,,,,,,,,,,,,"30.00","54","63",,,,,"73",,"CLR:00","29.99","10.00","58","310",,"3",,,,,,,,,,,,,,,,,,,,,,,,,,,,,,,,,,,,,"MET07307/10/20 22:55:02 METAR KSQL 110655Z 31003KT 10SM CLR 17/12 A3000 RMK AO2","FM-15","7",,,,,,,,,,,,,,,,,,,,,,,,,,,,
"72493893231","2020-07-10T23:00:00","FM-15","4",,,,,,,,,,,,,,,,,,,,,,,,,,,,,,,,,,,,,,"30.00","54","63",,,,,"73",,,,"10.00",,"360",,"3",,,,,,,,,,,,,,,,,,,,,,,,,,,,,,,,,,,,,"MET061METAR KSQL 110700Z AUTO 36003KT 10SM CLR 17/12 A3000 RMK AO2=","FM-15","4",,,,,,,,,,,,,,,,,,,,,,,,,,,,
"72493893231","2020-07-10T23:15:00","FM-15","7",,,,,,,,,,,,,,,,,,,,,,,,,,,,,,,,,,,,,,"30.00","54","61",,,,,"77",,"CLR:00","29.99","10.00","57","360",,"3",,,,,,,,,,,,,,,,,,,,,,,,,,,,,,,,,,,,,"MET07307/10/20 23:15:02 METAR KSQL 110715Z 36003KT 10SM CLR 16/12 A3000 RMK AO2","FM-15","7",,,,,,,,,,,,,,,,,,,,,,,,,,,,
"72493893231","2020-07-10T23:20:00","FM-15","7",,,,,,,,,,,,,,,,,,,,,,,,,,,,,,,,,,,,,,"30.00","54","61",,,,,"77",,"CLR:00","29.99","10.00","57","000",,"0",,,,,,,,,,,,,,,,,,,,,,,,,,,,,,,,,,,,,"MET07307/10/20 23:20:02 METAR KSQL 110720Z 00000KT 10SM CLR 16/12 A3000 RMK AO2","FM-15","7",,,,,,,,,,,,,,,,,,,,,,,,,,,,
"72493893231","2020-07-10T23:35:00","FM-15","7",,,,,,,,,,,,,,,,,,,,,,,,,,,,,,,,,,,,,,"30.00","54","61",,,,,"77",,"CLR:00","29.99","10.00","57","000",,"0",,,,,,,,,,,,,,,,,,,,,,,,,,,,,,,,,,,,,"MET07307/10/20 23:35:02 METAR KSQL 110735Z 00000KT 10SM CLR 16/12 A3000 RMK AO2","FM-15","7",,,,,,,,,,,,,,,,,,,,,,,,,,,,
"72493893231","2020-07-10T23:40:00","FM-15","7",,,,,,,,,,,,,,,,,,,,,,,,,,,,,,,,,,,,,,"30.00","54","61",,,,,"77",,"CLR:00","29.99","10.00","57","320",,"3",,,,,,,,,,,,,,,,,,,,,,,,,,,,,,,,,,,,,"MET07307/10/20 23:40:02 METAR KSQL 110740Z 32003KT 10SM CLR 16/12 A3000 RMK AO2","FM-15","7",,,,,,,,,,,,,,,,,,,,,,,,,,,,
"72493893231","2020-07-10T23:55:00","FM-15","7",,,,,,,,,,,,,,,,,,,,,,,,,,,,,,,,,,,,,,"29.99","54","59",,,,,"82",,"CLR:00","29.98","10.00","56","310",,"3",,,,,,,,,,,,,,,,,,,,,,,,,,,,,,,,,,,,,"MET07307/10/20 23:55:02 METAR KSQL 110755Z 31003KT 10SM CLR 15/12 A2999 RMK AO2","FM-15","7",,,,,,,,,,,,,,,,,,,,,,,,,,,,
"72493893231","2020-07-11T00:00:00","FM-15","4",,,,,,,,,,,,,,,,,,,,,,,,,,,,,,,,,,,,,,"29.99","54","59",,,,,"82",,,,"10.00",,"310",,"5",,,,,,,,,,,,,,,,,,,,,,,,,,,,,,,,,,,,,"MET061METAR KSQL 110800Z AUTO 31004KT 10SM CLR 15/12 A2999 RMK AO2=","FM-15","4",,,,,,,,,,,,,,,,,,,,,,,,,,,,
"72493893231","2020-07-11T00:15:00","FM-15","7",,,,,,,,,,,,,,,,,,,,,,,,,,,,,,,,,,,,,,"30.00","52","59",,,,,"77",,"CLR:00","29.99","10.00","55","320",,"5",,,,,,,,,,,,,,,,,,,,,,,,,,,,,,,,,,,,,"MET07307/11/20 00:15:02 METAR KSQL 110815Z 32004KT 10SM CLR 15/11 A3000 RMK AO2","FM-15","7",,,,,,,,,,,,,,,,,,,,,,,,,,,,
"72493893231","2020-07-11T00:20:00","FM-15","7",,,,,,,,,,,,,,,,,,,,,,,,,,,,,,,,,,,,,,"29.99","52","59",,,,,"77",,"CLR:00","29.98","10.00","55","310",,"5",,,,,,,,,,,,,,,,,,,,,,,,,,,,,,,,,,,,,"MET07307/11/20 00:20:02 METAR KSQL 110820Z 31004KT 10SM CLR 15/11 A2999 RMK AO2","FM-15","7",,,,,,,,,,,,,,,,,,,,,,,,,,,,
"72493893231","2020-07-11T00:35:00","FM-15","7",,,,,,,,,,,,,,,,,,,,,,,,,,,,,,,,,,,,,,"29.99","52","59",,,,,"77",,"CLR:00","29.98","10.00","55","320",,"6",,,,,,,,,,,,,,,,,,,,,,,,,,,,,,,,,,,,,"MET07307/11/20 00:35:02 METAR KSQL 110835Z 32005KT 10SM CLR 15/11 A2999 RMK AO2","FM-15","7",,,,,,,,,,,,,,,,,,,,,,,,,,,,
"72493893231","2020-07-11T00:40:00","FM-15","7",,,,,,,,,,,,,,,,,,,,,,,,,,,,,,,,,,,,,,"29.99","52","59",,,,,"77",,"CLR:00","29.98","10.00","55","310",,"5",,,,,,,,,,,,,,,,,,,,,,,,,,,,,,,,,,,,,"MET07307/11/20 00:40:02 METAR KSQL 110840Z 31004KT 10SM CLR 15/11 A2999 RMK AO2","FM-15","7",,,,,,,,,,,,,,,,,,,,,,,,,,,,
"72493893231","2020-07-11T00:55:00","FM-15","7",,,,,,,,,,,,,,,,,,,,,,,,,,,,,,,,,,,,,,"29.99","52","59",,,,,"77",,"CLR:00","29.98","10.00","55","320",,"5",,,,,,,,,,,,,,,,,,,,,,,,,,,,,,,,,,,,,"MET07307/11/20 00:55:02 METAR KSQL 110855Z 32004KT 10SM CLR 15/11 A2999 RMK AO2","FM-15","7",,,,,,,,,,,,,,,,,,,,,,,,,,,,
"72493893231","2020-07-11T01:00:00","FM-15","4",,,,,,,,,,,,,,,,,,,,,,,,,,,,,,,,,,,,,,"29.99","52","59",,,,,"77",,,,"10.00",,"320",,"3",,,,,,,,,,,,,,,,,,,,,,,,,,,,,,,,,,,,,"MET061METAR KSQL 110900Z AUTO 32003KT 10SM CLR 15/11 A2999 RMK AO2=","FM-15","4",,,,,,,,,,,,,,,,,,,,,,,,,,,,
"72493893231","2020-07-11T01:15:00","FM-15","7",,,,,,,,,,,,,,,,,,,,,,,,,,,,,,,,,,,,,,"29.99","52","59",,,,,"77",,"CLR:00","29.98","10.00","55","000",,"0",,,,,,,,,,,,,,,,,,,,,,,,,,,,,,,,,,,,,"MET07307/11/20 01:15:02 METAR KSQL 110915Z 00000KT 10SM CLR 15/11 A2999 RMK AO2","FM-15","7",,,,,,,,,,,,,,,,,,,,,,,,,,,,
"72493893231","2020-07-11T01:20:00","FM-15","7",,,,,,,,,,,,,,,,,,,,,,,,,,,,,,,,,,,,,,"29.98","50","59",,,,,"72",,"CLR:00","29.97","10.00","54","000",,"0",,,,,,,,,,,,,,,,,,,,,,,,,,,,,,,,,,,,,"MET07307/11/20 01:20:02 METAR KSQL 110920Z 00000KT 10SM CLR 15/10 A2998 RMK AO2","FM-15","7",,,,,,,,,,,,,,,,,,,,,,,,,,,,
"72493893231","2020-07-11T01:35:00","FM-15","7",,,,,,,,,,,,,,,,,,,,,,,,,,,,,,,,,,,,,,"29.98","50","59",,,,,"72",,"CLR:00","29.97","10.00","54","300",,"3",,,,,,,,,,,,,,,,,,,,,,,,,,,,,,,,,,,,,"MET07307/11/20 01:35:02 METAR KSQL 110935Z 30003KT 10SM CLR 15/10 A2998 RMK AO2","FM-15","7",,,,,,,,,,,,,,,,,,,,,,,,,,,,
"72493893231","2020-07-11T01:40:00","FM-15","7",,,,,,,,,,,,,,,,,,,,,,,,,,,,,,,,,,,,,,"29.98","50","59",,,,,"72",,"CLR:00","29.97","10.00","54","000",,"0",,,,,,,,,,,,,,,,,,,,,,,,,,,,,,,,,,,,,"MET07307/11/20 01:40:02 METAR KSQL 110940Z 00000KT 10SM CLR 15/10 A2998 RMK AO2","FM-15","7",,,,,,,,,,,,,,,,,,,,,,,,,,,,
"72493893231","2020-07-11T01:55:00","FM-15","7",,,,,,,,,,,,,,,,,,,,,,,,,,,,,,,,,,,,,,"29.98","50","59",,,,,"72",,"CLR:00","29.97","10.00","54","310",,"3",,,,,,,,,,,,,,,,,,,,,,,,,,,,,,,,,,,,,"MET07307/11/20 01:55:02 METAR KSQL 110955Z 31003KT 10SM CLR 15/10 A2998 RMK AO2","FM-15","7",,,,,,,,,,,,,,,,,,,,,,,,,,,,
"72493893231","2020-07-11T02:00:00","FM-15","4",,,,,,,,,,,,,,,,,,,,,,,,,,,,,,,,,,,,,,"29.98","50","59",,,,,"72",,,,"10.00",,"300",,"3",,,,,,,,,,,,,,,,,,,,,,,,,,,,,,,,,,,,,"MET061METAR KSQL 111000Z AUTO 30003KT 10SM CLR 15/10 A2998 RMK AO2=","FM-15","4",,,,,,,,,,,,,,,,,,,,,,,,,,,,
"72493893231","2020-07-11T02:15:00","FM-15","7",,,,,,,,,,,,,,,,,,,,,,,,,,,,,,,,,,,,,,"29.98","50","57",,,,,"77",,"CLR:00","29.97","10.00","53","310",,"3",,,,,,,,,,,,,,,,,,,,,,,,,,,,,,,,,,,,,"MET07307/11/20 02:15:02 METAR KSQL 111015Z 31003KT 10SM CLR 14/10 A2998 RMK AO2","FM-15","7",,,,,,,,,,,,,,,,,,,,,,,,,,,,
"72493893231","2020-07-11T02:20:00","FM-15","7",,,,,,,,,,,,,,,,,,,,,,,,,,,,,,,,,,,,,,"29.97","50","57",,,,,"77",,"CLR:00","29.96","10.00","53","310",,"3",,,,,,,,,,,,,,,,,,,,,,,,,,,,,,,,,,,,,"MET07307/11/20 02:20:02 METAR KSQL 111020Z 31003KT 10SM CLR 14/10 A2997 RMK AO2","FM-15","7",,,,,,,,,,,,,,,,,,,,,,,,,,,,
"72493893231","2020-07-11T02:35:00","FM-15","7",,,,,,,,,,,,,,,,,,,,,,,,,,,,,,,,,,,,,,"29.98","50","57",,,,,"77",,"CLR:00","29.97","10.00","53","000",,"0",,,,,,,,,,,,,,,,,,,,,,,,,,,,,,,,,,,,,"MET07307/11/20 02:35:02 METAR KSQL 111035Z 00000KT 10SM CLR 14/10 A2998 RMK AO2","FM-15","7",,,,,,,,,,,,,,,,,,,,,,,,,,,,
"72493893231","2020-07-11T02:40:00","FM-15","7",,,,,,,,,,,,,,,,,,,,,,,,,,,,,,,,,,,,,,"29.98","50","57",,,,,"77",,"CLR:00","29.97","10.00","53","000",,"0",,,,,,,,,,,,,,,,,,,,,,,,,,,,,,,,,,,,,"MET07307/11/20 02:40:02 METAR KSQL 111040Z 00000KT 10SM CLR 14/10 A2998 RMK AO2","FM-15","7",,,,,,,,,,,,,,,,,,,,,,,,,,,,
"72493893231","2020-07-11T02:55:00","FM-15","7",,,,,,,,,,,,,,,,,,,,,,,,,,,,,,,,,,,,,,"29.98","50","57",,,,,"77",,"CLR:00","29.97","10.00","53","000",,"0",,,,,,,,,,,,,,,,,,,,,,,,,,,,,,,,,,,,,"MET07307/11/20 02:55:02 METAR KSQL 111055Z 00000KT 10SM CLR 14/10 A2998 RMK AO2","FM-15","7",,,,,,,,,,,,,,,,,,,,,,,,,,,,
"72493893231","2020-07-11T03:00:00","FM-15","4",,,,,,,,,,,,,,,,,,,,,,,,,,,,,,,,,,,,,,"29.98","50","57",,,,,"77",,,,"10.00",,"000",,"0",,,,,,,,,,,,,,,,,,,,,,,,,,,,,,,,,,,,,"MET061METAR KSQL 111100Z AUTO 00000KT 10SM CLR 14/10 A2998 RMK AO2=","FM-15","4",,,,,,,,,,,,,,,,,,,,,,,,,,,,
"72493893231","2020-07-11T03:15:00","FM-15","7",,,,,,,,,,,,,,,,,,,,,,,,,,,,,,,,,,,,,,"29.98","50","57",,,,,"77",,"CLR:00","29.97","10.00","53","280",,"3",,,,,,,,,,,,,,,,,,,,,,,,,,,,,,,,,,,,,"MET07307/11/20 03:15:02 METAR KSQL 111115Z 28003KT 10SM CLR 14/10 A2998 RMK AO2","FM-15","7",,,,,,,,,,,,,,,,,,,,,,,,,,,,
"72493893231","2020-07-11T03:20:00","FM-15","7",,,,,,,,,,,,,,,,,,,,,,,,,,,,,,,,,,,,,,"29.98","50","57",,,,,"77",,"CLR:00","29.97","10.00","53","000",,"0",,,,,,,,,,,,,,,,,,,,,,,,,,,,,,,,,,,,,"MET07307/11/20 03:20:02 METAR KSQL 111120Z 00000KT 10SM CLR 14/10 A2998 RMK AO2","FM-15","7",,,,,,,,,,,,,,,,,,,,,,,,,,,,
"72493893231","2020-07-11T03:35:00","FM-15","7",,,,,,,,,,,,,,,,,,,,,,,,,,,,,,,,,,,,,,"29.98","50","57",,,,,"77",,"CLR:00","29.97","10.00","53","000",,"0",,,,,,,,,,,,,,,,,,,,,,,,,,,,,,,,,,,,,"MET07307/11/20 03:35:02 METAR KSQL 111135Z 00000KT 10SM CLR 14/10 A2998 RMK AO2","FM-15","7",,,,,,,,,,,,,,,,,,,,,,,,,,,,
"72493893231","2020-07-11T03:40:00","FM-15","7",,,,,,,,,,,,,,,,,,,,,,,,,,,,,,,,,,,,,,"29.98","50","57",,,,,"77",,"CLR:00","29.97","10.00","53","000",,"0",,,,,,,,,,,,,,,,,,,,,,,,,,,,,,,,,,,,,"MET07307/11/20 03:40:02 METAR KSQL 111140Z 00000KT 10SM CLR 14/10 A2998 RMK AO2","FM-15","7",,,,,,,,,,,,,,,,,,,,,,,,,,,,
"72493893231","2020-07-11T03:55:00","FM-15","7",,,,,,,,,,,,,,,,,,,,,,,,,,,,,,,,,,,,,,"29.98","50","57",,,,,"77",,"CLR:00","29.97","10.00","53","000",,"0",,,,,,,,,,,,,,,,,,,,,,,,,,,,,,,,,,,,,"MET07307/11/20 03:55:02 METAR KSQL 111155Z 00000KT 10SM CLR 14/10 A2998 RMK AO2","FM-15","7",,,,,,,,,,,,,,,,,,,,,,,,,,,,
"72493893231","2020-07-11T04:00:00","FM-15","4",,,,,,,,,,,,,,,,,,,,,,,,,,,,,,,,,,,,,,"29.99","50","57",,,,,"77",,,,"10.00",,"000",,"0",,,,,,,,,,,,,,,,,,,,,,,,,,,,,,,,,,,,,"MET061METAR KSQL 111200Z AUTO 00000KT 10SM CLR 14/10 A2999 RMK AO2=","FM-15","4",,,,,,,,,,,,,,,,,,,,,,,,,,,,
"72493893231","2020-07-11T04:15:00","FM-15","7",,,,,,,,,,,,,,,,,,,,,,,,,,,,,,,,,,,,,,"29.99","50","57",,,,,"77",,"CLR:00","29.98","10.00","53","000",,"0",,,,,,,,,,,,,,,,,,,,,,,,,,,,,,,,,,,,,"MET07307/11/20 04:15:02 METAR KSQL 111215Z 00000KT 10SM CLR 14/10 A2999 RMK AO2","FM-15","7",,,,,,,,,,,,,,,,,,,,,,,,,,,,
"72493893231","2020-07-11T04:20:00","FM-15","7",,,,,,,,,,,,,,,,,,,,,,,,,,,,,,,,,,,,,,"29.99","50","57",,,,,"77",,"CLR:00","29.98","10.00","53","000",,"0",,,,,,,,,,,,,,,,,,,,,,,,,,,,,,,,,,,,,"MET07307/11/20 04:20:02 METAR KSQL 111220Z 00000KT 10SM CLR 14/10 A2999 RMK AO2","FM-15","7",,,,,,,,,,,,,,,,,,,,,,,,,,,,
"72493893231","2020-07-11T04:35:00","FM-15","7",,,,,,,,,,,,,,,,,,,,,,,,,,,,,,,,,,,,,,"30.00","50","57",,,,,"77",,"CLR:00","29.99","10.00","53","000",,"0",,,,,,,,,,,,,,,,,,,,,,,,,,,,,,,,,,,,,"MET07307/11/20 04:35:02 METAR KSQL 111235Z 00000KT 10SM CLR 14/10 A3000 RMK AO2","FM-15","7",,,,,,,,,,,,,,,,,,,,,,,,,,,,
"72493893231","2020-07-11T04:40:00","FM-15","7",,,,,,,,,,,,,,,,,,,,,,,,,,,,,,,,,,,,,,"30.00","50","57",,,,,"77",,"CLR:00","29.99","10.00","53","000",,"0",,,,,,,,,,,,,,,,,,,,,,,,,,,,,,,,,,,,,"MET07307/11/20 04:40:02 METAR KSQL 111240Z 00000KT 10SM CLR 14/10 A3000 RMK AO2","FM-15","7",,,,,,,,,,,,,,,,,,,,,,,,,,,,
"72493893231","2020-07-11T04:55:00","FM-15","7",,,,,,,,,,,,,,,,,,,,,,,,,,,,,,,,,,,,,,"30.00","50","57",,,,,"77",,"CLR:00","29.99","9.00","53","000",,"0",,,,,,,,,,,,,,,,,,,,,,,,,,,,,,,,,,,,,"MET07207/11/20 04:55:02 METAR KSQL 111255Z 00000KT 9SM CLR 14/10 A3000 RMK AO2","FM-15","7",,,,,,,,,,,,,,,,,,,,,,,,,,,,
"72493893231","2020-07-11T05:00:00","FM-15","4",,,,,,,,,,,,,,,,,,,,,,,,,,,,,,,,,,,,,,"30.00","52","57",,,,,"82",,,,"10.00",,"000",,"0",,,,,,,,,,,,,,,,,,,,,,,,,,,,,,,,,,,,,"MET061METAR KSQL 111300Z AUTO 00000KT 10SM CLR 14/11 A3000 RMK AO2=","FM-15","4",,,,,,,,,,,,,,,,,,,,,,,,,,,,
"72493893231","2020-07-11T05:15:00","FM-15","7",,,,,,,,,,,,,,,,,,,,,,,,,,,,,,,,,,,,,,"30.01","52","57",,,,,"82",,"CLR:00","30.00","10.00","54","000",,"0",,,,,,,,,,,,,,,,,,,,,,,,,,,,,,,,,,,,,"MET07307/11/20 05:15:02 METAR KSQL 111315Z 00000KT 10SM CLR 14/11 A3001 RMK AO2","FM-15","7",,,,,,,,,,,,,,,,,,,,,,,,,,,,
"72493893231","2020-07-11T05:20:00","FM-15","7",,,,,,,,,,,,,,,,,,,,,,,,,,,,,,,,,,,,,,"30.01","52","57",,,,,"82",,"CLR:00","30.00","9.00","54","000",,"0",,,,,,,,,,,,,,,,,,,,,,,,,,,,,,,,,,,,,"MET07207/11/20 05:20:02 METAR KSQL 111320Z 00000KT 9SM CLR 14/11 A3001 RMK AO2","FM-15","7",,,,,,,,,,,,,,,,,,,,,,,,,,,,
"72493893231","2020-07-11T05:35:00","FM-15","7",,,,,,,,,,,,,,,,,,,,,,,,,,,,,,,,,,,,,,"30.01","52","57",,,,,"82",,"CLR:00","30.00","10.00","54","000",,"0",,,,,,,,,,,,,,,,,,,,,,,,,,,,,,,,,,,,,"MET07307/11/20 05:35:02 METAR KSQL 111335Z 00000KT 10SM CLR 14/11 A3001 RMK AO2","FM-15","7",,,,,,,,,,,,,,,,,,,,,,,,,,,,
"72493893231","2020-07-11T05:40:00","FM-15","7",,,,,,,,,,,,,,,,,,,,,,,,,,,,,,,,,,,,,,"30.00","52","59",,,,,"77",,"CLR:00","29.99","10.00","55","000",,"0",,,,,,,,,,,,,,,,,,,,,,,,,,,,,,,,,,,,,"MET07307/11/20 05:40:02 METAR KSQL 111340Z 00000KT 10SM CLR 15/11 A3000 RMK AO2","FM-15","7",,,,,,,,,,,,,,,,,,,,,,,,,,,,
"72493893231","2020-07-11T05:47:00","FM-15","4",,,,,,,,,,,,,,,,,,,,,,,,,,,,,,,,,,,,,,"30.08","50","59",,,,,"72",,,,"10.00",,"VRB",,"3",,,,,,,,,,,,,,,,,,,,,,,,,,,,,,,,,,,,,"MET048METAR KSQL 111347Z VRB03KT 10SM SKC 15/10 A3008=","FM-15","4",,,,,,,,,,,,,,,,,,,,,,,,,,,,
"72493893231","2020-07-11T05:55:00","FM-15","7",,,,,,,,,,,,,,,,,,,,,,,,,,,,,,,,,,,,,,"30.01","52","59",,,,,"77",,"CLR:00","30.00","10.00","55","310",,"5",,,,,,,,,,,,,,,,,,,,,,,,,,,,,,,,,,,,,"MET07307/11/20 05:55:02 METAR KSQL 111355Z 31004KT 10SM CLR 15/11 A3001 RMK AO2","FM-15","7",,,,,,,,,,,,,,,,,,,,,,,,,,,,
"72493893231","2020-07-11T06:00:00","FM-15","4",,,,,,,,,,,,,,,,,,,,,,,,,,,,,,,,,,,,,,"30.01","52","59",,,,,"77",,,,"9.00",,"310",,"3",,,,,,,,,,,,,,,,,,,,,,,,,,,,,,,,,,,,,"MET060METAR KSQL 111400Z AUTO 31003KT 9SM CLR 15/11 A3001 RMK AO2=","FM-15","4",,,,,,,,,,,,,,,,,,,,,,,,,,,,
"72493893231","2020-07-11T06:44:00","FM-15","7",,,,,,,,,,,,,,,,,,,,,,,,,,,,,,,,,,,,,,"30.01","54","63",,,,,"73",,"*","30.00","10.00","58","000",,"0",,,,,,,,,,,,,,,,,,,,,,,,,,,,,,,,,,,,,"MET06907/11/20 06:44:02 METAR KSQL 111444Z 00000KT 10SM SKC 17/12 A3001 RMK","FM-15","7",,,,,,,,,,,,,,,,,,,,,,,,,,,,
"72493893231","2020-07-11T07:47:00","FM-15","7",,,,,,,,,,,,,,,,,,,,,,,,,,,,,,,,,,,,,,"30.02","55","64",,,,,"73",,"*","30.01","10.00","59","000",,"0",,,,,,,,,,,,,,,,,,,,,,,,,,,,,,,,,,,,,"MET06907/11/20 07:47:02 METAR KSQL 111547Z 00000KT 10SM SKC 18/13 A3002 RMK","FM-15","7",,,,,,,,,,,,,,,,,,,,,,,,,,,,
"72493893231","2020-07-11T08:47:00","FM-15","7",,,,,,,,,,,,,,,,,,,,,,,,,,,,,,,,,,,,,,"30.02","57","68",,,,,"69",,"*","30.01","10.00","62","VRB",,"3",,,,,,,,,,,,,,,,,,,,,,,,,,,,,,,,,,,,,"MET06907/11/20 08:47:02 METAR KSQL 111647Z VRB03KT 10SM SKC 20/14 A3002 RMK","FM-15","7",,,,,,,,,,,,,,,,,,,,,,,,,,,,
"72493893231","2020-07-11T09:47:00","FM-15","7",,,,,,,,,,,,,,,,,,,,,,,,,,,,,,,,,,,,,,"30.03","57","70",,,,,"64",,"*","30.02","10.00","62","VRB",,"3",,,,,,,,,,,,,,,,,,,,,,,,,,,,,,,,,,,,,"MET06907/11/20 09:47:02 METAR KSQL 111747Z VRB03KT 10SM SKC 21/14 A3003 RMK","FM-15","7",,,,,,,,,,,,,,,,,,,,,,,,,,,,
"72493893231","2020-07-11T10:47:00","FM-15","7",,,,,,,,,,,,,,,,,,,,,,,,,,,,,,,,,,,,,,"30.03","59","75",,,,,"57",,"*","30.02","10.00","65","350",,"7",,,,,,,,,,,,,,,,,,,,,,,,,,,,,,,,,,,,,"MET06907/11/20 10:47:02 METAR KSQL 111847Z 35006KT 10SM SKC 24/15 A3003 RMK","FM-15","7",,,,,,,,,,,,,,,,,,,,,,,,,,,,
"72493893231","2020-07-11T11:47:00","FM-15","7",,,,,,,,,,,,,,,,,,,,,,,,,,,,,,,,,,,,,,"30.02","55","79",,,,,"45",,"*","30.01","10.00","65","300",,"7",,,,,,,,,,,,,,,,,,,,,,,,,,,,,,,,,,,,,"MET06907/11/20 11:47:02 METAR KSQL 111947Z 30006KT 10SM SKC 26/13 A3002 RMK","FM-15","7",,,,,,,,,,,,,,,,,,,,,,,,,,,,
"72493893231","2020-07-11T12:47:00","FM-15","7",,,,,,,,,,,,,,,,,,,,,,,,,,,,,,,,,,,,,,"30.01","54","79",,,,,"42",,"*","30.00","10.00","64","350",,"10",,,,,,,,,,,,,,,,,,,,,,,,,,,,,,,,,,,,,"MET06907/11/20 12:47:02 METAR KSQL 112047Z 35009KT 10SM SKC 26/12 A3001 RMK","FM-15","7",,,,,,,,,,,,,,,,,,,,,,,,,,,,
"72493893231","2020-07-11T13:55:00","FM-15","7",,,,,,,,,,,,,,,,,,,,,,,,,,,,,,,,,,,,,,"29.99","54","86",,,,,"33",,"*","29.98","10.00","66","340",,"9",,,,,,,,,,,,,,,,,,,,,,,,,,,,,,,,,,,,,"MET06907/11/20 13:55:02 METAR KSQL 112155Z 34008KT 10SM SKC 30/12 A2999 RMK","FM-15","7",,,,,,,,,,,,,,,,,,,,,,,,,,,,
"72493893231","2020-07-11T14:58:00","FM-15","7",,,,,,,,,,,,,,,,,,,,,,,,,,,,,,,,,,,,,,"29.98","57","84",,,,,"40",,"*","29.97","10.00","67","340",,"9",,,,,,,,,,,,,,,,,,,,,,,,,,,,,,,,,,,,,"MET06907/11/20 14:58:02 METAR KSQL 112258Z 34008KT 10SM SKC 29/14 A2998 RMK","FM-15","7",,,,,,,,,,,,,,,,,,,,,,,,,,,,
"72493893231","2020-07-11T16:47:00","FM-15","7",,,,,,,,,,,,,,,,,,,,,,,,,,,,,,,,,,,,,,"29.96","48","82",,,,,"30",,"*","29.95","10.00","62","270","18","14",,,,,,,,,,,,,,,,,,,,,,,,,,,,,,,,,,,,,"MET07207/11/20 16:47:01 METAR KSQL 120047Z 27012G16KT 10SM SKC 28/09 A2996 RMK","FM-15","7",,,,,,,,,,,,,,,,,,,,,,,,,,,,
"72493893231","2020-07-11T17:51:00","FM-15","7",,,,,,,,,,,,,,,,,,,,,,,,,,,,,,,,,,,,,,"29.96","46","79",,,,,"32",,"*","29.95","10.00","61","280",,"9",,,,,,,,,,,,,,,,,,,,,,,,,,,,,,,,,,,,,"MET06907/11/20 17:51:01 METAR KSQL 120151Z 28008KT 10SM SKC 26/08 A2996 RMK","FM-15","7",,,,,,,,,,,,,,,,,,,,,,,,,,,,
"72493893231","2020-07-11T18:58:00","FM-15","7",,,,,,,,,,,,,,,,,,,,,,,,,,,,,,,,,,,,,,"29.97","43","75",,,,,"31",,"*","29.96","10.00","58","250",,"10",,,,,,,,,,,,,,,,,,,,,,,,,,,,,,,,,,,,,"MET06907/11/20 18:58:01 METAR KSQL 120258Z 25009KT 10SM SKC 24/06 A2997 RMK","FM-15","7",,,,,,,,,,,,,,,,,,,,,,,,,,,,
"72493893231","2020-07-11T19:57:00","FM-15","7",,,,,,,,,,,,,,,,,,,,,,,,,,,,,,,,,,,,,,"29.97","45","73",,,,,"36",,"*","29.96","10.00","58","260",,"8",,,,,,,,,,,,,,,,,,,,,,,,,,,,,,,,,,,,,"MET07407/11/20 19:57:02 METAR KSQL 120357Z 26007KT 10SM SKC 23/07 A2997 RMK LAST","FM-15","7",,,,,,,,,,,,,,,,,,,,,,,,,,,,
"72493893231","2020-07-11T20:15:00","FM-15","7",,,,,,,,,,,,,,,,,,,,,,,,,,,,,,,,,,,,,,"29.98","41","73",,,,,"31",,"CLR:00","29.97","10.00","56","320",,"8",,,,,,,,,,,,,,,,,,,,,,,,,,,,,,,,,,,,,"MET07307/11/20 20:15:02 METAR KSQL 120415Z 32007KT 10SM CLR 23/05 A2998 RMK AO2","FM-15","7",,,,,,,,,,,,,,,,,,,,,,,,,,,,
"72493893231","2020-07-11T20:20:00","FM-15","7",,,,,,,,,,,,,,,,,,,,,,,,,,,,,,,,,,,,,,"29.98","43","73",,,,,"33",,"CLR:00","29.97","10.00","57","320",,"7",,,,,,,,,,,,,,,,,,,,,,,,,,,,,,,,,,,,,"MET07307/11/20 20:20:02 METAR KSQL 120420Z 32006KT 10SM CLR 23/06 A2998 RMK AO2","FM-15","7",,,,,,,,,,,,,,,,,,,,,,,,,,,,
"72493893231","2020-07-11T20:35:00","FM-15","7",,,,,,,,,,,,,,,,,,,,,,,,,,,,,,,,,,,,,,"29.98","45","72",,,,,"38",,"CLR:00","29.97","10.00","57","310",,"5",,,,,,,,,,,,,,,,,,,,,,,,,,,,,,,,,,,,,"MET07307/11/20 20:35:02 METAR KSQL 120435Z 31004KT 10SM CLR 22/07 A2998 RMK AO2","FM-15","7",,,,,,,,,,,,,,,,,,,,,,,,,,,,
"72493893231","2020-07-11T20:40:00","FM-15","7",,,,,,,,,,,,,,,,,,,,,,,,,,,,,,,,,,,,,,"29.98","45","72",,,,,"38",,"CLR:00","29.97","10.00","57","300",,"5",,,,,,,,,,,,,,,,,,,,,,,,,,,,,,,,,,,,,"MET07307/11/20 20:40:02 METAR KSQL 120440Z 30004KT 10SM CLR 22/07 A2998 RMK AO2","FM-15","7",,,,,,,,,,,,,,,,,,,,,,,,,,,,
"72493893231","2020-07-11T20:55:00","FM-15","7",,,,,,,,,,,,,,,,,,,,,,,,,,,,,,,,,,,,,,"29.99","45","70",,,,,"40",,"CLR:00","29.98","10.00","57","330",,"5",,,,,,,,,,,,,,,,,,,,,,,,,,,,,,,,,,,,,"MET07307/11/20 20:55:02 METAR KSQL 120455Z 33004KT 10SM CLR 21/07 A2999 RMK AO2","FM-15","7",,,,,,,,,,,,,,,,,,,,,,,,,,,,
"72493893231","2020-07-11T21:00:00","FM-15","4",,,,,,,,,,,,,,,,,,,,,,,,,,,,,,,,,,,,,,"29.99","46","68",,,,,"46",,,,"10.00",,"340",,"3",,,,,,,,,,,,,,,,,,,,,,,,,,,,,,,,,,,,,"MET061METAR KSQL 120500Z AUTO 34003KT 10SM CLR 20/08 A2999 RMK AO2=","FM-15","4",,,,,,,,,,,,,,,,,,,,,,,,,,,,
"72493893231","2020-07-11T21:15:00","FM-15","7",,,,,,,,,,,,,,,,,,,,,,,,,,,,,,,,,,,,,,"29.99","50","66",,,,,"56",,"CLR:00","29.98","10.00","57","340",,"5",,,,,,,,,,,,,,,,,,,,,,,,,,,,,,,,,,,,,"MET07307/11/20 21:15:02 METAR KSQL 120515Z 34004KT 10SM CLR 19/10 A2999 RMK AO2","FM-15","7",,,,,,,,,,,,,,,,,,,,,,,,,,,,
"72493893231","2020-07-11T21:20:00","FM-15","7",,,,,,,,,,,,,,,,,,,,,,,,,,,,,,,,,,,,,,"29.99","50","66",,,,,"56",,"CLR:00","29.98","10.00","57","340",,"5",,,,,,,,,,,,,,,,,,,,,,,,,,,,,,,,,,,,,"MET07307/11/20 21:20:02 METAR KSQL 120520Z 34004KT 10SM CLR 19/10 A2999 RMK AO2","FM-15","7",,,,,,,,,,,,,,,,,,,,,,,,,,,,
"72493893231","2020-07-11T21:35:00","FM-15","7",,,,,,,,,,,,,,,,,,,,,,,,,,,,,,,,,,,,,,"29.99","54","64",,,,,"68",,"CLR:00","29.98","10.00","58","340",,"3",,,,,,,,,,,,,,,,,,,,,,,,,,,,,,,,,,,,,"MET07307/11/20 21:35:02 METAR KSQL 120535Z 34003KT 10SM CLR 18/12 A2999 RMK AO2","FM-15","7",,,,,,,,,,,,,,,,,,,,,,,,,,,,
"72493893231","2020-07-11T21:40:00","FM-15","7",,,,,,,,,,,,,,,,,,,,,,,,,,,,,,,,,,,,,,"29.99","54","64",,,,,"68",,"CLR:00","29.98","10.00","58","000",,"0",,,,,,,,,,,,,,,,,,,,,,,,,,,,,,,,,,,,,"MET07307/11/20 21:40:02 METAR KSQL 120540Z 00000KT 10SM CLR 18/12 A2999 RMK AO2","FM-15","7",,,,,,,,,,,,,,,,,,,,,,,,,,,,
"72493893231","2020-07-11T21:55:00","FM-15","7",,,,,,,,,,,,,,,,,,,,,,,,,,,,,,,,,,,,,,"29.99","52","64",,,,,"64",,"CLR:00","29.98","10.00","57","330",,"3",,,,,,,,,,,,,,,,,,,,,,,,,,,,,,,,,,,,,"MET07307/11/20 21:55:02 METAR KSQL 120555Z 33003KT 10SM CLR 18/11 A2999 RMK AO2","FM-15","7",,,,,,,,,,,,,,,,,,,,,,,,,,,,
"72493893231","2020-07-11T22:00:00","FM-15","4",,,,,,,,,,,,,,,,,,,,,,,,,,,,,,,,,,,,,,"29.99","52","64",,,,,"64",,,,"10.00",,"000",,"0",,,,,,,,,,,,,,,,,,,,,,,,,,,,,,,,,,,,,"MET061METAR KSQL 120600Z AUTO 00000KT 10SM CLR 18/11 A2999 RMK AO2=","FM-15","4",,,,,,,,,,,,,,,,,,,,,,,,,,,,
"72493893231","2020-07-11T22:15:00","FM-15","7",,,,,,,,,,,,,,,,,,,,,,,,,,,,,,,,,,,,,,"29.99","52","63",,,,,"68",,"CLR:00","29.98","10.00","57","300",,"3",,,,,,,,,,,,,,,,,,,,,,,,,,,,,,,,,,,,,"MET07307/11/20 22:15:02 METAR KSQL 120615Z 30003KT 10SM CLR 17/11 A2999 RMK AO2","FM-15","7",,,,,,,,,,,,,,,,,,,,,,,,,,,,
"72493893231","2020-07-11T22:20:00","FM-15","7",,,,,,,,,,,,,,,,,,,,,,,,,,,,,,,,,,,,,,"29.99","52","64",,,,,"64",,"CLR:00","29.98","10.00","57","310",,"3",,,,,,,,,,,,,,,,,,,,,,,,,,,,,,,,,,,,,"MET07307/11/20 22:20:02 METAR KSQL 120620Z 31003KT 10SM CLR 18/11 A2999 RMK AO2","FM-15","7",,,,,,,,,,,,,,,,,,,,,,,,,,,,
"72493893231","2020-07-11T22:35:00","FM-15","7",,,,,,,,,,,,,,,,,,,,,,,,,,,,,,,,,,,,,,"29.99","52","63",,,,,"68",,"CLR:00","29.98","10.00","57","310",,"7",,,,,,,,,,,,,,,,,,,,,,,,,,,,,,,,,,,,,"MET07307/11/20 22:35:02 METAR KSQL 120635Z 31006KT 10SM CLR 17/11 A2999 RMK AO2","FM-15","7",,,,,,,,,,,,,,,,,,,,,,,,,,,,
"72493893231","2020-07-11T22:40:00","FM-15","7",,,,,,,,,,,,,,,,,,,,,,,,,,,,,,,,,,,,,,"29.99","52","63",,,,,"68",,"CLR:00","29.98","10.00","57","310",,"7",,,,,,,,,,,,,,,,,,,,,,,,,,,,,,,,,,,,,"MET07307/11/20 22:40:02 METAR KSQL 120640Z 31006KT 10SM CLR 17/11 A2999 RMK AO2","FM-15","7",,,,,,,,,,,,,,,,,,,,,,,,,,,,
"72493893231","2020-07-11T22:55:00","FM-15","7",,,,,,,,,,,,,,,,,,,,,,,,,,,,,,,,,,,,,,"29.98","52","63",,,,,"68",,"CLR:00","29.97","10.00","57","310",,"5",,,,,,,,,,,,,,,,,,,,,,,,,,,,,,,,,,,,,"MET07307/11/20 22:55:02 METAR KSQL 120655Z 31004KT 10SM CLR 17/11 A2998 RMK AO2","FM-15","7",,,,,,,,,,,,,,,,,,,,,,,,,,,,
"72493893231","2020-07-11T23:00:00","FM-15","4",,,,,,,,,,,,,,,,,,,,,,,,,,,,,,,,,,,,,,"29.99","50","63",,,,,"64",,,,"10.00",,"330",,"3",,,,,,,,,,,,,,,,,,,,,,,,,,,,,,,,,,,,,"MET061METAR KSQL 120700Z AUTO 33003KT 10SM CLR 17/10 A2999 RMK AO2=","FM-15","4",,,,,,,,,,,,,,,,,,,,,,,,,,,,
"72493893231","2020-07-11T23:15:00","FM-15","7",,,,,,,,,,,,,,,,,,,,,,,,,,,,,,,,,,,,,,"29.98","50","63",,,,,"64",,"CLR:00","29.97","10.00","56","310",,"5",,,,,,,,,,,,,,,,,,,,,,,,,,,,,,,,,,,,,"MET07307/11/20 23:15:02 METAR KSQL 120715Z 31004KT 10SM CLR 17/10 A2998 RMK AO2","FM-15","7",,,,,,,,,,,,,,,,,,,,,,,,,,,,
"72493893231","2020-07-11T23:20:00","FM-15","7",,,,,,,,,,,,,,,,,,,,,,,,,,,,,,,,,,,,,,"29.98","50","63",,,,,"64",,"CLR:00","29.97","10.00","56","300",,"5",,,,,,,,,,,,,,,,,,,,,,,,,,,,,,,,,,,,,"MET07307/11/20 23:20:02 METAR KSQL 120720Z 30004KT 10SM CLR 17/10 A2998 RMK AO2","FM-15","7",,,,,,,,,,,,,,,,,,,,,,,,,,,,
"72493893231","2020-07-11T23:35:00","FM-15","7",,,,,,,,,,,,,,,,,,,,,,,,,,,,,,,,,,,,,,"29.98","50","63",,,,,"64",,"CLR:00","29.97","10.00","56","310",,"6",,,,,,,,,,,,,,,,,,,,,,,,,,,,,,,,,,,,,"MET07307/11/20 23:35:02 METAR KSQL 120735Z 31005KT 10SM CLR 17/10 A2998 RMK AO2","FM-15","7",,,,,,,,,,,,,,,,,,,,,,,,,,,,
"72493893231","2020-07-11T23:40:00","FM-15","7",,,,,,,,,,,,,,,,,,,,,,,,,,,,,,,,,,,,,,"29.98","50","63",,,,,"64",,"CLR:00","29.97","10.00","56","320",,"6",,,,,,,,,,,,,,,,,,,,,,,,,,,,,,,,,,,,,"MET07307/11/20 23:40:02 METAR KSQL 120740Z 32005KT 10SM CLR 17/10 A2998 RMK AO2","FM-15","7",,,,,,,,,,,,,,,,,,,,,,,,,,,,
"72493893231","2020-07-11T23:55:00","FM-15","7",,,,,,,,,,,,,,,,,,,,,,,,,,,,,,,,,,,,,,"29.98","50","63",,,,,"64",,"CLR:00","29.97","10.00","56","310",,"6",,,,,,,,,,,,,,,,,,,,,,,,,,,,,,,,,,,,,"MET07307/11/20 23:55:02 METAR KSQL 120755Z 31005KT 10SM CLR 17/10 A2998 RMK AO2","FM-15","7",,,,,,,,,,,,,,,,,,,,,,,,,,,,
"72493893231","2020-07-12T00:00:00","FM-15","4",,,,,,,,,,,,,,,,,,,,,,,,,,,,,,,,,,,,,,"29.97","50","63",,,,,"64",,,,"10.00",,"310",,"7",,,,,,,,,,,,,,,,,,,,,,,,,,,,,,,,,,,,,"MET061METAR KSQL 120800Z AUTO 31006KT 10SM CLR 17/10 A2997 RMK AO2=","FM-15","4",,,,,,,,,,,,,,,,,,,,,,,,,,,,
"72493893231","2020-07-12T00:15:00","FM-15","7",,,,,,,,,,,,,,,,,,,,,,,,,,,,,,,,,,,,,,"29.97","50","61",,,,,"68",,"CLR:00","29.96","10.00","55","310",,"5",,,,,,,,,,,,,,,,,,,,,,,,,,,,,,,,,,,,,"MET07307/12/20 00:15:02 METAR KSQL 120815Z 31004KT 10SM CLR 16/10 A2997 RMK AO2","FM-15","7",,,,,,,,,,,,,,,,,,,,,,,,,,,,
"72493893231","2020-07-12T00:20:00","FM-15","7",,,,,,,,,,,,,,,,,,,,,,,,,,,,,,,,,,,,,,"29.97","50","61",,,,,"68",,"CLR:00","29.96","10.00","55","310",,"5",,,,,,,,,,,,,,,,,,,,,,,,,,,,,,,,,,,,,"MET07307/12/20 00:20:02 METAR KSQL 120820Z 31004KT 10SM CLR 16/10 A2997 RMK AO2","FM-15","7",,,,,,,,,,,,,,,,,,,,,,,,,,,,
"72493893231","2020-07-12T00:35:00","FM-15","7",,,,,,,,,,,,,,,,,,,,,,,,,,,,,,,,,,,,,,"29.97","50","61",,,,,"68",,"CLR:00","29.96","10.00","55","310",,"5",,,,,,,,,,,,,,,,,,,,,,,,,,,,,,,,,,,,,"MET07307/12/20 00:35:02 METAR KSQL 120835Z 31004KT 10SM CLR 16/10 A2997 RMK AO2","FM-15","7",,,,,,,,,,,,,,,,,,,,,,,,,,,,
"72493893231","2020-07-12T00:40:00","FM-15","7",,,,,,,,,,,,,,,,,,,,,,,,,,,,,,,,,,,,,,"29.96","50","61",,,,,"68",,"CLR:00","29.95","10.00","55","320",,"3",,,,,,,,,,,,,,,,,,,,,,,,,,,,,,,,,,,,,"MET07307/12/20 00:40:02 METAR KSQL 120840Z 32003KT 10SM CLR 16/10 A2996 RMK AO2","FM-15","7",,,,,,,,,,,,,,,,,,,,,,,,,,,,
"72493893231","2020-07-12T00:55:00","FM-15","7",,,,,,,,,,,,,,,,,,,,,,,,,,,,,,,,,,,,,,"29.96","52","59",,,,,"77",,"CLR:00","29.95","10.00","55","000",,"0",,,,,,,,,,,,,,,,,,,,,,,,,,,,,,,,,,,,,"MET07307/12/20 00:55:02 METAR KSQL 120855Z 00000KT 10SM CLR 15/11 A2996 RMK AO2","FM-15","7",,,,,,,,,,,,,,,,,,,,,,,,,,,,
"72493893231","2020-07-12T01:00:00","FM-15","4",,,,,,,,,,,,,,,,,,,,,,,,,,,,,,,,,,,,,,"29.96","50","59",,,,,"72",,,,"10.00",,"310",,"3",,,,,,,,,,,,,,,,,,,,,,,,,,,,,,,,,,,,,"MET061METAR KSQL 120900Z AUTO 31003KT 10SM CLR 15/10 A2996 RMK AO2=","FM-15","4",,,,,,,,,,,,,,,,,,,,,,,,,,,,
"72493893231","2020-07-12T01:15:00","FM-15","7",,,,,,,,,,,,,,,,,,,,,,,,,,,,,,,,,,,,,,"29.96","50","61",,,,,"68",,"CLR:00","29.95","10.00","55","300",,"3",,,,,,,,,,,,,,,,,,,,,,,,,,,,,,,,,,,,,"MET07307/12/20 01:15:02 METAR KSQL 120915Z 30003KT 10SM CLR 16/10 A2996 RMK AO2","FM-15","7",,,,,,,,,,,,,,,,,,,,,,,,,,,,
"72493893231","2020-07-12T01:20:00","FM-15","7",,,,,,,,,,,,,,,,,,,,,,,,,,,,,,,,,,,,,,"29.96","50","61",,,,,"68",,"CLR:00","29.95","10.00","55","310",,"3",,,,,,,,,,,,,,,,,,,,,,,,,,,,,,,,,,,,,"MET07307/12/20 01:20:02 METAR KSQL 120920Z 31003KT 10SM CLR 16/10 A2996 RMK AO2","FM-15","7",,,,,,,,,,,,,,,,,,,,,,,,,,,,
"72493893231","2020-07-12T01:35:00","FM-15","7",,,,,,,,,,,,,,,,,,,,,,,,,,,,,,,,,,,,,,"29.96","52","59",,,,,"77",,"CLR:00","29.95","10.00","55","330",,"3",,,,,,,,,,,,,,,,,,,,,,,,,,,,,,,,,,,,,"MET07307/12/20 01:35:02 METAR KSQL 120935Z 33003KT 10SM CLR 15/11 A2996 RMK AO2","FM-15","7",,,,,,,,,,,,,,,,,,,,,,,,,,,,
"72493893231","2020-07-12T01:40:00","FM-15","7",,,,,,,,,,,,,,,,,,,,,,,,,,,,,,,,,,,,,,"29.96","50","59",,,,,"72",,"CLR:00","29.95","10.00","54","310",,"3",,,,,,,,,,,,,,,,,,,,,,,,,,,,,,,,,,,,,"MET07307/12/20 01:40:02 METAR KSQL 120940Z 31003KT 10SM CLR 15/10 A2996 RMK AO2","FM-15","7",,,,,,,,,,,,,,,,,,,,,,,,,,,,
"72493893231","2020-07-12T01:55:00","FM-15","7",,,,,,,,,,,,,,,,,,,,,,,,,,,,,,,,,,,,,,"29.96","50","59",,,,,"72",,"CLR:00","29.95","10.00","54","310",,"3",,,,,,,,,,,,,,,,,,,,,,,,,,,,,,,,,,,,,"MET07307/12/20 01:55:02 METAR KSQL 120955Z 31003KT 10SM CLR 15/10 A2996 RMK AO2","FM-15","7",,,,,,,,,,,,,,,,,,,,,,,,,,,,
"72493893231","2020-07-12T02:00:00","FM-15","4",,,,,,,,,,,,,,,,,,,,,,,,,,,,,,,,,,,,,,"29.96","50","59",,,,,"72",,,,"10.00",,"300",,"3",,,,,,,,,,,,,,,,,,,,,,,,,,,,,,,,,,,,,"MET061METAR KSQL 121000Z AUTO 30003KT 10SM CLR 15/10 A2996 RMK AO2=","FM-15","4",,,,,,,,,,,,,,,,,,,,,,,,,,,,
"72493893231","2020-07-12T02:15:00","FM-15","7",,,,,,,,,,,,,,,,,,,,,,,,,,,,,,,,,,,,,,"29.96","50","59",,,,,"72",,"CLR:00","29.95","10.00","54","000",,"0",,,,,,,,,,,,,,,,,,,,,,,,,,,,,,,,,,,,,"MET07307/12/20 02:15:02 METAR KSQL 121015Z 00000KT 10SM CLR 15/10 A2996 RMK AO2","FM-15","7",,,,,,,,,,,,,,,,,,,,,,,,,,,,
"72493893231","2020-07-12T02:20:00","FM-15","7",,,,,,,,,,,,,,,,,,,,,,,,,,,,,,,,,,,,,,"29.96","50","59",,,,,"72",,"CLR:00","29.95","10.00","54","000",,"0",,,,,,,,,,,,,,,,,,,,,,,,,,,,,,,,,,,,,"MET07307/12/20 02:20:02 METAR KSQL 121020Z 00000KT 10SM CLR 15/10 A2996 RMK AO2","FM-15","7",,,,,,,,,,,,,,,,,,,,,,,,,,,,
"72493893231","2020-07-12T02:35:00","FM-15","7",,,,,,,,,,,,,,,,,,,,,,,,,,,,,,,,,,,,,,"29.95","50","59",,,,,"72",,"CLR:00","29.94","10.00","54","000",,"0",,,,,,,,,,,,,,,,,,,,,,,,,,,,,,,,,,,,,"MET07307/12/20 02:35:02 METAR KSQL 121035Z 00000KT 10SM CLR 15/10 A2995 RMK AO2","FM-15","7",,,,,,,,,,,,,,,,,,,,,,,,,,,,
"72493893231","2020-07-12T02:40:00","FM-15","7",,,,,,,,,,,,,,,,,,,,,,,,,,,,,,,,,,,,,,"29.95","50","59",,,,,"72",,"CLR:00","29.94","10.00","54","000",,"0",,,,,,,,,,,,,,,,,,,,,,,,,,,,,,,,,,,,,"MET07307/12/20 02:40:02 METAR KSQL 121040Z 00000KT 10SM CLR 15/10 A2995 RMK AO2","FM-15","7",,,,,,,,,,,,,,,,,,,,,,,,,,,,
"72493893231","2020-07-12T02:55:00","FM-15","7",,,,,,,,,,,,,,,,,,,,,,,,,,,,,,,,,,,,,,"29.95","50","59",,,,,"72",,"CLR:00","29.94","10.00","54","000",,"0",,,,,,,,,,,,,,,,,,,,,,,,,,,,,,,,,,,,,"MET07307/12/20 02:55:02 METAR KSQL 121055Z 00000KT 10SM CLR 15/10 A2995 RMK AO2","FM-15","7",,,,,,,,,,,,,,,,,,,,,,,,,,,,
"72493893231","2020-07-12T03:00:00","FM-15","4",,,,,,,,,,,,,,,,,,,,,,,,,,,,,,,,,,,,,,"29.95","50","59",,,,,"72",,,,"10.00",,"000",,"0",,,,,,,,,,,,,,,,,,,,,,,,,,,,,,,,,,,,,"MET061METAR KSQL 121100Z AUTO 00000KT 10SM CLR 15/10 A2995 RMK AO2=","FM-15","4",,,,,,,,,,,,,,,,,,,,,,,,,,,,
"72493893231","2020-07-12T03:15:00","FM-15","7",,,,,,,,,,,,,,,,,,,,,,,,,,,,,,,,,,,,,,"29.95","50","59",,,,,"72",,"CLR:00","29.94","10.00","54","000",,"0",,,,,,,,,,,,,,,,,,,,,,,,,,,,,,,,,,,,,"MET07307/12/20 03:15:02 METAR KSQL 121115Z 00000KT 10SM CLR 15/10 A2995 RMK AO2","FM-15","7",,,,,,,,,,,,,,,,,,,,,,,,,,,,
"72493893231","2020-07-12T03:20:00","FM-15","7",,,,,,,,,,,,,,,,,,,,,,,,,,,,,,,,,,,,,,"29.95","50","59",,,,,"72",,"CLR:00","29.94","10.00","54","000",,"0",,,,,,,,,,,,,,,,,,,,,,,,,,,,,,,,,,,,,"MET07307/12/20 03:20:02 METAR KSQL 121120Z 00000KT 10SM CLR 15/10 A2995 RMK AO2","FM-15","7",,,,,,,,,,,,,,,,,,,,,,,,,,,,
"72493893231","2020-07-12T03:35:00","FM-15","7",,,,,,,,,,,,,,,,,,,,,,,,,,,,,,,,,,,,,,"29.95","48","59",,,,,"68",,"CLR:00","29.94","10.00","53","000",,"0",,,,,,,,,,,,,,,,,,,,,,,,,,,,,,,,,,,,,"MET07307/12/20 03:35:02 METAR KSQL 121135Z 00000KT 10SM CLR 15/09 A2995 RMK AO2","FM-15","7",,,,,,,,,,,,,,,,,,,,,,,,,,,,
"72493893231","2020-07-12T03:40:00","FM-15","7",,,,,,,,,,,,,,,,,,,,,,,,,,,,,,,,,,,,,,"29.95","48","59",,,,,"68",,"CLR:00","29.94","10.00","53","000",,"0",,,,,,,,,,,,,,,,,,,,,,,,,,,,,,,,,,,,,"MET07307/12/20 03:40:02 METAR KSQL 121140Z 00000KT 10SM CLR 15/09 A2995 RMK AO2","FM-15","7",,,,,,,,,,,,,,,,,,,,,,,,,,,,
"72493893231","2020-07-12T03:55:00","FM-15","7",,,,,,,,,,,,,,,,,,,,,,,,,,,,,,,,,,,,,,"29.95","48","59",,,,,"68",,"CLR:00","29.94","10.00","53","000",,"0",,,,,,,,,,,,,,,,,,,,,,,,,,,,,,,,,,,,,"MET07307/12/20 03:55:02 METAR KSQL 121155Z 00000KT 10SM CLR 15/09 A2995 RMK AO2","FM-15","7",,,,,,,,,,,,,,,,,,,,,,,,,,,,
"72493893231","2020-07-12T04:00:00","FM-15","4",,,,,,,,,,,,,,,,,,,,,,,,,,,,,,,,,,,,,,"29.95","48","59",,,,,"68",,,,"10.00",,"000",,"0",,,,,,,,,,,,,,,,,,,,,,,,,,,,,,,,,,,,,"MET061METAR KSQL 121200Z AUTO 00000KT 10SM CLR 15/09 A2995 RMK AO2=","FM-15","4",,,,,,,,,,,,,,,,,,,,,,,,,,,,
"72493893231","2020-07-12T04:15:00","FM-15","7",,,,,,,,,,,,,,,,,,,,,,,,,,,,,,,,,,,,,,"29.95","48","59",,,,,"68",,"CLR:00","29.94","10.00","53","000",,"0",,,,,,,,,,,,,,,,,,,,,,,,,,,,,,,,,,,,,"MET07307/12/20 04:15:02 METAR KSQL 121215Z 00000KT 10SM CLR 15/09 A2995 RMK AO2","FM-15","7",,,,,,,,,,,,,,,,,,,,,,,,,,,,
"72493893231","2020-07-12T04:20:00","FM-15","7",,,,,,,,,,,,,,,,,,,,,,,,,,,,,,,,,,,,,,"29.95","48","59",,,,,"68",,"CLR:00","29.94","10.00","53","000",,"0",,,,,,,,,,,,,,,,,,,,,,,,,,,,,,,,,,,,,"MET07307/12/20 04:20:02 METAR KSQL 121220Z 00000KT 10SM CLR 15/09 A2995 RMK AO2","FM-15","7",,,,,,,,,,,,,,,,,,,,,,,,,,,,
"72493893231","2020-07-12T04:35:00","FM-15","7",,,,,,,,,,,,,,,,,,,,,,,,,,,,,,,,,,,,,,"29.95","50","59",,,,,"72",,"CLR:00","29.94","10.00","54","000",,"0",,,,,,,,,,,,,,,,,,,,,,,,,,,,,,,,,,,,,"MET07307/12/20 04:35:02 METAR KSQL 121235Z 00000KT 10SM CLR 15/10 A2995 RMK AO2","FM-15","7",,,,,,,,,,,,,,,,,,,,,,,,,,,,
"72493893231","2020-07-12T04:40:00","FM-15","7",,,,,,,,,,,,,,,,,,,,,,,,,,,,,,,,,,,,,,"29.95","50","59",,,,,"72",,"CLR:00","29.94","10.00","54","000",,"0",,,,,,,,,,,,,,,,,,,,,,,,,,,,,,,,,,,,,"MET07307/12/20 04:40:02 METAR KSQL 121240Z 00000KT 10SM CLR 15/10 A2995 RMK AO2","FM-15","7",,,,,,,,,,,,,,,,,,,,,,,,,,,,
"72493893231","2020-07-12T04:55:00","FM-15","7",,,,,,,,,,,,,,,,,,,,,,,,,,,,,,,,,,,,,,"29.96","48","59",,,,,"68",,"CLR:00","29.95","10.00","53","000",,"0",,,,,,,,,,,,,,,,,,,,,,,,,,,,,,,,,,,,,"MET07307/12/20 04:55:02 METAR KSQL 121255Z 00000KT 10SM CLR 15/09 A2996 RMK AO2","FM-15","7",,,,,,,,,,,,,,,,,,,,,,,,,,,,
"72493893231","2020-07-12T05:00:00","FM-15","4",,,,,,,,,,,,,,,,,,,,,,,,,,,,,,,,,,,,,,"29.96","48","59",,,,,"68",,,,"10.00",,"310",,"3",,,,,,,,,,,,,,,,,,,,,,,,,,,,,,,,,,,,,"MET061METAR KSQL 121300Z AUTO 31003KT 10SM CLR 15/09 A2996 RMK AO2=","FM-15","4",,,,,,,,,,,,,,,,,,,,,,,,,,,,
"72493893231","2020-07-12T05:15:00","FM-15","7",,,,,,,,,,,,,,,,,,,,,,,,,,,,,,,,,,,,,,"29.96","48","57",,,,,"72",,"CLR:00","29.95","10.00","52","310",,"3",,,,,,,,,,,,,,,,,,,,,,,,,,,,,,,,,,,,,"MET07307/12/20 05:15:02 METAR KSQL 121315Z 31003KT 10SM CLR 14/09 A2996 RMK AO2","FM-15","7",,,,,,,,,,,,,,,,,,,,,,,,,,,,
"72493893231","2020-07-12T05:20:00","FM-15","7",,,,,,,,,,,,,,,,,,,,,,,,,,,,,,,,,,,,,,"29.96","48","57",,,,,"72",,"CLR:00","29.95","10.00","52","300",,"3",,,,,,,,,,,,,,,,,,,,,,,,,,,,,,,,,,,,,"MET07307/12/20 05:20:02 METAR KSQL 121320Z 30003KT 10SM CLR 14/09 A2996 RMK AO2","FM-15","7",,,,,,,,,,,,,,,,,,,,,,,,,,,,
"72493893231","2020-07-12T05:35:00","FM-15","7",,,,,,,,,,,,,,,,,,,,,,,,,,,,,,,,,,,,,,"29.96","48","59",,,,,"68",,"CLR:00","29.95","9.00","53","310",,"5",,,,,,,,,,,,,,,,,,,,,,,,,,,,,,,,,,,,,"MET07207/12/20 05:35:02 METAR KSQL 121335Z 31004KT 9SM CLR 15/09 A2996 RMK AO2","FM-15","7",,,,,,,,,,,,,,,,,,,,,,,,,,,,
"72493893231","2020-07-12T05:40:00","FM-15","7",,,,,,,,,,,,,,,,,,,,,,,,,,,,,,,,,,,,,,"29.96","48","59",,,,,"68",,"CLR:00","29.95","9.00","53","310",,"5",,,,,,,,,,,,,,,,,,,,,,,,,,,,,,,,,,,,,"MET07207/12/20 05:40:02 METAR KSQL 121340Z 31004KT 9SM CLR 15/09 A2996 RMK AO2","FM-15","7",,,,,,,,,,,,,,,,,,,,,,,,,,,,
"72493893231","2020-07-12T05:47:00","FM-15","4",,,,,,,,,,,,,,,,,,,,,,,,,,,,,,,,,,,,,,"29.96","48","59",,,,,"68",,,,"10.00",,"000",,"0",,,,,,,,,,,,,,,,,,,,,,,,,,,,,,,,,,,,,"MET048METAR KSQL 121347Z 00000KT 10SM SKC 15/09 A2996=","FM-15","4",,,,,,,,,,,,,,,,,,,,,,,,,,,,
"72493893231","2020-07-12T05:55:00","FM-15","7",,,,,,,,,,,,,,,,,,,,,,,,,,,,,,,,,,,,,,"29.96","48","59",,,,,"68",,"CLR:00","29.95","10.00","53","310",,"5",,,,,,,,,,,,,,,,,,,,,,,,,,,,,,,,,,,,,"MET07307/12/20 05:55:02 METAR KSQL 121355Z 31004KT 10SM CLR 15/09 A2996 RMK AO2","FM-15","7",,,,,,,,,,,,,,,,,,,,,,,,,,,,
"72493893231","2020-07-12T06:00:00","FM-15","4",,,,,,,,,,,,,,,,,,,,,,,,,,,,,,,,,,,,,,"29.96","48","59",,,,,"68",,,,"10.00",,"310",,"5",,,,,,,,,,,,,,,,,,,,,,,,,,,,,,,,,,,,,"MET061METAR KSQL 121400Z AUTO 31004KT 10SM CLR 15/09 A2996 RMK AO2=","FM-15","4",,,,,,,,,,,,,,,,,,,,,,,,,,,,
"72493893231","2020-07-12T06:47:00","FM-15","7",,,,,,,,,,,,,,,,,,,,,,,,,,,,,,,,,,,,,,"29.97","50","63",,,,,"64",,"*","29.96","10.00","56","000",,"0",,,,,,,,,,,,,,,,,,,,,,,,,,,,,,,,,,,,,"MET06907/12/20 06:47:02 METAR KSQL 121447Z 00000KT 10SM SKC 17/10 A2997 RMK","FM-15","7",,,,,,,,,,,,,,,,,,,,,,,,,,,,
"72493893231","2020-07-12T07:47:00","FM-15","7",,,,,,,,,,,,,,,,,,,,,,,,,,,,,,,,,,,,,,"29.97","54","64",,,,,"68",,"*","29.96","10.00","58","000",,"0",,,,,,,,,,,,,,,,,,,,,,,,,,,,,,,,,,,,,"MET06907/12/20 07:47:02 METAR KSQL 121547Z 00000KT 10SM SKC 18/12 A2997 RMK","FM-15","7",,,,,,,,,,,,,,,,,,,,,,,,,,,,
"72493893231","2020-07-12T08:47:00","FM-15","7",,,,,,,,,,,,,,,,,,,,,,,,,,,,,,,,,,,,,,"29.95","55","66",,,,,"68",,"*","29.94","10.00","60","000",,"0",,,,,,,,,,,,,,,,,,,,,,,,,,,,,,,,,,,,,"MET06907/12/20 08:47:02 METAR KSQL 121647Z 00000KT 10SM SKC 19/13 A2995 RMK","FM-15","7",,,,,,,,,,,,,,,,,,,,,,,,,,,,
"72493893231","2020-07-12T09:47:00","FM-15","7",,,,,,,,,,,,,,,,,,,,,,,,,,,,,,,,,,,,,,"29.95","57","68",,,,,"69",,"*","29.94","10.00","62","VRB",,"3",,,,,,,,,,,,,,,,,,,,,,,,,,,,,,,,,,,,,"MET06907/12/20 09:47:02 METAR KSQL 121747Z VRB03KT 10SM SKC 20/14 A2995 RMK","FM-15","7",,,,,,,,,,,,,,,,,,,,,,,,,,,,
"72493893231","2020-07-12T10:47:00","FM-15","7",,,,,,,,,,,,,,,,,,,,,,,,,,,,,,,,,,,,,,"29.93","59","72",,,,,"65",,"*","29.92","10.00","64","010",,"8",,,,,,,,,,,,,,,,,,,,,,,,,,,,,,,,,,,,,"MET06907/12/20 10:47:02 METAR KSQL 121847Z 01007KT 10SM SKC 22/15 A2993 RMK","FM-15","7",,,,,,,,,,,,,,,,,,,,,,,,,,,,
"72493893231","2020-07-12T11:50:00","FM-15","7",,,,,,,,,,,,,,,,,,,,,,,,,,,,,,,,,,,,,,"29.91","54","77",,,,,"44",,"*","29.90","10.00","63","350",,"8",,,,,,,,,,,,,,,,,,,,,,,,,,,,,,,,,,,,,"MET06907/12/20 11:50:02 METAR KSQL 121950Z 35007KT 10SM SKC 25/12 A2991 RMK","FM-15","7",,,,,,,,,,,,,,,,,,,,,,,,,,,,
"72493893231","2020-07-12T12:50:00","FM-15","7",,,,,,,,,,,,,,,,,,,,,,,,,,,,,,,,,,,,,,"29.89","54","81",,,,,"39",,"*","29.88","10.00","65","320",,"10",,,,,,,,,,,,,,,,,,,,,,,,,,,,,,,,,,,,,"MET06907/12/20 12:50:02 METAR KSQL 122050Z 32009KT 10SM SKC 27/12 A2989 RMK","FM-15","7",,,,,,,,,,,,,,,,,,,,,,,,,,,,
"72493893231","2020-07-12T13:47:00","FM-15","7",,,,,,,,,,,,,,,,,,,,,,,,,,,,,,,,,,,,,,"29.87","59","81",,,,,"48",,"*","29.86","10.00","67","350",,"10",,,,,,,,,,,,,,,,,,,,,,,,,,,,,,,,,,,,,"MET07207/12/20 13:47:02 METAR KSQL 122147Z 35009KT 10SM SKC 27/15 A2987 RMK DA","FM-15","7",,,,,,,,,,,,,,,,,,,,,,,,,,,,
"72493893231","2020-07-12T14:58:00","FM-15","7",,,,,,,,,,,,,,,,,,,,,,,,,,,,,,,,,,,,,,"29.86","43","86",,,,,"22",,"*","29.85","10.00","62","270",,"13",,,,,,,,,,,,,,,,,,,,,,,,,,,,,,,,,,,,,"MET06907/12/20 14:58:02 METAR KSQL 122258Z 27011KT 10SM SKC 30/06 A2986 RMK","FM-15","7",,,,,,,,,,,,,,,,,,,,,,,,,,,,
"72493893231","2020-07-12T15:47:00","FM-15","7",,,,,,,,,,,,,,,,,,,,,,,,,,,,,,,,,,,,,,"29.85","46","82",,,,,"28",,"*","29.84","10.00","62","250",,"14",,,,,,,,,,,,,,,,,,,,,,,,,,,,,,,,,,,,,"MET07207/12/20 15:47:02 METAR KSQL 122347Z 25012KT 10SM SKC 28/08 A2985 RMK DA","FM-15","7",,,,,,,,,,,,,,,,,,,,,,,,,,,,
"72493893231","2020-07-12T17:58:00","FM-15","7",,,,,,,,,,,,,,,,,,,,,,,,,,,,,,,,,,,,,,"29.85","50","73",,,,,"44",,"*","29.84","10.00","60","240",,"9",,,,,,,,,,,,,,,,,,,,,,,,,,,,,,,,,,,,,"MET06907/12/20 17:58:01 METAR KSQL 130158Z 24008KT 10SM SKC 23/10 A2985 RMK","FM-15","7",,,,,,,,,,,,,,,,,,,,,,,,,,,,
"72493893231","2020-07-12T18:58:00","FM-15","7",,,,,,,,,,,,,,,,,,,,,,,,,,,,,,,,,,,,,,"29.86","52","68",,,,,"56",,"*","29.85","10.00","59","270",,"9",,,,,,,,,,,,,,,,,,,,,,,,,,,,,,,,,,,,,"MET06907/12/20 18:58:01 METAR KSQL 130258Z 27008KT 10SM SKC 20/11 A2986 RMK","FM-15","7",,,,,,,,,,,,,,,,,,,,,,,,,,,,
"72493893231","2020-07-12T19:55:00","FM-15","7",,,,,,,,,,,,,,,,,,,,,,,,,,,,,,,,,,,,,,"29.86","52","66",,,,,"60",,"*","29.85","10.00","58","260",,"8",,,,,,,,,,,,,,,,,,,,,,,,,,,,,,,,,,,,,"MET07407/12/20 19:55:02 METAR KSQL 130355Z 26007KT 10SM SKC 19/11 A2986 RMK LAST","FM-15","7",,,,,,,,,,,,,,,,,,,,,,,,,,,,
"72493893231","2020-07-12T20:15:00","FM-15","7",,,,,,,,,,,,,,,,,,,,,,,,,,,,,,,,,,,,,,"29.86","52","64",,,,,"64",,"CLR:00","29.85","10.00","57","280",,"10",,,,,,,,,,,,,,,,,,,,,,,,,,,,,,,,,,,,,"MET07307/12/20 20:15:02 METAR KSQL 130415Z 28009KT 10SM CLR 18/11 A2986 RMK AO2","FM-15","7",,,,,,,,,,,,,,,,,,,,,,,,,,,,
"72493893231","2020-07-12T20:20:00","FM-15","7",,,,,,,,,,,,,,,,,,,,,,,,,,,,,,,,,,,,,,"29.86","52","64",,,,,"64",,"CLR:00","29.85","10.00","57","280",,"10",,,,,,,,,,,,,,,,,,,,,,,,,,,,,,,,,,,,,"MET07307/12/20 20:20:02 METAR KSQL 130420Z 28009KT 10SM CLR 18/11 A2986 RMK AO2","FM-15","7",,,,,,,,,,,,,,,,,,,,,,,,,,,,
"72493893231","2020-07-12T20:35:00","FM-15","7",,,,,,,,,,,,,,,,,,,,,,,,,,,,,,,,,,,,,,"29.87","54","64",,,,,"68",,"CLR:00","29.86","10.00","58","270",,"9",,,,,,,,,,,,,,,,,,,,,,,,,,,,,,,,,,,,,"MET07307/12/20 20:35:02 METAR KSQL 130435Z 27008KT 10SM CLR 18/12 A2987 RMK AO2","FM-15","7",,,,,,,,,,,,,,,,,,,,,,,,,,,,
"72493893231","2020-07-12T20:40:00","FM-15","7",,,,,,,,,,,,,,,,,,,,,,,,,,,,,,,,,,,,,,"29.87","54","64",,,,,"68",,"CLR:00","29.86","10.00","58","270",,"9",,,,,,,,,,,,,,,,,,,,,,,,,,,,,,,,,,,,,"MET07307/12/20 20:40:02 METAR KSQL 130440Z 27008KT 10SM CLR 18/12 A2987 RMK AO2","FM-15","7",,,,,,,,,,,,,,,,,,,,,,,,,,,,
"72493893231","2020-07-12T20:55:00","FM-15","7",,,,,,,,,,,,,,,,,,,,,,,,,,,,,,,,,,,,,,"29.87","54","64",,,,,"68",,"CLR:00","29.86","10.00","58","270",,"9",,,,,,,,,,,,,,,,,,,,,,,,,,,,,,,,,,,,,"MET07307/12/20 20:55:02 METAR KSQL 130455Z 27008KT 10SM CLR 18/12 A2987 RMK AO2","FM-15","7",,,,,,,,,,,,,,,,,,,,,,,,,,,,
"72493893231","2020-07-12T21:00:00","FM-15","4",,,,,,,,,,,,,,,,,,,,,,,,,,,,,,,,,,,,,,"29.88","54","64",,,,,"68",,,,"10.00",,"270",,"8",,,,,,,,,,,,,,,,,,,,,,,,,,,,,,,,,,,,,"MET061METAR KSQL 130500Z AUTO 27007KT 10SM CLR 18/12 A2988 RMK AO2=","FM-15","4",,,,,,,,,,,,,,,,,,,,,,,,,,,,
"72493893231","2020-07-12T21:15:00","FM-15","7",,,,,,,,,,,,,,,,,,,,,,,,,,,,,,,,,,,,,,"29.88","54","64",,,,,"68",,"CLR:00","29.87","10.00","58","270",,"8",,,,,,,,,,,,,,,,,,,,,,,,,,,,,,,,,,,,,"MET07307/12/20 21:15:02 METAR KSQL 130515Z 27007KT 10SM CLR 18/12 A2988 RMK AO2","FM-15","7",,,,,,,,,,,,,,,,,,,,,,,,,,,,
"72493893231","2020-07-12T21:20:00","FM-15","7",,,,,,,,,,,,,,,,,,,,,,,,,,,,,,,,,,,,,,"29.88","54","64",,,,,"68",,"CLR:00","29.87","10.00","58","280",,"10",,,,,,,,,,,,,,,,,,,,,,,,,,,,,,,,,,,,,"MET07307/12/20 21:20:02 METAR KSQL 130520Z 28009KT 10SM CLR 18/12 A2988 RMK AO2","FM-15","7",,,,,,,,,,,,,,,,,,,,,,,,,,,,
"72493893231","2020-07-12T21:35:00","FM-15","7",,,,,,,,,,,,,,,,,,,,,,,,,,,,,,,,,,,,,,"29.88","54","64",,,,,"68",,"CLR:00","29.87","10.00","58","290",,"10",,,,,,,,,,,,,,,,,,,,,,,,,,,,,,,,,,,,,"MET07307/12/20 21:35:02 METAR KSQL 130535Z 29009KT 10SM CLR 18/12 A2988 RMK AO2","FM-15","7",,,,,,,,,,,,,,,,,,,,,,,,,,,,
"72493893231","2020-07-12T21:40:00","FM-15","7",,,,,,,,,,,,,,,,,,,,,,,,,,,,,,,,,,,,,,"29.88","54","64",,,,,"68",,"CLR:00","29.87","10.00","58","290",,"11",,,,,,,,,,,,,,,,,,,,,,,,,,,,,,,,,,,,,"MET07307/12/20 21:40:02 METAR KSQL 130540Z 29010KT 10SM CLR 18/12 A2988 RMK AO2","FM-15","7",,,,,,,,,,,,,,,,,,,,,,,,,,,,
"72493893231","2020-07-12T21:55:00","FM-15","7",,,,,,,,,,,,,,,,,,,,,,,,,,,,,,,,,,,,,,"29.88","54","63",,,,,"73",,"CLR:00","29.87","10.00","58","300",,"11",,,,,,,,,,,,,,,,,,,,,,,,,,,,,,,,,,,,,"MET07307/12/20 21:55:02 METAR KSQL 130555Z 30010KT 10SM CLR 17/12 A2988 RMK AO2","FM-15","7",,,,,,,,,,,,,,,,,,,,,,,,,,,,
"72493893231","2020-07-12T22:00:00","FM-15","4",,,,,,,,,,,,,,,,,,,,,,,,,,,,,,,,,,,,,,"29.88","54","63",,,,,"73",,,,"10.00",,"290",,"11",,,,,,,,,,,,,,,,,,,,,,,,,,,,,,,,,,,,,"MET061METAR KSQL 130600Z AUTO 29010KT 10SM CLR 17/12 A2988 RMK AO2=","FM-15","4",,,,,,,,,,,,,,,,,,,,,,,,,,,,
"72493893231","2020-07-12T22:15:00","FM-15","7",,,,,,,,,,,,,,,,,,,,,,,,,,,,,,,,,,,,,,"29.89","54","63",,,,,"73",,"CLR:00","29.88","10.00","58","300",,"9",,,,,,,,,,,,,,,,,,,,,,,,,,,,,,,,,,,,,"MET07307/12/20 22:15:02 METAR KSQL 130615Z 30008KT 10SM CLR 17/12 A2989 RMK AO2","FM-15","7",,,,,,,,,,,,,,,,,,,,,,,,,,,,
"72493893231","2020-07-12T22:20:00","FM-15","7",,,,,,,,,,,,,,,,,,,,,,,,,,,,,,,,,,,,,,"29.89","54","63",,,,,"73",,"CLR:00","29.88","10.00","58","300",,"9",,,,,,,,,,,,,,,,,,,,,,,,,,,,,,,,,,,,,"MET07307/12/20 22:20:02 METAR KSQL 130620Z 30008KT 10SM CLR 17/12 A2989 RMK AO2","FM-15","7",,,,,,,,,,,,,,,,,,,,,,,,,,,,
"72493893231","2020-07-12T22:35:00","FM-15","7",,,,,,,,,,,,,,,,,,,,,,,,,,,,,,,,,,,,,,"29.88","54","63",,,,,"73",,"CLR:00","29.87","10.00","58","290",,"8",,,,,,,,,,,,,,,,,,,,,,,,,,,,,,,,,,,,,"MET07307/12/20 22:35:02 METAR KSQL 130635Z 29007KT 10SM CLR 17/12 A2988 RMK AO2","FM-15","7",,,,,,,,,,,,,,,,,,,,,,,,,,,,
"72493893231","2020-07-12T22:40:00","FM-15","7",,,,,,,,,,,,,,,,,,,,,,,,,,,,,,,,,,,,,,"29.88","54","63",,,,,"73",,"CLR:00","29.87","10.00","58","290",,"7",,,,,,,,,,,,,,,,,,,,,,,,,,,,,,,,,,,,,"MET07307/12/20 22:40:02 METAR KSQL 130640Z 29006KT 10SM CLR 17/12 A2988 RMK AO2","FM-15","7",,,,,,,,,,,,,,,,,,,,,,,,,,,,
"72493893231","2020-07-12T22:55:00","FM-15","7",,,,,,,,,,,,,,,,,,,,,,,,,,,,,,,,,,,,,,"29.88","54","63",,,,,"73",,"CLR:00","29.87","10.00","58","290",,"6",,,,,,,,,,,,,,,,,,,,,,,,,,,,,,,,,,,,,"MET07307/12/20 22:55:02 METAR KSQL 130655Z 29005KT 10SM CLR 17/12 A2988 RMK AO2","FM-15","7",,,,,,,,,,,,,,,,,,,,,,,,,,,,
"72493893231","2020-07-12T23:00:00","FM-15","4",,,,,,,,,,,,,,,,,,,,,,,,,,,,,,,,,,,,,,"29.88","54","63",,,,,"73",,,,"10.00",,"290",,"6",,,,,,,,,,,,,,,,,,,,,,,,,,,,,,,,,,,,,"MET061METAR KSQL 130700Z AUTO 29005KT 10SM CLR 17/12 A2988 RMK AO2=","FM-15","4",,,,,,,,,,,,,,,,,,,,,,,,,,,,
"72493893231","2020-07-12T23:15:00","FM-15","7",,,,,,,,,,,,,,,,,,,,,,,,,,,,,,,,,,,,,,"29.88","54","64",,,,,"68",,"CLR:00","29.87","10.00","58","310",,"8",,,,,,,,,,,,,,,,,,,,,,,,,,,,,,,,,,,,,"MET07307/12/20 23:15:02 METAR KSQL 130715Z 31007KT 10SM CLR 18/12 A2988 RMK AO2","FM-15","7",,,,,,,,,,,,,,,,,,,,,,,,,,,,
"72493893231","2020-07-12T23:20:00","FM-15","7",,,,,,,,,,,,,,,,,,,,,,,,,,,,,,,,,,,,,,"29.88","54","64",,,,,"68",,"CLR:00","29.87","10.00","58","300",,"7",,,,,,,,,,,,,,,,,,,,,,,,,,,,,,,,,,,,,"MET07307/12/20 23:20:02 METAR KSQL 130720Z 30006KT 10SM CLR 18/12 A2988 RMK AO2","FM-15","7",,,,,,,,,,,,,,,,,,,,,,,,,,,,
"72493893231","2020-07-12T23:35:00","FM-15","7",,,,,,,,,,,,,,,,,,,,,,,,,,,,,,,,,,,,,,"29.88","54","63",,,,,"73",,"CLR:00","29.87","10.00","58","270",,"7",,,,,,,,,,,,,,,,,,,,,,,,,,,,,,,,,,,,,"MET07307/12/20 23:35:02 METAR KSQL 130735Z 27006KT 10SM CLR 17/12 A2988 RMK AO2","FM-15","7",,,,,,,,,,,,,,,,,,,,,,,,,,,,
"72493893231","2020-07-12T23:40:00","FM-15","7",,,,,,,,,,,,,,,,,,,,,,,,,,,,,,,,,,,,,,"29.88","54","63",,,,,"73",,"CLR:00","29.87","10.00","58","270",,"3",,,,,,,,,,,,,,,,,,,,,,,,,,,,,,,,,,,,,"MET07307/12/20 23:40:02 METAR KSQL 130740Z 27003KT 10SM CLR 17/12 A2988 RMK AO2","FM-15","7",,,,,,,,,,,,,,,,,,,,,,,,,,,,
"72493893231","2020-07-12T23:55:00","FM-15","7",,,,,,,,,,,,,,,,,,,,,,,,,,,,,,,,,,,,,,"29.88","54","63",,,,,"73",,"CLR:00","29.87","10.00","58","000",,"0",,,,,,,,,,,,,,,,,,,,,,,,,,,,,,,,,,,,,"MET07307/12/20 23:55:02 METAR KSQL 130755Z 00000KT 10SM CLR 17/12 A2988 RMK AO2","FM-15","7",,,,,,,,,,,,,,,,,,,,,,,,,,,,
"72493893231","2020-07-13T00:00:00","FM-15","4",,,,,,,,,,,,,,,,,,,,,,,,,,,,,,,,,,,,,,"29.88","54","63",,,,,"73",,,,"10.00",,"000",,"0",,,,,,,,,,,,,,,,,,,,,,,,,,,,,,,,,,,,,"MET061METAR KSQL 130800Z AUTO 00000KT 10SM CLR 17/12 A2988 RMK AO2=","FM-15","4",,,,,,,,,,,,,,,,,,,,,,,,,,,,
"72493893231","2020-07-13T00:15:00","FM-15","7",,,,,,,,,,,,,,,,,,,,,,,,,,,,,,,,,,,,,,"29.88","54","64",,,,,"68",,"CLR:00","29.87","10.00","58","000",,"0",,,,,,,,,,,,,,,,,,,,,,,,,,,,,,,,,,,,,"MET07307/13/20 00:15:02 METAR KSQL 130815Z 00000KT 10SM CLR 18/12 A2988 RMK AO2","FM-15","7",,,,,,,,,,,,,,,,,,,,,,,,,,,,
"72493893231","2020-07-13T00:20:00","FM-15","7",,,,,,,,,,,,,,,,,,,,,,,,,,,,,,,,,,,,,,"29.88","54","64",,,,,"68",,"CLR:00","29.87","10.00","58","000",,"0",,,,,,,,,,,,,,,,,,,,,,,,,,,,,,,,,,,,,"MET07307/13/20 00:20:02 METAR KSQL 130820Z 00000KT 10SM CLR 18/12 A2988 RMK AO2","FM-15","7",,,,,,,,,,,,,,,,,,,,,,,,,,,,
"72493893231","2020-07-13T00:35:00","FM-15","7",,,,,,,,,,,,,,,,,,,,,,,,,,,,,,,,,,,,,,"29.88","54","64",,,,,"68",,"CLR:00","29.87","10.00","58","240",,"3",,,,,,,,,,,,,,,,,,,,,,,,,,,,,,,,,,,,,"MET07307/13/20 00:35:02 METAR KSQL 130835Z 24003KT 10SM CLR 18/12 A2988 RMK AO2","FM-15","7",,,,,,,,,,,,,,,,,,,,,,,,,,,,
"72493893231","2020-07-13T00:40:00","FM-15","7",,,,,,,,,,,,,,,,,,,,,,,,,,,,,,,,,,,,,,"29.88","54","64",,,,,"68",,"CLR:00","29.87","10.00","58","220",,"3",,,,,,,,,,,,,,,,,,,,,,,,,,,,,,,,,,,,,"MET07307/13/20 00:40:02 METAR KSQL 130840Z 22003KT 10SM CLR 18/12 A2988 RMK AO2","FM-15","7",,,,,,,,,,,,,,,,,,,,,,,,,,,,
"72493893231","2020-07-13T00:55:00","FM-15","7",,,,,,,,,,,,,,,,,,,,,,,,,,,,,,,,,,,,,,"29.87","55","63",,,,,"77",,"CLR:00","29.86","10.00","58","150",,"5",,,,,,,,,,,,,,,,,,,,,,,,,,,,,,,,,,,,,"MET07307/13/20 00:55:02 METAR KSQL 130855Z 15004KT 10SM CLR 17/13 A2987 RMK AO2","FM-15","7",,,,,,,,,,,,,,,,,,,,,,,,,,,,
"72493893231","2020-07-13T01:00:00","FM-15","4",,,,,,,,,,,,,,,,,,,,,,,,,,,,,,,,,,,,,,"29.87","55","63",,,,,"77",,,,"10.00",,"150",,"3",,,,,,,,,,,,,,,,,,,,,,,,,,,,,,,,,,,,,"MET061METAR KSQL 130900Z AUTO 15003KT 10SM CLR 17/13 A2987 RMK AO2=","FM-15","4",,,,,,,,,,,,,,,,,,,,,,,,,,,,
"72493893231","2020-07-13T01:15:00","FM-15","7",,,,,,,,,,,,,,,,,,,,,,,,,,,,,,,,,,,,,,"29.87","55","63",,,,,"77",,"CLR:00","29.86","10.00","58","000",,"0",,,,,,,,,,,,,,,,,,,,,,,,,,,,,,,,,,,,,"MET07307/13/20 01:15:02 METAR KSQL 130915Z 00000KT 10SM CLR 17/13 A2987 RMK AO2","FM-15","7",,,,,,,,,,,,,,,,,,,,,,,,,,,,
"72493893231","2020-07-13T01:20:00","FM-15","7",,,,,,,,,,,,,,,,,,,,,,,,,,,,,,,,,,,,,,"29.87","54","63",,,,,"73",,"CLR:00","29.86","10.00","58","000",,"0",,,,,,,,,,,,,,,,,,,,,,,,,,,,,,,,,,,,,"MET07307/13/20 01:20:02 METAR KSQL 130920Z 00000KT 10SM CLR 17/12 A2987 RMK AO2","FM-15","7",,,,,,,,,,,,,,,,,,,,,,,,,,,,
"72493893231","2020-07-13T01:35:00","FM-15","7",,,,,,,,,,,,,,,,,,,,,,,,,,,,,,,,,,,,,,"29.87","54","63",,,,,"73",,"CLR:00","29.86","10.00","58","000",,"0",,,,,,,,,,,,,,,,,,,,,,,,,,,,,,,,,,,,,"MET07307/13/20 01:35:02 METAR KSQL 130935Z 00000KT 10SM CLR 17/12 A2987 RMK AO2","FM-15","7",,,,,,,,,,,,,,,,,,,,,,,,,,,,
"72493893231","2020-07-13T01:40:00","FM-15","7",,,,,,,,,,,,,,,,,,,,,,,,,,,,,,,,,,,,,,"29.87","54","63",,,,,"73",,"CLR:00","29.86","10.00","58","300",,"6",,,,,,,,,,,,,,,,,,,,,,,,,,,,,,,,,,,,,"MET07307/13/20 01:40:02 METAR KSQL 130940Z 30005KT 10SM CLR 17/12 A2987 RMK AO2","FM-15","7",,,,,,,,,,,,,,,,,,,,,,,,,,,,
"72493893231","2020-07-13T01:55:00","FM-15","7",,,,,,,,,,,,,,,,,,,,,,,,,,,,,,,,,,,,,,"29.87","54","63",,,,,"73",,"CLR:00","29.86","10.00","58","300",,"5",,,,,,,,,,,,,,,,,,,,,,,,,,,,,,,,,,,,,"MET07307/13/20 01:55:02 METAR KSQL 130955Z 30004KT 10SM CLR 17/12 A2987 RMK AO2","FM-15","7",,,,,,,,,,,,,,,,,,,,,,,,,,,,
"72493893231","2020-07-13T02:00:00","FM-15","4",,,,,,,,,,,,,,,,,,,,,,,,,,,,,,,,,,,,,,"29.87","54","61",,,,,"77",,,,"10.00",,"300",,"7",,,,,,,,,,,,,,,,,,,,,,,,,,,,,,,,,,,,,"MET061METAR KSQL 131000Z AUTO 30006KT 10SM CLR 16/12 A2987 RMK AO2=","FM-15","4",,,,,,,,,,,,,,,,,,,,,,,,,,,,
"72493893231","2020-07-13T02:15:00","FM-15","7",,,,,,,,,,,,,,,,,,,,,,,,,,,,,,,,,,,,,,"29.86","54","61",,,,,"77",,"CLR:00","29.85","10.00","57","300",,"5",,,,,,,,,,,,,,,,,,,,,,,,,,,,,,,,,,,,,"MET07307/13/20 02:15:02 METAR KSQL 131015Z 30004KT 10SM CLR 16/12 A2986 RMK AO2","FM-15","7",,,,,,,,,,,,,,,,,,,,,,,,,,,,
"72493893231","2020-07-13T02:20:00","FM-15","7",,,,,,,,,,,,,,,,,,,,,,,,,,,,,,,,,,,,,,"29.86","54","61",,,,,"77",,"CLR:00","29.85","10.00","57","310",,"3",,,,,,,,,,,,,,,,,,,,,,,,,,,,,,,,,,,,,"MET07307/13/20 02:20:02 METAR KSQL 131020Z 31003KT 10SM CLR 16/12 A2986 RMK AO2","FM-15","7",,,,,,,,,,,,,,,,,,,,,,,,,,,,
"72493893231","2020-07-13T02:35:00","FM-15","7",,,,,,,,,,,,,,,,,,,,,,,,,,,,,,,,,,,,,,"29.86","54","59",,,,,"82",,"CLR:00","29.85","10.00","56","000",,"0",,,,,,,,,,,,,,,,,,,,,,,,,,,,,,,,,,,,,"MET07307/13/20 02:35:02 METAR KSQL 131035Z 00000KT 10SM CLR 15/12 A2986 RMK AO2","FM-15","7",,,,,,,,,,,,,,,,,,,,,,,,,,,,
"72493893231","2020-07-13T02:40:00","FM-15","7",,,,,,,,,,,,,,,,,,,,,,,,,,,,,,,,,,,,,,"29.86","54","59",,,,,"82",,"CLR:00","29.85","10.00","56","000",,"0",,,,,,,,,,,,,,,,,,,,,,,,,,,,,,,,,,,,,"MET07307/13/20 02:40:02 METAR KSQL 131040Z 00000KT 10SM CLR 15/12 A2986 RMK AO2","FM-15","7",,,,,,,,,,,,,,,,,,,,,,,,,,,,
"72493893231","2020-07-13T02:55:00","FM-15","7",,,,,,,,,,,,,,,,,,,,,,,,,,,,,,,,,,,,,,"29.86","54","61",,,,,"77",,"CLR:00","29.85","10.00","57","000",,"0",,,,,,,,,,,,,,,,,,,,,,,,,,,,,,,,,,,,,"MET07307/13/20 02:55:02 METAR KSQL 131055Z 00000KT 10SM CLR 16/12 A2986 RMK AO2","FM-15","7",,,,,,,,,,,,,,,,,,,,,,,,,,,,
"72493893231","2020-07-13T03:00:00","FM-15","4",,,,,,,,,,,,,,,,,,,,,,,,,,,,,,,,,,,,,,"29.86","54","61",,,,,"77",,,,"10.00",,"000",,"0",,,,,,,,,,,,,,,,,,,,,,,,,,,,,,,,,,,,,"MET061METAR KSQL 131100Z AUTO 00000KT 10SM CLR 16/12 A2986 RMK AO2=","FM-15","4",,,,,,,,,,,,,,,,,,,,,,,,,,,,
"72493893231","2020-07-13T03:15:00","FM-15","7",,,,,,,,,,,,,,,,,,,,,,,,,,,,,,,,,,,,,,"29.86","54","61",,,,,"77",,"CLR:00","29.85","10.00","57","000",,"0",,,,,,,,,,,,,,,,,,,,,,,,,,,,,,,,,,,,,"MET07307/13/20 03:15:02 METAR KSQL 131115Z 00000KT 10SM CLR 16/12 A2986 RMK AO2","FM-15","7",,,,,,,,,,,,,,,,,,,,,,,,,,,,
"72493893231","2020-07-13T03:20:00","FM-15","7",,,,,,,,,,,,,,,,,,,,,,,,,,,,,,,,,,,,,,"29.86","54","61",,,,,"77",,"CLR:00","29.85","10.00","57","270",,"3",,,,,,,,,,,,,,,,,,,,,,,,,,,,,,,,,,,,,"MET07307/13/20 03:20:02 METAR KSQL 131120Z 27003KT 10SM CLR 16/12 A2986 RMK AO2","FM-15","7",,,,,,,,,,,,,,,,,,,,,,,,,,,,
"72493893231","2020-07-13T03:35:00","FM-15","7",,,,,,,,,,,,,,,,,,,,,,,,,,,,,,,,,,,,,,"29.86","54","61",,,,,"77",,"CLR:00","29.85","10.00","57","260",,"3",,,,,,,,,,,,,,,,,,,,,,,,,,,,,,,,,,,,,"MET07307/13/20 03:35:02 METAR KSQL 131135Z 26003KT 10SM CLR 16/12 A2986 RMK AO2","FM-15","7",,,,,,,,,,,,,,,,,,,,,,,,,,,,
"72493893231","2020-07-13T03:40:00","FM-15","7",,,,,,,,,,,,,,,,,,,,,,,,,,,,,,,,,,,,,,"29.86","54","61",,,,,"77",,"CLR:00","29.85","10.00","57","250",,"6",,,,,,,,,,,,,,,,,,,,,,,,,,,,,,,,,,,,,"MET07307/13/20 03:40:02 METAR KSQL 131140Z 25005KT 10SM CLR 16/12 A2986 RMK AO2","FM-15","7",,,,,,,,,,,,,,,,,,,,,,,,,,,,
"72493893231","2020-07-13T03:55:00","FM-15","7",,,,,,,,,,,,,,,,,,,,,,,,,,,,,,,,,,,,,,"29.87","52","61",,,,,"72",,"CLR:00","29.86","10.00","56","240",,"5",,,,,,,,,,,,,,,,,,,,,,,,,,,,,,,,,,,,,"MET07307/13/20 03:55:02 METAR KSQL 131155Z 24004KT 10SM CLR 16/11 A2987 RMK AO2","FM-15","7",,,,,,,,,,,,,,,,,,,,,,,,,,,,
"72493893231","2020-07-13T04:00:00","FM-15","4",,,,,,,,,,,,,,,,,,,,,,,,,,,,,,,,,,,,,,"29.87","52","61",,,,,"72",,,,"10.00",,"260",,"3",,,,,,,,,,,,,,,,,,,,,,,,,,,,,,,,,,,,,"MET061METAR KSQL 131200Z AUTO 26003KT 10SM CLR 16/11 A2987 RMK AO2=","FM-15","4",,,,,,,,,,,,,,,,,,,,,,,,,,,,
"72493893231","2020-07-13T04:15:00","FM-15","7",,,,,,,,,,,,,,,,,,,,,,,,,,,,,,,,,,,,,,"29.87","52","59",,,,,"77",,"CLR:00","29.86","10.00","55","290",,"9",,,,,,,,,,,,,,,,,,,,,,,,,,,,,,,,,,,,,"MET07307/13/20 04:15:02 METAR KSQL 131215Z 29008KT 10SM CLR 15/11 A2987 RMK AO2","FM-15","7",,,,,,,,,,,,,,,,,,,,,,,,,,,,
"72493893231","2020-07-13T04:20:00","FM-15","7",,,,,,,,,,,,,,,,,,,,,,,,,,,,,,,,,,,,,,"29.87","52","59",,,,,"77",,"CLR:00","29.86","10.00","55","300",,"8",,,,,,,,,,,,,,,,,,,,,,,,,,,,,,,,,,,,,"MET07307/13/20 04:20:02 METAR KSQL 131220Z 30007KT 10SM CLR 15/11 A2987 RMK AO2","FM-15","7",,,,,,,,,,,,,,,,,,,,,,,,,,,,
"72493893231","2020-07-13T04:35:00","FM-15","7",,,,,,,,,,,,,,,,,,,,,,,,,,,,,,,,,,,,,,"29.87","52","59",,,,,"77",,"CLR:00","29.86","10.00","55","290",,"7",,,,,,,,,,,,,,,,,,,,,,,,,,,,,,,,,,,,,"MET07307/13/20 04:35:02 METAR KSQL 131235Z 29006KT 10SM CLR 15/11 A2987 RMK AO2","FM-15","7",,,,,,,,,,,,,,,,,,,,,,,,,,,,
"72493893231","2020-07-13T04:40:00","FM-15","7",,,,,,,,,,,,,,,,,,,,,,,,,,,,,,,,,,,,,,"29.87","52","59",,,,,"77",,"CLR:00","29.86","10.00","55","290",,"8",,,,,,,,,,,,,,,,,,,,,,,,,,,,,,,,,,,,,"MET07307/13/20 04:40:02 METAR KSQL 131240Z 29007KT 10SM CLR 15/11 A2987 RMK AO2","FM-15","7",,,,,,,,,,,,,,,,,,,,,,,,,,,,
"72493893231","2020-07-13T04:55:00","FM-15","7",,,,,,,,,,,,,,,,,,,,,,,,,,,,,,,,,,,,,,"29.88","52","59",,,,,"77",,"CLR:00","29.87","10.00","55","280",,"9",,,,,,,,,,,,,,,,,,,,,,,,,,,,,,,,,,,,,"MET07307/13/20 04:55:02 METAR KSQL 131255Z 28008KT 10SM CLR 15/11 A2988 RMK AO2","FM-15","7",,,,,,,,,,,,,,,,,,,,,,,,,,,,
"72493893231","2020-07-13T05:00:00","FM-15","4",,,,,,,,,,,,,,,,,,,,,,,,,,,,,,,,,,,,,,"29.88","52","59",,,,,"77",,,,"10.00",,"280",,"10",,,,,,,,,,,,,,,,,,,,,,,,,,,,,,,,,,,,,"MET061METAR KSQL 131300Z AUTO 28009KT 10SM CLR 15/11 A2988 RMK AO2=","FM-15","4",,,,,,,,,,,,,,,,,,,,,,,,,,,,
"72493893231","2020-07-13T05:15:00","FM-15","7",,,,,,,,,,,,,,,,,,,,,,,,,,,,,,,,,,,,,,"29.87","52","59",,,,,"77",,"CLR:00","29.86","9.00","55","280",,"9",,,,,,,,,,,,,,,,,,,,,,,,,,,,,,,,,,,,,"MET07207/13/20 05:15:02 METAR KSQL 131315Z 28008KT 9SM CLR 15/11 A2987 RMK AO2","FM-15","7",,,,,,,,,,,,,,,,,,,,,,,,,,,,
"72493893231","2020-07-13T05:20:00","FM-15","7",,,,,,,,,,,,,,,,,,,,,,,,,,,,,,,,,,,,,,"29.88","52","59",,,,,"77",,"CLR:00","29.87","9.00","55","290",,"8",,,,,,,,,,,,,,,,,,,,,,,,,,,,,,,,,,,,,"MET07207/13/20 05:20:02 METAR KSQL 131320Z 29007KT 9SM CLR 15/11 A2988 RMK AO2","FM-15","7",,,,,,,,,,,,,,,,,,,,,,,,,,,,
"72493893231","2020-07-13T05:35:00","FM-15","7",,,,,,,,,,,,,,,,,,,,,,,,,,,,,,,,,,,,,,"29.87","52","59",,,,,"77",,"CLR:00","29.86","9.00","55","260",,"7",,,,,,,,,,,,,,,,,,,,,,,,,,,,,,,,,,,,,"MET07207/13/20 05:35:02 METAR KSQL 131335Z 26006KT 9SM CLR 15/11 A2987 RMK AO2","FM-15","7",,,,,,,,,,,,,,,,,,,,,,,,,,,,
"72493893231","2020-07-13T05:40:00","FM-15","7",,,,,,,,,,,,,,,,,,,,,,,,,,,,,,,,,,,,,,"29.88","52","59",,,,,"77",,"CLR:00","29.87","9.00","55","310",,"6",,,,,,,,,,,,,,,,,,,,,,,,,,,,,,,,,,,,,"MET07207/13/20 05:40:02 METAR KSQL 131340Z 31005KT 9SM CLR 15/11 A2988 RMK AO2","FM-15","7",,,,,,,,,,,,,,,,,,,,,,,,,,,,
"72493893231","2020-07-13T05:47:00","FM-15","4",,,,,,,,,,,,,,,,,,,,,,,,,,,,,,,,,,,,,,"29.88","52","61",,,,,"72",,,,"10.00",,"290",,"6",,,,,,,,,,,,,,,,,,,,,,,,,,,,,,,,,,,,,"MET051METAR KSQL 131347Z 29005KT 10SM SCT010 16/11 A2988=","FM-15","4",,,,,,,,,,,,,,,,,,,,,,,,,,,,
"72493893231","2020-07-13T05:55:00","FM-15","7",,,,,,,,,,,,,,,,,,,,,,,,,,,,,,,,,,,,,,"29.88","52","61",,,,,"72",,"CLR:00","29.87","9.00","56","310",,"6",,,,,,,,,,,,,,,,,,,,,,,,,,,,,,,,,,,,,"MET07207/13/20 05:55:02 METAR KSQL 131355Z 31005KT 9SM CLR 16/11 A2988 RMK AO2","FM-15","7",,,,,,,,,,,,,,,,,,,,,,,,,,,,
"72493893231","2020-07-13T06:00:00","FM-15","4",,,,,,,,,,,,,,,,,,,,,,,,,,,,,,,,,,,,,,"29.88","52","61",,,,,"72",,,,"9.00",,"310",,"5",,,,,,,,,,,,,,,,,,,,,,,,,,,,,,,,,,,,,"MET060METAR KSQL 131400Z AUTO 31004KT 9SM CLR 16/11 A2988 RMK AO2=","FM-15","4",,,,,,,,,,,,,,,,,,,,,,,,,,,,
"72493893231","2020-07-13T06:47:00","FM-15","7",,,,,,,,,,,,,,,,,,,,,,,,,,,,,,,,,,,,,,"29.88","57","64",,,,,"78",,"SCT:04 10","29.87","10.00","60","270",,"3",,,,,,,,,,,,,,,,,,,,,,,,,,,,,,,,,,,,,"MET07207/13/20 06:47:02 METAR KSQL 131447Z 27003KT 10SM SCT010 18/14 A2988 RMK","FM-15","7",,,,,,,,,,,,,,,,,,,,,,,,,,,,
"72493893231","2020-07-13T07:47:00","FM-15","7",,,,,,,,,,,,,,,,,,,,,,,,,,,,,,,,,,,,,,"29.89","54","66",,,,,"64",,"FEW:02 10","29.88","10.00","59","280",,"9",,,,,,,,,,,,,,,,,,,,,,,,,,,,,,,,,,,,,"MET07207/13/20 07:47:02 METAR KSQL 131547Z 28008KT 10SM FEW010 19/12 A2989 RMK","FM-15","7",,,,,,,,,,,,,,,,,,,,,,,,,,,,
"72493893231","2020-07-13T08:47:00","FM-15","7",,,,,,,,,,,,,,,,,,,,,,,,,,,,,,,,,,,,,,"29.88","54","66",,,,,"64",,"FEW:02 10","29.87","10.00","59","290",,"10",,,,,,,,,,,,,,,,,,,,,,,,,,,,,,,,,,,,,"MET07207/13/20 08:47:02 METAR KSQL 131647Z 29009KT 10SM FEW010 19/12 A2988 RMK","FM-15","7",,,,,,,,,,,,,,,,,,,,,,,,,,,,
"72493893231","2020-07-13T09:47:00","FM-15","7",,,,,,,,,,,,,,,,,,,,,,,,,,,,,,,,,,,,,,"29.88","54","68",,,,,"60",,"FEW:02 10","29.87","10.00","60","270",,"9",,,,,,,,,,,,,,,,,,,,,,,,,,,,,,,,,,,,,"MET07207/13/20 09:47:02 METAR KSQL 131747Z 27008KT 10SM FEW010 20/12 A2988 RMK","FM-15","7",,,,,,,,,,,,,,,,,,,,,,,,,,,,
"72493893231","2020-07-13T10:57:00","FM-15","7",,,,,,,,,,,,,,,,,,,,,,,,,,,,,,,,,,,,,,"29.89","55","72",,,,,"57",,"FEW:02 10","29.88","10.00","62","290",,"7",,,,,,,,,,,,,,,,,,,,,,,,,,,,,,,,,,,,,"MET07207/13/20 10:57:02 METAR KSQL 131857Z 29006KT 10SM FEW010 22/13 A2989 RMK","FM-15","7",,,,,,,,,,,,,,,,,,,,,,,,,,,,
"72493893231","2020-07-13T12:47:00","FM-15","7",,,,,,,,,,,,,,,,,,,,,,,,,,,,,,,,,,,,,,"29.87","54","73",,,,,"50",,"FEW:02 10","29.86","10.00","62","260","16","11",,,,,,,,,,,,,,,,,,,,,,,,,,,,,,,,,,,,,"MET07507/13/20 12:47:02 METAR KSQL 132047Z 26010G14KT 10SM FEW010 23/12 A2987 RMK","FM-15","7",,,,,,,,,,,,,,,,,,,,,,,,,,,,
"72493893231","2020-07-13T13:57:00","FM-15","7",,,,,,,,,,,,,,,,,,,,,,,,,,,,,,,,,,,,,,"29.87","54","73",,,,,"50",,"FEW:02 10","29.86","10.00","62","240",,"15",,,,,,,,,,,,,,,,,,,,,,,,,,,,,,,,,,,,,"MET07207/13/20 13:57:02 METAR KSQL 132157Z 24013KT 10SM FEW010 23/12 A2987 RMK","FM-15","7",,,,,,,,,,,,,,,,,,,,,,,,,,,,
"72493893231","2020-07-13T14:47:00","FM-15","7",,,,,,,,,,,,,,,,,,,,,,,,,,,,,,,,,,,,,,"29.86","54","75",,,,,"47",,"FEW:02 10","29.85","10.00","63","240","18","14",,,,,,,,,,,,,,,,,,,,,,,,,,,,,,,,,,,,,"MET07507/13/20 14:47:02 METAR KSQL 132247Z 24012G16KT 10SM FEW010 24/12 A2986 RMK","FM-15","7",,,,,,,,,,,,,,,,,,,,,,,,,,,,
"72493893231","2020-07-13T15:51:00","FM-15","7",,,,,,,,,,,,,,,,,,,,,,,,,,,,,,,,,,,,,,"29.85","54","73",,,,,"50",,"FEW:02 10","29.84","10.00","62","240","20","15",,,,,,,,,,,,,,,,,,,,,,,,,,,,,,,,,,,,,"MET07507/13/20 15:51:02 METAR KSQL 132351Z 24013G17KT 10SM FEW010 23/12 A2985 RMK","FM-15","7",,,,,,,,,,,,,,,,,,,,,,,,,,,,
"72493893231","2020-07-13T16:56:00","FM-15","7",,,,,,,,,,,,,,,,,,,,,,,,,,,,,,,,,,,,,,"29.85","52","70",,,,,"53",,"FEW:02 10","29.84","10.00","60","260",,"10",,,,,,,,,,,,,,,,,,,,,,,,,,,,,,,,,,,,,"MET07207/13/20 16:56:01 METAR KSQL 140056Z 26009KT 10SM FEW010 21/11 A2985 RMK","FM-15","7",,,,,,,,,,,,,,,,,,,,,,,,,,,,
"72493893231","2020-07-13T17:58:00","FM-15","7",,,,,,,,,,,,,,,,,,,,,,,,,,,,,,,,,,,,,,"29.87","52","66",,,,,"60",,"FEW:02 10","29.86","10.00","58","300",,"13",,,,,,,,,,,,,,,,,,,,,,,,,,,,,,,,,,,,,"MET07207/13/20 17:58:01 METAR KSQL 140158Z 30011KT 10SM FEW010 19/11 A2987 RMK","FM-15","7",,,,,,,,,,,,,,,,,,,,,,,,,,,,
"72493893231","2020-07-13T18:58:00","FM-15","7",,,,,,,,,,,,,,,,,,,,,,,,,,,,,,,,,,,,,,"29.88","50","63",,,,,"64",,"FEW:02 10","29.87","10.00","56","280",,"5",,,,,,,,,,,,,,,,,,,,,,,,,,,,,,,,,,,,,"MET07207/13/20 18:58:01 METAR KSQL 140258Z 28004KT 10SM FEW010 17/10 A2988 RMK","FM-15","7",,,,,,,,,,,,,,,,,,,,,,,,,,,,
"72493893231","2020-07-13T19:53:00","FM-15","7",,,,,,,,,,,,,,,,,,,,,,,,,,,,,,,,,,,,,,"29.88","50","63",,,,,"64",,"FEW:02 10","29.87","10.00","56","250",,"3",,,,,,,,,,,,,,,,,,,,,,,,,,,,,,,,,,,,,"MET07707/13/20 19:53:02 METAR KSQL 140353Z 25003KT 10SM FEW010 17/10 A2988 RMK LAST","FM-15","7",,,,,,,,,,,,,,,,,,,,,,,,,,,,
"72493893231","2020-07-13T20:15:00","FM-15","7",,,,,,,,,,,,,,,,,,,,,,,,,,,,,,,,,,,,,,"29.89","50","63",,,,,"64",,"CLR:00","29.88","10.00","56","250",,"5",,,,,,,,,,,,,,,,,,,,,,,,,,,,,,,,,,,,,"MET07307/13/20 20:15:02 METAR KSQL 140415Z 25004KT 10SM CLR 17/10 A2989 RMK AO2","FM-15","7",,,,,,,,,,,,,,,,,,,,,,,,,,,,
"72493893231","2020-07-13T20:20:00","FM-15","7",,,,,,,,,,,,,,,,,,,,,,,,,,,,,,,,,,,,,,"29.89","50","63",,,,,"64",,"CLR:00","29.88","10.00","56","250",,"5",,,,,,,,,,,,,,,,,,,,,,,,,,,,,,,,,,,,,"MET07307/13/20 20:20:02 METAR KSQL 140420Z 25004KT 10SM CLR 17/10 A2989 RMK AO2","FM-15","7",,,,,,,,,,,,,,,,,,,,,,,,,,,,
"72493893231","2020-07-13T20:35:00","FM-15","7",,,,,,,,,,,,,,,,,,,,,,,,,,,,,,,,,,,,,,"29.89","50","61",,,,,"68",,"CLR:00","29.88","10.00","55","260",,"5",,,,,,,,,,,,,,,,,,,,,,,,,,,,,,,,,,,,,"MET07307/13/20 20:35:02 METAR KSQL 140435Z 26004KT 10SM CLR 16/10 A2989 RMK AO2","FM-15","7",,,,,,,,,,,,,,,,,,,,,,,,,,,,
"72493893231","2020-07-13T20:40:00","FM-15","7",,,,,,,,,,,,,,,,,,,,,,,,,,,,,,,,,,,,,,"29.90","50","61",,,,,"68",,"CLR:00","29.89","10.00","55","260",,"5",,,,,,,,,,,,,,,,,,,,,,,,,,,,,,,,,,,,,"MET07307/13/20 20:40:02 METAR KSQL 140440Z 26004KT 10SM CLR 16/10 A2990 RMK AO2","FM-15","7",,,,,,,,,,,,,,,,,,,,,,,,,,,,
"72493893231","2020-07-13T20:55:00","FM-15","7",,,,,,,,,,,,,,,,,,,,,,,,,,,,,,,,,,,,,,"29.90","50","61",,,,,"68",,"CLR:00","29.89","10.00","55","300",,"5",,,,,,,,,,,,,,,,,,,,,,,,,,,,,,,,,,,,,"MET07307/13/20 20:55:02 METAR KSQL 140455Z 30004KT 10SM CLR 16/10 A2990 RMK AO2","FM-15","7",,,,,,,,,,,,,,,,,,,,,,,,,,,,
"72493893231","2020-07-13T21:00:00","FM-15","4",,,,,,,,,,,,,,,,,,,,,,,,,,,,,,,,,,,,,,"29.90","50","61",,,,,"68",,,,"10.00",,"260",,"3",,,,,,,,,,,,,,,,,,,,,,,,,,,,,,,,,,,,,"MET061METAR KSQL 140500Z AUTO 26003KT 10SM CLR 16/10 A2990 RMK AO2=","FM-15","4",,,,,,,,,,,,,,,,,,,,,,,,,,,,
"72493893231","2020-07-13T21:15:00","FM-15","7",,,,,,,,,,,,,,,,,,,,,,,,,,,,,,,,,,,,,,"29.91","50","61",,,,,"68",,"CLR:00","29.90","10.00","55","260",,"3",,,,,,,,,,,,,,,,,,,,,,,,,,,,,,,,,,,,,"MET07307/13/20 21:15:02 METAR KSQL 140515Z 26003KT 10SM CLR 16/10 A2991 RMK AO2","FM-15","7",,,,,,,,,,,,,,,,,,,,,,,,,,,,
"72493893231","2020-07-13T21:20:00","FM-15","7",,,,,,,,,,,,,,,,,,,,,,,,,,,,,,,,,,,,,,"29.91","50","61",,,,,"68",,"CLR:00","29.90","10.00","55","280",,"5",,,,,,,,,,,,,,,,,,,,,,,,,,,,,,,,,,,,,"MET07307/13/20 21:20:02 METAR KSQL 140520Z 28004KT 10SM CLR 16/10 A2991 RMK AO2","FM-15","7",,,,,,,,,,,,,,,,,,,,,,,,,,,,
"72493893231","2020-07-13T21:35:00","FM-15","7",,,,,,,,,,,,,,,,,,,,,,,,,,,,,,,,,,,,,,"29.91","50","59",,,,,"72",,"CLR:00","29.90","10.00","54","260",,"6",,,,,,,,,,,,,,,,,,,,,,,,,,,,,,,,,,,,,"MET07307/13/20 21:35:02 METAR KSQL 140535Z 26005KT 10SM CLR 15/10 A2991 RMK AO2","FM-15","7",,,,,,,,,,,,,,,,,,,,,,,,,,,,
"72493893231","2020-07-13T21:40:00","FM-15","7",,,,,,,,,,,,,,,,,,,,,,,,,,,,,,,,,,,,,,"29.91","50","59",,,,,"72",,"CLR:00","29.90","10.00","54","260",,"6",,,,,,,,,,,,,,,,,,,,,,,,,,,,,,,,,,,,,"MET07307/13/20 21:40:02 METAR KSQL 140540Z 26005KT 10SM CLR 15/10 A2991 RMK AO2","FM-15","7",,,,,,,,,,,,,,,,,,,,,,,,,,,,
"72493893231","2020-07-13T21:55:00","FM-15","7",,,,,,,,,,,,,,,,,,,,,,,,,,,,,,,,,,,,,,"29.91","52","59",,,,,"77",,"CLR:00","29.90","10.00","55","260",,"8",,,,,,,,,,,,,,,,,,,,,,,,,,,,,,,,,,,,,"MET07307/13/20 21:55:02 METAR KSQL 140555Z 26007KT 10SM CLR 15/11 A2991 RMK AO2","FM-15","7",,,,,,,,,,,,,,,,,,,,,,,,,,,,
"72493893231","2020-07-13T22:00:00","FM-15","4",,,,,,,,,,,,,,,,,,,,,,,,,,,,,,,,,,,,,,"29.91","50","59",,,,,"72",,,,"10.00",,"250",,"7",,,,,,,,,,,,,,,,,,,,,,,,,,,,,,,,,,,,,"MET061METAR KSQL 140600Z AUTO 25006KT 10SM CLR 15/10 A2991 RMK AO2=","FM-15","4",,,,,,,,,,,,,,,,,,,,,,,,,,,,
"72493893231","2020-07-13T22:15:00","FM-15","7",,,,,,,,,,,,,,,,,,,,,,,,,,,,,,,,,,,,,,"29.92","50","59",,,,,"72",,"CLR:00","29.91","10.00","54","250",,"6",,,,,,,,,,,,,,,,,,,,,,,,,,,,,,,,,,,,,"MET07307/13/20 22:15:02 METAR KSQL 140615Z 25005KT 10SM CLR 15/10 A2992 RMK AO2","FM-15","7",,,,,,,,,,,,,,,,,,,,,,,,,,,,
"72493893231","2020-07-13T22:20:00","FM-15","7",,,,,,,,,,,,,,,,,,,,,,,,,,,,,,,,,,,,,,"29.92","52","59",,,,,"77",,"CLR:00","29.91","10.00","55","260",,"6",,,,,,,,,,,,,,,,,,,,,,,,,,,,,,,,,,,,,"MET07307/13/20 22:20:02 METAR KSQL 140620Z 26005KT 10SM CLR 15/11 A2992 RMK AO2","FM-15","7",,,,,,,,,,,,,,,,,,,,,,,,,,,,
"72493893231","2020-07-13T22:35:00","FM-15","7",,,,,,,,,,,,,,,,,,,,,,,,,,,,,,,,,,,,,,"29.92","52","59",,,,,"77",,"CLR:00","29.91","10.00","55","260",,"6",,,,,,,,,,,,,,,,,,,,,,,,,,,,,,,,,,,,,"MET07307/13/20 22:35:02 METAR KSQL 140635Z 26005KT 10SM CLR 15/11 A2992 RMK AO2","FM-15","7",,,,,,,,,,,,,,,,,,,,,,,,,,,,
"72493893231","2020-07-13T22:40:00","FM-15","7",,,,,,,,,,,,,,,,,,,,,,,,,,,,,,,,,,,,,,"29.92","52","59",,,,,"77",,"CLR:00","29.91","10.00","55","260",,"6",,,,,,,,,,,,,,,,,,,,,,,,,,,,,,,,,,,,,"MET07307/13/20 22:40:02 METAR KSQL 140640Z 26005KT 10SM CLR 15/11 A2992 RMK AO2","FM-15","7",,,,,,,,,,,,,,,,,,,,,,,,,,,,
"72493893231","2020-07-13T22:55:00","FM-15","7",,,,,,,,,,,,,,,,,,,,,,,,,,,,,,,,,,,,,,"29.91","52","59",,,,,"77",,"CLR:00","29.90","10.00","55","250",,"6",,,,,,,,,,,,,,,,,,,,,,,,,,,,,,,,,,,,,"MET07307/13/20 22:55:02 METAR KSQL 140655Z 25005KT 10SM CLR 15/11 A2991 RMK AO2","FM-15","7",,,,,,,,,,,,,,,,,,,,,,,,,,,,
"72493893231","2020-07-13T23:00:00","FM-15","4",,,,,,,,,,,,,,,,,,,,,,,,,,,,,,,,,,,,,,"29.91","52","59",,,,,"77",,,,"10.00",,"260",,"6",,,,,,,,,,,,,,,,,,,,,,,,,,,,,,,,,,,,,"MET061METAR KSQL 140700Z AUTO 26005KT 10SM CLR 15/11 A2991 RMK AO2=","FM-15","4",,,,,,,,,,,,,,,,,,,,,,,,,,,,
"72493893231","2020-07-13T23:15:00","FM-15","7",,,,,,,,,,,,,,,,,,,,,,,,,,,,,,,,,,,,,,"29.92","52","59",,,,,"77",,"CLR:00","29.91","10.00","55","260",,"5",,,,,,,,,,,,,,,,,,,,,,,,,,,,,,,,,,,,,"MET07307/13/20 23:15:02 METAR KSQL 140715Z 26004KT 10SM CLR 15/11 A2992 RMK AO2","FM-15","7",,,,,,,,,,,,,,,,,,,,,,,,,,,,
"72493893231","2020-07-13T23:20:00","FM-15","7",,,,,,,,,,,,,,,,,,,,,,,,,,,,,,,,,,,,,,"29.92","52","59",,,,,"77",,"CLR:00","29.91","10.00","55","250",,"6",,,,,,,,,,,,,,,,,,,,,,,,,,,,,,,,,,,,,"MET07307/13/20 23:20:02 METAR KSQL 140720Z 25005KT 10SM CLR 15/11 A2992 RMK AO2","FM-15","7",,,,,,,,,,,,,,,,,,,,,,,,,,,,
"72493893231","2020-07-13T23:35:00","FM-15","7",,,,,,,,,,,,,,,,,,,,,,,,,,,,,,,,,,,,,,"29.91","52","59",,,,,"77",,"CLR:00","29.90","10.00","55","260",,"3",,,,,,,,,,,,,,,,,,,,,,,,,,,,,,,,,,,,,"MET07307/13/20 23:35:02 METAR KSQL 140735Z 26003KT 10SM CLR 15/11 A2991 RMK AO2","FM-15","7",,,,,,,,,,,,,,,,,,,,,,,,,,,,
"72493893231","2020-07-13T23:40:00","FM-15","7",,,,,,,,,,,,,,,,,,,,,,,,,,,,,,,,,,,,,,"29.91","52","59",,,,,"77",,"CLR:00","29.90","10.00","55","260",,"3",,,,,,,,,,,,,,,,,,,,,,,,,,,,,,,,,,,,,"MET07307/13/20 23:40:02 METAR KSQL 140740Z 26003KT 10SM CLR 15/11 A2991 RMK AO2","FM-15","7",,,,,,,,,,,,,,,,,,,,,,,,,,,,
"72493893231","2020-07-13T23:55:00","FM-15","7",,,,,,,,,,,,,,,,,,,,,,,,,,,,,,,,,,,,,,"29.91","52","59",,,,,"77",,"CLR:00","29.90","10.00","55","250",,"3",,,,,,,,,,,,,,,,,,,,,,,,,,,,,,,,,,,,,"MET07307/13/20 23:55:02 METAR KSQL 140755Z 25003KT 10SM CLR 15/11 A2991 RMK AO2","FM-15","7",,,,,,,,,,,,,,,,,,,,,,,,,,,,
"72493893231","2020-07-14T00:00:00","FM-15","4",,,,,,,,,,,,,,,,,,,,,,,,,,,,,,,,,,,,,,"29.91","52","59",,,,,"77",,,,"10.00",,"000",,"0",,,,,,,,,,,,,,,,,,,,,,,,,,,,,,,,,,,,,"MET061METAR KSQL 140800Z AUTO 00000KT 10SM CLR 15/11 A2991 RMK AO2=","FM-15","4",,,,,,,,,,,,,,,,,,,,,,,,,,,,
"72493893231","2020-07-14T00:15:00","FM-15","7",,,,,,,,,,,,,,,,,,,,,,,,,,,,,,,,,,,,,,"29.91","52","59",,,,,"77",,"CLR:00","29.90","10.00","55","000",,"0",,,,,,,,,,,,,,,,,,,,,,,,,,,,,,,,,,,,,"MET07307/14/20 00:15:02 METAR KSQL 140815Z 00000KT 10SM CLR 15/11 A2991 RMK AO2","FM-15","7",,,,,,,,,,,,,,,,,,,,,,,,,,,,
"72493893231","2020-07-14T00:20:00","FM-15","7",,,,,,,,,,,,,,,,,,,,,,,,,,,,,,,,,,,,,,"29.91","52","59",,,,,"77",,"FEW:02 15","29.90","10.00","55","250",,"3",,,,,,,,,,,,,,,,,,,,,,,,,,,,,,,,,,,,,"MET07607/14/20 00:20:02 METAR KSQL 140820Z 25003KT 10SM FEW015 15/11 A2991 RMK AO2","FM-15","7",,,,,,,,,,,,,,,,,,,,,,,,,,,,
"72493893231","2020-07-14T00:35:00","FM-15","7",,,,,,,,,,,,,,,,,,,,,,,,,,,,,,,,,,,,,,"29.91","52","59",,,,,"77",,"FEW:02 15","29.90","10.00","55","270",,"3",,,,,,,,,,,,,,,,,,,,,,,,,,,,,,,,,,,,,"MET07607/14/20 00:35:02 METAR KSQL 140835Z 27003KT 10SM FEW015 15/11 A2991 RMK AO2","FM-15","7",,,,,,,,,,,,,,,,,,,,,,,,,,,,
"72493893231","2020-07-14T00:40:00","FM-15","7",,,,,,,,,,,,,,,,,,,,,,,,,,,,,,,,,,,,,,"29.90","52","59",,,,,"77",,"FEW:02 15","29.89","10.00","55","280",,"3",,,,,,,,,,,,,,,,,,,,,,,,,,,,,,,,,,,,,"MET07607/14/20 00:40:02 METAR KSQL 140840Z 28003KT 10SM FEW015 15/11 A2990 RMK AO2","FM-15","7",,,,,,,,,,,,,,,,,,,,,,,,,,,,
"72493893231","2020-07-14T00:55:00","FM-15","7",,,,,,,,,,,,,,,,,,,,,,,,,,,,,,,,,,,,,,"29.91","52","59",,,,,"77",,"BKN:07 15","29.90","10.00","55","290",,"3",,,,,,,,,,,,,,,,,,,,,,,,,,,,,,,,,,,,,"MET07607/14/20 00:55:02 METAR KSQL 140855Z 29003KT 10SM BKN015 15/11 A2991 RMK AO2","FM-15","7",,,,,,,,,,,,,,,,,,,,,,,,,,,,
"72493893231","2020-07-14T01:00:00","FM-15","4",,,,,,,,,,,,,,,,,,,,,,,,,,,,,,,,,,,,,,"29.90","52","59",,,,,"77",,,,"10.00",,"000",,"0",,,,,,,,,,,,,,,,,,,,,,,,,,,,,,,,,,,,,"MET064METAR KSQL 140900Z AUTO 00000KT 10SM BKN015 15/11 A2990 RMK AO2=","FM-15","4",,,,,,,,,,,,,,,,,,,,,,,,,,,,
"72493893231","2020-07-14T01:15:00","FM-15","7",,,,,,,,,,,,,,,,,,,,,,,,,,,,,,,,,,,,,,"29.90","52","57",,,,,"82",,"SCT:04 15","29.89","10.00","54","000",,"0",,,,,,,,,,,,,,,,,,,,,,,,,,,,,,,,,,,,,"MET07607/14/20 01:15:02 METAR KSQL 140915Z 00000KT 10SM SCT015 14/11 A2990 RMK AO2","FM-15","7",,,,,,,,,,,,,,,,,,,,,,,,,,,,
"72493893231","2020-07-14T01:20:00","FM-15","7",,,,,,,,,,,,,,,,,,,,,,,,,,,,,,,,,,,,,,"29.90","52","57",,,,,"82",,"SCT:04 15","29.89","10.00","54","000",,"0",,,,,,,,,,,,,,,,,,,,,,,,,,,,,,,,,,,,,"MET07607/14/20 01:20:02 METAR KSQL 140920Z 00000KT 10SM SCT015 14/11 A2990 RMK AO2","FM-15","7",,,,,,,,,,,,,,,,,,,,,,,,,,,,
"72493893231","2020-07-14T01:35:00","FM-15","7",,,,,,,,,,,,,,,,,,,,,,,,,,,,,,,,,,,,,,"29.90","52","57",,,,,"82",,"CLR:00","29.89","10.00","54","000",,"0",,,,,,,,,,,,,,,,,,,,,,,,,,,,,,,,,,,,,"MET07307/14/20 01:35:02 METAR KSQL 140935Z 00000KT 10SM CLR 14/11 A2990 RMK AO2","FM-15","7",,,,,,,,,,,,,,,,,,,,,,,,,,,,
"72493893231","2020-07-14T01:40:00","FM-15","7",,,,,,,,,,,,,,,,,,,,,,,,,,,,,,,,,,,,,,"29.90","52","57",,,,,"82",,"CLR:00","29.89","10.00","54","000",,"0",,,,,,,,,,,,,,,,,,,,,,,,,,,,,,,,,,,,,"MET07307/14/20 01:40:02 METAR KSQL 140940Z 00000KT 10SM CLR 14/11 A2990 RMK AO2","FM-15","7",,,,,,,,,,,,,,,,,,,,,,,,,,,,
"72493893231","2020-07-14T01:55:00","FM-15","7",,,,,,,,,,,,,,,,,,,,,,,,,,,,,,,,,,,,,,"29.90","52","57",,,,,"82",,"CLR:00","29.89","10.00","54","000",,"0",,,,,,,,,,,,,,,,,,,,,,,,,,,,,,,,,,,,,"MET07307/14/20 01:55:02 METAR KSQL 140955Z 00000KT 10SM CLR 14/11 A2990 RMK AO2","FM-15","7",,,,,,,,,,,,,,,,,,,,,,,,,,,,
"72493893231","2020-07-14T02:00:00","FM-15","4",,,,,,,,,,,,,,,,,,,,,,,,,,,,,,,,,,,,,,"29.90","52","57",,,,,"82",,,,"10.00",,"000",,"0",,,,,,,,,,,,,,,,,,,,,,,,,,,,,,,,,,,,,"MET061METAR KSQL 141000Z AUTO 00000KT 10SM CLR 14/11 A2990 RMK AO2=","FM-15","4",,,,,,,,,,,,,,,,,,,,,,,,,,,,
"72493893231","2020-07-14T02:15:00","FM-15","7",,,,,,,,,,,,,,,,,,,,,,,,,,,,,,,,,,,,,,"29.89","52","57",,,,,"82",,"CLR:00","29.88","10.00","54","290",,"3",,,,,,,,,,,,,,,,,,,,,,,,,,,,,,,,,,,,,"MET07307/14/20 02:15:02 METAR KSQL 141015Z 29003KT 10SM CLR 14/11 A2989 RMK AO2","FM-15","7",,,,,,,,,,,,,,,,,,,,,,,,,,,,
"72493893231","2020-07-14T02:20:00","FM-15","7",,,,,,,,,,,,,,,,,,,,,,,,,,,,,,,,,,,,,,"29.89","52","57",,,,,"82",,"CLR:00","29.88","10.00","54","290",,"3",,,,,,,,,,,,,,,,,,,,,,,,,,,,,,,,,,,,,"MET07307/14/20 02:20:02 METAR KSQL 141020Z 29003KT 10SM CLR 14/11 A2989 RMK AO2","FM-15","7",,,,,,,,,,,,,,,,,,,,,,,,,,,,
"72493893231","2020-07-14T02:35:00","FM-15","7",,,,,,,,,,,,,,,,,,,,,,,,,,,,,,,,,,,,,,"29.90","52","57",,,,,"82",,"CLR:00","29.89","10.00","54","000",,"0",,,,,,,,,,,,,,,,,,,,,,,,,,,,,,,,,,,,,"MET07307/14/20 02:35:02 METAR KSQL 141035Z 00000KT 10SM CLR 14/11 A2990 RMK AO2","FM-15","7",,,,,,,,,,,,,,,,,,,,,,,,,,,,
"72493893231","2020-07-14T02:40:00","FM-15","7",,,,,,,,,,,,,,,,,,,,,,,,,,,,,,,,,,,,,,"29.89","52","57",,,,,"82",,"CLR:00","29.88","10.00","54","000",,"0",,,,,,,,,,,,,,,,,,,,,,,,,,,,,,,,,,,,,"MET07307/14/20 02:40:02 METAR KSQL 141040Z 00000KT 10SM CLR 14/11 A2989 RMK AO2","FM-15","7",,,,,,,,,,,,,,,,,,,,,,,,,,,,
"72493893231","2020-07-14T02:55:00","FM-15","7",,,,,,,,,,,,,,,,,,,,,,,,,,,,,,,,,,,,,,"29.90","50","57",,,,,"77",,"CLR:00","29.89","10.00","53","300",,"3",,,,,,,,,,,,,,,,,,,,,,,,,,,,,,,,,,,,,"MET07307/14/20 02:55:02 METAR KSQL 141055Z 30003KT 10SM CLR 14/10 A2990 RMK AO2","FM-15","7",,,,,,,,,,,,,,,,,,,,,,,,,,,,
"72493893231","2020-07-14T03:00:00","FM-15","4",,,,,,,,,,,,,,,,,,,,,,,,,,,,,,,,,,,,,,"29.90","50","57",,,,,"77",,,,"10.00",,"320",,"3",,,,,,,,,,,,,,,,,,,,,,,,,,,,,,,,,,,,,"MET061METAR KSQL 141100Z AUTO 32003KT 10SM CLR 14/10 A2990 RMK AO2=","FM-15","4",,,,,,,,,,,,,,,,,,,,,,,,,,,,
"72493893231","2020-07-14T03:15:00","FM-15","7",,,,,,,,,,,,,,,,,,,,,,,,,,,,,,,,,,,,,,"29.90","50","57",,,,,"77",,"CLR:00","29.89","10.00","53","000",,"0",,,,,,,,,,,,,,,,,,,,,,,,,,,,,,,,,,,,,"MET07307/14/20 03:15:02 METAR KSQL 141115Z 00000KT 10SM CLR 14/10 A2990 RMK AO2","FM-15","7",,,,,,,,,,,,,,,,,,,,,,,,,,,,
"72493893231","2020-07-14T03:20:00","FM-15","7",,,,,,,,,,,,,,,,,,,,,,,,,,,,,,,,,,,,,,"29.90","50","57",,,,,"77",,"CLR:00","29.89","10.00","53","000",,"0",,,,,,,,,,,,,,,,,,,,,,,,,,,,,,,,,,,,,"MET07307/14/20 03:20:02 METAR KSQL 141120Z 00000KT 10SM CLR 14/10 A2990 RMK AO2","FM-15","7",,,,,,,,,,,,,,,,,,,,,,,,,,,,
"72493893231","2020-07-14T03:35:00","FM-15","7",,,,,,,,,,,,,,,,,,,,,,,,,,,,,,,,,,,,,,"29.90","50","57",,,,,"77",,"BKN:07 15","29.89","10.00","53","220",,"5",,,,,,,,,,,,,,,,,,,,,,,,,,,,,,,,,,,,,"MET07607/14/20 03:35:02 METAR KSQL 141135Z 22004KT 10SM BKN015 14/10 A2990 RMK AO2","FM-15","7",,,,,,,,,,,,,,,,,,,,,,,,,,,,
"72493893231","2020-07-14T03:40:00","FM-15","7",,,,,,,,,,,,,,,,,,,,,,,,,,,,,,,,,,,,,,"29.90","50","57",,,,,"77",,"BKN:07 15","29.89","10.00","53","230",,"5",,,,,,,,,,,,,,,,,,,,,,,,,,,,,,,,,,,,,"MET07607/14/20 03:40:02 METAR KSQL 141140Z 23004KT 10SM BKN015 14/10 A2990 RMK AO2","FM-15","7",,,,,,,,,,,,,,,,,,,,,,,,,,,,
"72493893231","2020-07-14T03:55:00","FM-15","7",,,,,,,,,,,,,,,,,,,,,,,,,,,,,,,,,,,,,,"29.90","50","57",,,,,"77",,"BKN:07 15","29.89","10.00","53","250",,"3",,,,,,,,,,,,,,,,,,,,,,,,,,,,,,,,,,,,,"MET07607/14/20 03:55:02 METAR KSQL 141155Z 25003KT 10SM BKN015 14/10 A2990 RMK AO2","FM-15","7",,,,,,,,,,,,,,,,,,,,,,,,,,,,
"72493893231","2020-07-14T04:00:00","FM-15","4",,,,,,,,,,,,,,,,,,,,,,,,,,,,,,,,,,,,,,"29.90","50","57",,,,,"77",,,,"10.00",,"000",,"0",,,,,,,,,,,,,,,,,,,,,,,,,,,,,,,,,,,,,"MET064METAR KSQL 141200Z AUTO 00000KT 10SM BKN015 14/10 A2990 RMK AO2=","FM-15","4",,,,,,,,,,,,,,,,,,,,,,,,,,,,
"72493893231","2020-07-14T04:15:00","FM-15","7",,,,,,,,,,,,,,,,,,,,,,,,,,,,,,,,,,,,,,"29.90","50","57",,,,,"77",,"OVC:08 15","29.89","10.00","53","220",,"3",,,,,,,,,,,,,,,,,,,,,,,,,,,,,,,,,,,,,"MET07607/14/20 04:15:02 METAR KSQL 141215Z 22003KT 10SM OVC015 14/10 A2990 RMK AO2","FM-15","7",,,,,,,,,,,,,,,,,,,,,,,,,,,,
"72493893231","2020-07-14T04:20:00","FM-15","7",,,,,,,,,,,,,,,,,,,,,,,,,,,,,,,,,,,,,,"29.90","50","57",,,,,"77",,"OVC:08 15","29.89","10.00","53","000",,"0",,,,,,,,,,,,,,,,,,,,,,,,,,,,,,,,,,,,,"MET07607/14/20 04:20:02 METAR KSQL 141220Z 00000KT 10SM OVC015 14/10 A2990 RMK AO2","FM-15","7",,,,,,,,,,,,,,,,,,,,,,,,,,,,
"72493893231","2020-07-14T04:35:00","FM-15","7",,,,,,,,,,,,,,,,,,,,,,,,,,,,,,,,,,,,,,"29.90","50","57",,,,,"77",,"OVC:08 15","29.89","10.00","53","000",,"0",,,,,,,,,,,,,,,,,,,,,,,,,,,,,,,,,,,,,"MET07607/14/20 04:35:02 METAR KSQL 141235Z 00000KT 10SM OVC015 14/10 A2990 RMK AO2","FM-15","7",,,,,,,,,,,,,,,,,,,,,,,,,,,,
"72493893231","2020-07-14T04:40:00","FM-15","7",,,,,,,,,,,,,,,,,,,,,,,,,,,,,,,,,,,,,,"29.91","50","57",,,,,"77",,"OVC:08 15","29.90","10.00","53","000",,"0",,,,,,,,,,,,,,,,,,,,,,,,,,,,,,,,,,,,,"MET07607/14/20 04:40:02 METAR KSQL 141240Z 00000KT 10SM OVC015 14/10 A2991 RMK AO2","FM-15","7",,,,,,,,,,,,,,,,,,,,,,,,,,,,
"72493893231","2020-07-14T04:55:00","FM-15","7",,,,,,,,,,,,,,,,,,,,,,,,,,,,,,,,,,,,,,"29.91","50","57",,,,,"77",,"SCT:04 15","29.90","9.00","53","000",,"0",,,,,,,,,,,,,,,,,,,,,,,,,,,,,,,,,,,,,"MET07507/14/20 04:55:02 METAR KSQL 141255Z 00000KT 9SM SCT015 14/10 A2991 RMK AO2","FM-15","7",,,,,,,,,,,,,,,,,,,,,,,,,,,,
"72493893231","2020-07-14T05:00:00","FM-15","4",,,,,,,,,,,,,,,,,,,,,,,,,,,,,,,,,,,,,,"29.91","52","57",,,,,"82",,,,"9.00",,"000",,"0",,,,,,,,,,,,,,,,,,,,,,,,,,,,,,,,,,,,,"MET063METAR KSQL 141300Z AUTO 00000KT 9SM SCT015 14/11 A2991 RMK AO2=","FM-15","4",,,,,,,,,,,,,,,,,,,,,,,,,,,,
"72493893231","2020-07-14T05:15:00","FM-15","7",,,,,,,,,,,,,,,,,,,,,,,,,,,,,,,,,,,,,,"29.91","50","57",,,,,"77",,"CLR:00","29.90","10.00","53","320",,"3",,,,,,,,,,,,,,,,,,,,,,,,,,,,,,,,,,,,,"MET07307/14/20 05:15:02 METAR KSQL 141315Z 32003KT 10SM CLR 14/10 A2991 RMK AO2","FM-15","7",,,,,,,,,,,,,,,,,,,,,,,,,,,,
"72493893231","2020-07-14T05:20:00","FM-15","7",,,,,,,,,,,,,,,,,,,,,,,,,,,,,,,,,,,,,,"29.91","50","55",,,,,"82",,"CLR:00","29.90","9.00","52","320",,"5",,,,,,,,,,,,,,,,,,,,,,,,,,,,,,,,,,,,,"MET07207/14/20 05:20:02 METAR KSQL 141320Z 32004KT 9SM CLR 13/10 A2991 RMK AO2","FM-15","7",,,,,,,,,,,,,,,,,,,,,,,,,,,,
"72493893231","2020-07-14T05:35:00","FM-15","7",,,,,,,,,,,,,,,,,,,,,,,,,,,,,,,,,,,,,,"29.92","50","57",,,,,"77",,"CLR:00","29.91","9.00","53","330",,"3",,,,,,,,,,,,,,,,,,,,,,,,,,,,,,,,,,,,,"MET07207/14/20 05:35:02 METAR KSQL 141335Z 33003KT 9SM CLR 14/10 A2992 RMK AO2","FM-15","7",,,,,,,,,,,,,,,,,,,,,,,,,,,,
"72493893231","2020-07-14T05:40:00","FM-15","7",,,,,,,,,,,,,,,,,,,,,,,,,,,,,,,,,,,,,,"29.92","50","57",,,,,"77",,"CLR:00","29.91","9.00","53","000",,"0",,,,,,,,,,,,,,,,,,,,,,,,,,,,,,,,,,,,,"MET07207/14/20 05:40:02 METAR KSQL 141340Z 00000KT 9SM CLR 14/10 A2992 RMK AO2","FM-15","7",,,,,,,,,,,,,,,,,,,,,,,,,,,,
"72493893231","2020-07-14T05:52:00","FM-15","4",,,,,,,,,,,,,,,,,,,,,,,,,,,,,,,,,,,,,,"29.92","52","57",,,,,"82",,,,"10.00",,"000",,"0",,,,,,,,,,,,,,,,,,,,,,,,,,,,,,,,,,,,,"MET051METAR KSQL 141352Z 00000KT 10SM FEW008 14/11 A2992=","FM-15","4",,,,,,,,,,,,,,,,,,,,,,,,,,,,
"72493893231","2020-07-14T05:55:00","FM-15","7",,,,,,,,,,,,,,,,,,,,,,,,,,,,,,,,,,,,,,"29.92","52","57",,,,,"82",,"CLR:00","29.91","9.00","54","060",,"3",,,,,,,,,,,,,,,,,,,,,,,,,,,,,,,,,,,,,"MET07207/14/20 05:55:02 METAR KSQL 141355Z 06003KT 9SM CLR 14/11 A2992 RMK AO2","FM-15","7",,,,,,,,,,,,,,,,,,,,,,,,,,,,
"72493893231","2020-07-14T06:00:00","FM-15","4",,,,,,,,,,,,,,,,,,,,,,,,,,,,,,,,,,,,,,"29.92","54","57",,,,,"88",,,,"9.00",,"060",,"5",,,,,,,,,,,,,,,,,,,,,,,,,,,,,,,,,,,,,"MET060METAR KSQL 141400Z AUTO 06004KT 9SM CLR 14/12 A2992 RMK AO2=","FM-15","4",,,,,,,,,,,,,,,,,,,,,,,,,,,,
"72493893231","2020-07-14T06:58:00","FM-15","7",,,,,,,,,,,,,,,,,,,,,,,,,,,,,,,,,,,,,,"29.93","54","59",,,,,"82",,"FEW:02 10","29.92","10.00","56","360",,"5",,,,,,,,,,,,,,,,,,,,,,,,,,,,,,,,,,,,,"MET07207/14/20 06:58:02 METAR KSQL 141458Z 36004KT 10SM FEW010 15/12 A2993 RMK","FM-15","7",,,,,,,,,,,,,,,,,,,,,,,,,,,,
"72493893231","2020-07-14T07:53:00","FM-15","7",,,,,,,,,,,,,,,,,,,,,,,,,,,,,,,,,,,,,,"29.95","54","63",,,,,"73",,"FEW:02 10","29.94","10.00","58","010",,"6",,,,,,,,,,,,,,,,,,,,,,,,,,,,,,,,,,,,,"MET07207/14/20 07:53:02 METAR KSQL 141553Z 01005KT 10SM FEW010 17/12 A2995 RMK","FM-15","7",,,,,,,,,,,,,,,,,,,,,,,,,,,,
"72493893231","2020-07-14T08:55:00","FM-15","7",,,,,,,,,,,,,,,,,,,,,,,,,,,,,,,,,,,,,,"29.95","54","64",,,,,"68",,"FEW:02 10","29.94","10.00","58","010",,"5",,,,,,,,,,,,,,,,,,,,,,,,,,,,,,,,,,,,,"MET07207/14/20 08:55:02 METAR KSQL 141655Z 01004KT 10SM FEW010 18/12 A2995 RMK","FM-15","7",,,,,,,,,,,,,,,,,,,,,,,,,,,,
"72493893231","2020-07-14T09:49:00","FM-15","7",,,,,,,,,,,,,,,,,,,,,,,,,,,,,,,,,,,,,,"29.94","55","66",,,,,"68",,"*","29.93","10.00","60","020",,"8",,,,,,,,,,,,,,,,,,,,,,,,,,,,,,,,,,,,,"MET06907/14/20 09:49:02 METAR KSQL 141749Z 02007KT 10SM SKC 19/13 A2994 RMK","FM-15","7",,,,,,,,,,,,,,,,,,,,,,,,,,,,
"72493893231","2020-07-14T10:47:00","FM-15","7",,,,,,,,,,,,,,,,,,,,,,,,,,,,,,,,,,,,,,"29.95","55","66",,,,,"68",,"*","29.94","10.00","60","040",,"5",,,,,,,,,,,,,,,,,,,,,,,,,,,,,,,,,,,,,"MET06907/14/20 10:47:02 METAR KSQL 141847Z 04004KT 10SM SKC 19/13 A2995 RMK","FM-15","7",,,,,,,,,,,,,,,,,,,,,,,,,,,,
"72493893231","2020-07-14T11:47:00","FM-15","7",,,,,,,,,,,,,,,,,,,,,,,,,,,,,,,,,,,,,,"29.94","54","72",,,,,"53",,"*","29.93","10.00","62","280",,"9",,,,,,,,,,,,,,,,,,,,,,,,,,,,,,,,,,,,,"MET06907/14/20 11:47:02 METAR KSQL 141947Z 28008KT 10SM SKC 22/12 A2994 RMK","FM-15","7",,,,,,,,,,,,,,,,,,,,,,,,,,,,
"72493893231","2020-07-14T12:47:00","FM-15","7",,,,,,,,,,,,,,,,,,,,,,,,,,,,,,,,,,,,,,"29.93","54","72",,,,,"53",,"*","29.92","10.00","62","270",,"11",,,,,,,,,,,,,,,,,,,,,,,,,,,,,,,,,,,,,"MET06907/14/20 12:47:02 METAR KSQL 142047Z 27010KT 10SM SKC 22/12 A2993 RMK","FM-15","7",,,,,,,,,,,,,,,,,,,,,,,,,,,,
"72493893231","2020-07-14T14:47:00","FM-15","7",,,,,,,,,,,,,,,,,,,,,,,,,,,,,,,,,,,,,,"29.91","54","72",,,,,"53",,"*","29.90","10.00","62","260",,"14",,,,,,,,,,,,,,,,,,,,,,,,,,,,,,,,,,,,,"MET06907/14/20 14:47:02 METAR KSQL 142247Z 26012KT 10SM SKC 22/12 A2991 RMK","FM-15","7",,,,,,,,,,,,,,,,,,,,,,,,,,,,
"72493893231","2020-07-14T15:49:00","FM-15","7",,,,,,,,,,,,,,,,,,,,,,,,,,,,,,,,,,,,,,"29.89","54","72",,,,,"53",,"*","29.88","10.00","62","250",,"14",,,,,,,,,,,,,,,,,,,,,,,,,,,,,,,,,,,,,"MET06907/14/20 15:49:02 METAR KSQL 142349Z 25012KT 10SM SKC 22/12 A2989 RMK","FM-15","7",,,,,,,,,,,,,,,,,,,,,,,,,,,,
"72493893231","2020-07-14T17:47:00","FM-15","7",,,,,,,,,,,,,,,,,,,,,,,,,,,,,,,,,,,,,,"29.89","54","66",,,,,"64",,"*","29.88","10.00","59","270",,"11",,,,,,,,,,,,,,,,,,,,,,,,,,,,,,,,,,,,,"MET06907/14/20 17:47:01 METAR KSQL 150147Z 27010KT 10SM SKC 19/12 A2989 RMK","FM-15","7",,,,,,,,,,,,,,,,,,,,,,,,,,,,
"72493893231","2020-07-14T18:47:00","FM-15","7",,,,,,,,,,,,,,,,,,,,,,,,,,,,,,,,,,,,,,"29.90","50","66",,,,,"56",,"*","29.89","10.00","57","280",,"7",,,,,,,,,,,,,,,,,,,,,,,,,,,,,,,,,,,,,"MET06907/14/20 18:47:01 METAR KSQL 150247Z 28006KT 10SM SKC 19/10 A2990 RMK","FM-15","7",,,,,,,,,,,,,,,,,,,,,,,,,,,,
"72493893231","2020-07-14T19:47:00","FM-15","7",,,,,,,,,,,,,,,,,,,,,,,,,,,,,,,,,,,,,,"29.91","54","64",,,,,"68",,"*","29.90","10.00","58","230",,"5",,,,,,,,,,,,,,,,,,,,,,,,,,,,,,,,,,,,,"MET07707/14/20 19:47:02 METAR KSQL 150347Z 23004KT 10SM SKC 18/12 A2991 RMK LAST QT","FM-15","7",,,,,,,,,,,,,,,,,,,,,,,,,,,,
"72493893231","2020-07-14T20:15:00","FM-15","7",,,,,,,,,,,,,,,,,,,,,,,,,,,,,,,,,,,,,,"29.92","54","63",,,,,"73",,"CLR:00","29.91","10.00","58","260",,"7",,,,,,,,,,,,,,,,,,,,,,,,,,,,,,,,,,,,,"MET07307/14/20 20:15:02 METAR KSQL 150415Z 26006KT 10SM CLR 17/12 A2992 RMK AO2","FM-15","7",,,,,,,,,,,,,,,,,,,,,,,,,,,,
"72493893231","2020-07-14T20:20:00","FM-15","7",,,,,,,,,,,,,,,,,,,,,,,,,,,,,,,,,,,,,,"29.92","54","63",,,,,"73",,"CLR:00","29.91","10.00","58","260",,"7",,,,,,,,,,,,,,,,,,,,,,,,,,,,,,,,,,,,,"MET07307/14/20 20:20:02 METAR KSQL 150420Z 26006KT 10SM CLR 17/12 A2992 RMK AO2","FM-15","7",,,,,,,,,,,,,,,,,,,,,,,,,,,,
"72493893231","2020-07-14T20:35:00","FM-15","7",,,,,,,,,,,,,,,,,,,,,,,,,,,,,,,,,,,,,,"29.92","54","63",,,,,"73",,"CLR:00","29.91","10.00","58","260",,"5",,,,,,,,,,,,,,,,,,,,,,,,,,,,,,,,,,,,,"MET07307/14/20 20:35:02 METAR KSQL 150435Z 26004KT 10SM CLR 17/12 A2992 RMK AO2","FM-15","7",,,,,,,,,,,,,,,,,,,,,,,,,,,,
"72493893231","2020-07-14T20:40:00","FM-15","7",,,,,,,,,,,,,,,,,,,,,,,,,,,,,,,,,,,,,,"29.92","54","63",,,,,"73",,"CLR:00","29.91","10.00","58","260",,"5",,,,,,,,,,,,,,,,,,,,,,,,,,,,,,,,,,,,,"MET07307/14/20 20:40:02 METAR KSQL 150440Z 26004KT 10SM CLR 17/12 A2992 RMK AO2","FM-15","7",,,,,,,,,,,,,,,,,,,,,,,,,,,,
"72493893231","2020-07-14T20:55:00","FM-15","7",,,,,,,,,,,,,,,,,,,,,,,,,,,,,,,,,,,,,,"29.93","54","63",,,,,"73",,"CLR:00","29.92","10.00","58","260",,"5",,,,,,,,,,,,,,,,,,,,,,,,,,,,,,,,,,,,,"MET07307/14/20 20:55:02 METAR KSQL 150455Z 26004KT 10SM CLR 17/12 A2993 RMK AO2","FM-15","7",,,,,,,,,,,,,,,,,,,,,,,,,,,,
"72493893231","2020-07-14T21:00:00","FM-15","4",,,,,,,,,,,,,,,,,,,,,,,,,,,,,,,,,,,,,,"29.93","54","63",,,,,"73",,,,"10.00",,"250",,"6",,,,,,,,,,,,,,,,,,,,,,,,,,,,,,,,,,,,,"MET061METAR KSQL 150500Z AUTO 25005KT 10SM CLR 17/12 A2993 RMK AO2=","FM-15","4",,,,,,,,,,,,,,,,,,,,,,,,,,,,
"72493893231","2020-07-14T21:15:00","FM-15","7",,,,,,,,,,,,,,,,,,,,,,,,,,,,,,,,,,,,,,"29.93","54","63",,,,,"73",,"CLR:00","29.92","10.00","58","260",,"6",,,,,,,,,,,,,,,,,,,,,,,,,,,,,,,,,,,,,"MET07307/14/20 21:15:02 METAR KSQL 150515Z 26005KT 10SM CLR 17/12 A2993 RMK AO2","FM-15","7",,,,,,,,,,,,,,,,,,,,,,,,,,,,
"72493893231","2020-07-14T21:20:00","FM-15","7",,,,,,,,,,,,,,,,,,,,,,,,,,,,,,,,,,,,,,"29.93","54","63",,,,,"73",,"CLR:00","29.92","10.00","58","260",,"5",,,,,,,,,,,,,,,,,,,,,,,,,,,,,,,,,,,,,"MET07307/14/20 21:20:02 METAR KSQL 150520Z 26004KT 10SM CLR 17/12 A2993 RMK AO2","FM-15","7",,,,,,,,,,,,,,,,,,,,,,,,,,,,
"72493893231","2020-07-14T21:35:00","FM-15","7",,,,,,,,,,,,,,,,,,,,,,,,,,,,,,,,,,,,,,"29.93","54","63",,,,,"73",,"CLR:00","29.92","10.00","58","240",,"5",,,,,,,,,,,,,,,,,,,,,,,,,,,,,,,,,,,,,"MET07307/14/20 21:35:02 METAR KSQL 150535Z 24004KT 10SM CLR 17/12 A2993 RMK AO2","FM-15","7",,,,,,,,,,,,,,,,,,,,,,,,,,,,
"72493893231","2020-07-14T21:40:00","FM-15","7",,,,,,,,,,,,,,,,,,,,,,,,,,,,,,,,,,,,,,"29.93","54","63",,,,,"73",,"CLR:00","29.92","10.00","58","250",,"5",,,,,,,,,,,,,,,,,,,,,,,,,,,,,,,,,,,,,"MET07307/14/20 21:40:02 METAR KSQL 150540Z 25004KT 10SM CLR 17/12 A2993 RMK AO2","FM-15","7",,,,,,,,,,,,,,,,,,,,,,,,,,,,
"72493893231","2020-07-14T21:55:00","FM-15","7",,,,,,,,,,,,,,,,,,,,,,,,,,,,,,,,,,,,,,"29.93","55","63",,,,,"77",,"CLR:00","29.92","10.00","58","150",,"5",,,,,,,,,,,,,,,,,,,,,,,,,,,,,,,,,,,,,"MET07307/14/20 21:55:02 METAR KSQL 150555Z 15004KT 10SM CLR 17/13 A2993 RMK AO2","FM-15","7",,,,,,,,,,,,,,,,,,,,,,,,,,,,
"72493893231","2020-07-14T22:00:00","FM-15","4",,,,,,,,,,,,,,,,,,,,,,,,,,,,,,,,,,,,,,"29.93","55","63",,,,,"77",,,,"10.00",,"160",,"5",,,,,,,,,,,,,,,,,,,,,,,,,,,,,,,,,,,,,"MET061METAR KSQL 150600Z AUTO 16004KT 10SM CLR 17/13 A2993 RMK AO2=","FM-15","4",,,,,,,,,,,,,,,,,,,,,,,,,,,,
"72493893231","2020-07-14T22:15:00","FM-15","7",,,,,,,,,,,,,,,,,,,,,,,,,,,,,,,,,,,,,,"29.93","55","63",,,,,"77",,"CLR:00","29.92","10.00","58","160",,"5",,,,,,,,,,,,,,,,,,,,,,,,,,,,,,,,,,,,,"MET07307/14/20 22:15:02 METAR KSQL 150615Z 16004KT 10SM CLR 17/13 A2993 RMK AO2","FM-15","7",,,,,,,,,,,,,,,,,,,,,,,,,,,,
"72493893231","2020-07-14T22:20:00","FM-15","7",,,,,,,,,,,,,,,,,,,,,,,,,,,,,,,,,,,,,,"29.93","55","63",,,,,"77",,"CLR:00","29.92","10.00","58","170",,"5",,,,,,,,,,,,,,,,,,,,,,,,,,,,,,,,,,,,,"MET07307/14/20 22:20:02 METAR KSQL 150620Z 17004KT 10SM CLR 17/13 A2993 RMK AO2","FM-15","7",,,,,,,,,,,,,,,,,,,,,,,,,,,,
"72493893231","2020-07-14T22:35:00","FM-15","7",,,,,,,,,,,,,,,,,,,,,,,,,,,,,,,,,,,,,,"29.93","55","63",,,,,"77",,"CLR:00","29.92","10.00","58","190",,"5",,,,,,,,,,,,,,,,,,,,,,,,,,,,,,,,,,,,,"MET07307/14/20 22:35:02 METAR KSQL 150635Z 19004KT 10SM CLR 17/13 A2993 RMK AO2","FM-15","7",,,,,,,,,,,,,,,,,,,,,,,,,,,,
"72493893231","2020-07-14T22:40:00","FM-15","7",,,,,,,,,,,,,,,,,,,,,,,,,,,,,,,,,,,,,,"29.93","55","63",,,,,"77",,"CLR:00","29.92","10.00","58","200",,"5",,,,,,,,,,,,,,,,,,,,,,,,,,,,,,,,,,,,,"MET07307/14/20 22:40:02 METAR KSQL 150640Z 20004KT 10SM CLR 17/13 A2993 RMK AO2","FM-15","7",,,,,,,,,,,,,,,,,,,,,,,,,,,,
"72493893231","2020-07-14T22:55:00","FM-15","7",,,,,,,,,,,,,,,,,,,,,,,,,,,,,,,,,,,,,,"29.93","55","63",,,,,"77",,"FEW:02 17","29.92","10.00","58","200",,"5",,,,,,,,,,,,,,,,,,,,,,,,,,,,,,,,,,,,,"MET07607/14/20 22:55:02 METAR KSQL 150655Z 20004KT 10SM FEW017 17/13 A2993 RMK AO2","FM-15","7",,,,,,,,,,,,,,,,,,,,,,,,,,,,
"72493893231","2020-07-14T23:00:00","FM-15","4",,,,,,,,,,,,,,,,,,,,,,,,,,,,,,,,,,,,,,"29.93","55","63",,,,,"77",,,,"10.00",,"190",,"5",,,,,,,,,,,,,,,,,,,,,,,,,,,,,,,,,,,,,"MET064METAR KSQL 150700Z AUTO 19004KT 10SM SCT017 17/13 A2993 RMK AO2=","FM-15","4",,,,,,,,,,,,,,,,,,,,,,,,,,,,
"72493893231","2020-07-14T23:15:00","FM-15","7",,,,,,,,,,,,,,,,,,,,,,,,,,,,,,,,,,,,,,"29.93","55","63",,,,,"77",,"BKN:07 17","29.92","10.00","58","190",,"6",,,,,,,,,,,,,,,,,,,,,,,,,,,,,,,,,,,,,"MET07607/14/20 23:15:02 METAR KSQL 150715Z 19005KT 10SM BKN017 17/13 A2993 RMK AO2","FM-15","7",,,,,,,,,,,,,,,,,,,,,,,,,,,,
"72493893231","2020-07-14T23:20:00","FM-15","7",,,,,,,,,,,,,,,,,,,,,,,,,,,,,,,,,,,,,,"29.93","55","63",,,,,"77",,"OVC:08 17","29.92","10.00","58","180",,"5",,,,,,,,,,,,,,,,,,,,,,,,,,,,,,,,,,,,,"MET07607/14/20 23:20:02 METAR KSQL 150720Z 18004KT 10SM OVC017 17/13 A2993 RMK AO2","FM-15","7",,,,,,,,,,,,,,,,,,,,,,,,,,,,
"72493893231","2020-07-14T23:35:00","FM-15","7",,,,,,,,,,,,,,,,,,,,,,,,,,,,,,,,,,,,,,"29.93","55","63",,,,,"77",,"OVC:08 15","29.92","10.00","58","210",,"5",,,,,,,,,,,,,,,,,,,,,,,,,,,,,,,,,,,,,"MET07607/14/20 23:35:02 METAR KSQL 150735Z 21004KT 10SM OVC015 17/13 A2993 RMK AO2","FM-15","7",,,,,,,,,,,,,,,,,,,,,,,,,,,,
"72493893231","2020-07-14T23:40:00","FM-15","7",,,,,,,,,,,,,,,,,,,,,,,,,,,,,,,,,,,,,,"29.93","55","63",,,,,"77",,"OVC:08 15","29.92","10.00","58","260",,"7",,,,,,,,,,,,,,,,,,,,,,,,,,,,,,,,,,,,,"MET07607/14/20 23:40:02 METAR KSQL 150740Z 26006KT 10SM OVC015 17/13 A2993 RMK AO2","FM-15","7",,,,,,,,,,,,,,,,,,,,,,,,,,,,
"72493893231","2020-07-14T23:55:00","FM-15","7",,,,,,,,,,,,,,,,,,,,,,,,,,,,,,,,,,,,,,"29.93","55","61",,,,,"83",,"OVC:08 15","29.92","10.00","58","260",,"6",,,,,,,,,,,,,,,,,,,,,,,,,,,,,,,,,,,,,"MET07607/14/20 23:55:02 METAR KSQL 150755Z 26005KT 10SM OVC015 16/13 A2993 RMK AO2","FM-15","7",,,,,,,,,,,,,,,,,,,,,,,,,,,,
"72493893231","2020-07-15T00:00:00","FM-15","4",,,,,,,,,,,,,,,,,,,,,,,,,,,,,,,,,,,,,,"29.93","54","61",,,,,"77",,,,"10.00",,"260",,"5",,,,,,,,,,,,,,,,,,,,,,,,,,,,,,,,,,,,,"MET064METAR KSQL 150800Z AUTO 26004KT 10SM OVC015 16/12 A2993 RMK AO2=","FM-15","4",,,,,,,,,,,,,,,,,,,,,,,,,,,,
"72493893231","2020-07-15T00:15:00","FM-15","7",,,,,,,,,,,,,,,,,,,,,,,,,,,,,,,,,,,,,,"29.93","55","61",,,,,"83",,"OVC:08 15","29.92","10.00","58","260",,"5",,,,,,,,,,,,,,,,,,,,,,,,,,,,,,,,,,,,,"MET07607/15/20 00:15:02 METAR KSQL 150815Z 26004KT 10SM OVC015 16/13 A2993 RMK AO2","FM-15","7",,,,,,,,,,,,,,,,,,,,,,,,,,,,
"72493893231","2020-07-15T00:20:00","FM-15","7",,,,,,,,,,,,,,,,,,,,,,,,,,,,,,,,,,,,,,"29.93","55","61",,,,,"83",,"OVC:08 15","29.92","10.00","58","260",,"5",,,,,,,,,,,,,,,,,,,,,,,,,,,,,,,,,,,,,"MET07607/15/20 00:20:02 METAR KSQL 150820Z 26004KT 10SM OVC015 16/13 A2993 RMK AO2","FM-15","7",,,,,,,,,,,,,,,,,,,,,,,,,,,,
"72493893231","2020-07-15T00:35:00","FM-15","7",,,,,,,,,,,,,,,,,,,,,,,,,,,,,,,,,,,,,,"29.92","55","61",,,,,"83",,"OVC:08 15","29.91","10.00","58","270",,"5",,,,,,,,,,,,,,,,,,,,,,,,,,,,,,,,,,,,,"MET07607/15/20 00:35:02 METAR KSQL 150835Z 27004KT 10SM OVC015 16/13 A2992 RMK AO2","FM-15","7",,,,,,,,,,,,,,,,,,,,,,,,,,,,
"72493893231","2020-07-15T00:40:00","FM-15","7",,,,,,,,,,,,,,,,,,,,,,,,,,,,,,,,,,,,,,"29.92","54","61",,,,,"77",,"OVC:08 15","29.91","10.00","57","270",,"6",,,,,,,,,,,,,,,,,,,,,,,,,,,,,,,,,,,,,"MET07607/15/20 00:40:02 METAR KSQL 150840Z 27005KT 10SM OVC015 16/12 A2992 RMK AO2","FM-15","7",,,,,,,,,,,,,,,,,,,,,,,,,,,,
"72493893231","2020-07-15T00:55:00","FM-15","7",,,,,,,,,,,,,,,,,,,,,,,,,,,,,,,,,,,,,,"29.92","54","61",,,,,"77",,"OVC:08 15","29.91","10.00","57","270",,"5",,,,,,,,,,,,,,,,,,,,,,,,,,,,,,,,,,,,,"MET07607/15/20 00:55:02 METAR KSQL 150855Z 27004KT 10SM OVC015 16/12 A2992 RMK AO2","FM-15","7",,,,,,,,,,,,,,,,,,,,,,,,,,,,
"72493893231","2020-07-15T01:00:00","FM-15","4",,,,,,,,,,,,,,,,,,,,,,,,,,,,,,,,,,,,,,"29.92","54","61",,,,,"77",,,,"10.00",,"270",,"6",,,,,,,,,,,,,,,,,,,,,,,,,,,,,,,,,,,,,"MET064METAR KSQL 150900Z AUTO 27005KT 10SM OVC015 16/12 A2992 RMK AO2=","FM-15","4",,,,,,,,,,,,,,,,,,,,,,,,,,,,
"72493893231","2020-07-15T01:15:00","FM-15","7",,,,,,,,,,,,,,,,,,,,,,,,,,,,,,,,,,,,,,"29.92","54","59",,,,,"82",,"OVC:08 15","29.91","10.00","56","270",,"6",,,,,,,,,,,,,,,,,,,,,,,,,,,,,,,,,,,,,"MET07607/15/20 01:15:02 METAR KSQL 150915Z 27005KT 10SM OVC015 15/12 A2992 RMK AO2","FM-15","7",,,,,,,,,,,,,,,,,,,,,,,,,,,,
"72493893231","2020-07-15T01:20:00","FM-15","7",,,,,,,,,,,,,,,,,,,,,,,,,,,,,,,,,,,,,,"29.91","54","59",,,,,"82",,"OVC:08 15","29.90","10.00","56","270",,"6",,,,,,,,,,,,,,,,,,,,,,,,,,,,,,,,,,,,,"MET07607/15/20 01:20:02 METAR KSQL 150920Z 27005KT 10SM OVC015 15/12 A2991 RMK AO2","FM-15","7",,,,,,,,,,,,,,,,,,,,,,,,,,,,
"72493893231","2020-07-15T01:35:00","FM-15","7",,,,,,,,,,,,,,,,,,,,,,,,,,,,,,,,,,,,,,"29.91","54","59",,,,,"82",,"OVC:08 15","29.90","10.00","56","270",,"6",,,,,,,,,,,,,,,,,,,,,,,,,,,,,,,,,,,,,"MET07607/15/20 01:35:02 METAR KSQL 150935Z 27005KT 10SM OVC015 15/12 A2991 RMK AO2","FM-15","7",,,,,,,,,,,,,,,,,,,,,,,,,,,,
"72493893231","2020-07-15T01:40:00","FM-15","7",,,,,,,,,,,,,,,,,,,,,,,,,,,,,,,,,,,,,,"29.91","54","59",,,,,"82",,"OVC:08 15","29.90","10.00","56","260",,"7",,,,,,,,,,,,,,,,,,,,,,,,,,,,,,,,,,,,,"MET07607/15/20 01:40:02 METAR KSQL 150940Z 26006KT 10SM OVC015 15/12 A2991 RMK AO2","FM-15","7",,,,,,,,,,,,,,,,,,,,,,,,,,,,
"72493893231","2020-07-15T01:55:00","FM-15","7",,,,,,,,,,,,,,,,,,,,,,,,,,,,,,,,,,,,,,"29.91","54","59",,,,,"82",,"OVC:08 15","29.90","10.00","56","270",,"5",,,,,,,,,,,,,,,,,,,,,,,,,,,,,,,,,,,,,"MET07607/15/20 01:55:02 METAR KSQL 150955Z 27004KT 10SM OVC015 15/12 A2991 RMK AO2","FM-15","7",,,,,,,,,,,,,,,,,,,,,,,,,,,,
"72493893231","2020-07-15T02:00:00","FM-15","4",,,,,,,,,,,,,,,,,,,,,,,,,,,,,,,,,,,,,,"29.91","54","59",,,,,"82",,,,"10.00",,"270",,"5",,,,,,,,,,,,,,,,,,,,,,,,,,,,,,,,,,,,,"MET064METAR KSQL 151000Z AUTO 27004KT 10SM OVC015 15/12 A2991 RMK AO2=","FM-15","4",,,,,,,,,,,,,,,,,,,,,,,,,,,,
"72493893231","2020-07-15T02:15:00","FM-15","7",,,,,,,,,,,,,,,,,,,,,,,,,,,,,,,,,,,,,,"29.91","54","59",,,,,"82",,"OVC:08 15","29.90","10.00","56","280",,"3",,,,,,,,,,,,,,,,,,,,,,,,,,,,,,,,,,,,,"MET07607/15/20 02:15:02 METAR KSQL 151015Z 28003KT 10SM OVC015 15/12 A2991 RMK AO2","FM-15","7",,,,,,,,,,,,,,,,,,,,,,,,,,,,
"72493893231","2020-07-15T02:20:00","FM-15","7",,,,,,,,,,,,,,,,,,,,,,,,,,,,,,,,,,,,,,"29.91","54","59",,,,,"82",,"OVC:08 15","29.90","10.00","56","270",,"5",,,,,,,,,,,,,,,,,,,,,,,,,,,,,,,,,,,,,"MET07607/15/20 02:20:02 METAR KSQL 151020Z 27004KT 10SM OVC015 15/12 A2991 RMK AO2","FM-15","7",,,,,,,,,,,,,,,,,,,,,,,,,,,,
"72493893231","2020-07-15T02:35:00","FM-15","7",,,,,,,,,,,,,,,,,,,,,,,,,,,,,,,,,,,,,,"29.91","54","59",,,,,"82",,"OVC:08 15","29.90","10.00","56","260",,"5",,,,,,,,,,,,,,,,,,,,,,,,,,,,,,,,,,,,,"MET07607/15/20 02:35:02 METAR KSQL 151035Z 26004KT 10SM OVC015 15/12 A2991 RMK AO2","FM-15","7",,,,,,,,,,,,,,,,,,,,,,,,,,,,
"72493893231","2020-07-15T02:40:00","FM-15","7",,,,,,,,,,,,,,,,,,,,,,,,,,,,,,,,,,,,,,"29.91","54","59",,,,,"82",,"OVC:08 15","29.90","10.00","56","260",,"3",,,,,,,,,,,,,,,,,,,,,,,,,,,,,,,,,,,,,"MET07607/15/20 02:40:02 METAR KSQL 151040Z 26003KT 10SM OVC015 15/12 A2991 RMK AO2","FM-15","7",,,,,,,,,,,,,,,,,,,,,,,,,,,,
"72493893231","2020-07-15T02:55:00","FM-15","7",,,,,,,,,,,,,,,,,,,,,,,,,,,,,,,,,,,,,,"29.91","54","59",,,,,"82",,"OVC:08 15","29.90","10.00","56","270",,"3",,,,,,,,,,,,,,,,,,,,,,,,,,,,,,,,,,,,,"MET07607/15/20 02:55:02 METAR KSQL 151055Z 27003KT 10SM OVC015 15/12 A2991 RMK AO2","FM-15","7",,,,,,,,,,,,,,,,,,,,,,,,,,,,
"72493893231","2020-07-15T03:00:00","FM-15","4",,,,,,,,,,,,,,,,,,,,,,,,,,,,,,,,,,,,,,"29.91","54","61",,,,,"77",,,,"10.00",,"270",,"3",,,,,,,,,,,,,,,,,,,,,,,,,,,,,,,,,,,,,"MET064METAR KSQL 151100Z AUTO 27003KT 10SM OVC015 16/12 A2991 RMK AO2=","FM-15","4",,,,,,,,,,,,,,,,,,,,,,,,,,,,
"72493893231","2020-07-15T03:15:00","FM-15","7",,,,,,,,,,,,,,,,,,,,,,,,,,,,,,,,,,,,,,"29.91","54","59",,,,,"82",,"OVC:08 15","29.90","10.00","56","300",,"5",,,,,,,,,,,,,,,,,,,,,,,,,,,,,,,,,,,,,"MET07607/15/20 03:15:02 METAR KSQL 151115Z 30004KT 10SM OVC015 15/12 A2991 RMK AO2","FM-15","7",,,,,,,,,,,,,,,,,,,,,,,,,,,,
"72493893231","2020-07-15T03:20:00","FM-15","7",,,,,,,,,,,,,,,,,,,,,,,,,,,,,,,,,,,,,,"29.91","54","59",,,,,"82",,"OVC:08 15","29.90","10.00","56","300",,"3",,,,,,,,,,,,,,,,,,,,,,,,,,,,,,,,,,,,,"MET07607/15/20 03:20:02 METAR KSQL 151120Z 30003KT 10SM OVC015 15/12 A2991 RMK AO2","FM-15","7",,,,,,,,,,,,,,,,,,,,,,,,,,,,
"72493893231","2020-07-15T03:35:00","FM-15","7",,,,,,,,,,,,,,,,,,,,,,,,,,,,,,,,,,,,,,"29.92","54","61",,,,,"77",,"OVC:08 15","29.91","10.00","57","280",,"3",,,,,,,,,,,,,,,,,,,,,,,,,,,,,,,,,,,,,"MET07607/15/20 03:35:02 METAR KSQL 151135Z 28003KT 10SM OVC015 16/12 A2992 RMK AO2","FM-15","7",,,,,,,,,,,,,,,,,,,,,,,,,,,,
"72493893231","2020-07-15T03:40:00","FM-15","7",,,,,,,,,,,,,,,,,,,,,,,,,,,,,,,,,,,,,,"29.92","54","61",,,,,"77",,"OVC:08 15","29.91","10.00","57","260",,"3",,,,,,,,,,,,,,,,,,,,,,,,,,,,,,,,,,,,,"MET07607/15/20 03:40:02 METAR KSQL 151140Z 26003KT 10SM OVC015 16/12 A2992 RMK AO2","FM-15","7",,,,,,,,,,,,,,,,,,,,,,,,,,,,
"72493893231","2020-07-15T03:55:00","FM-15","7",,,,,,,,,,,,,,,,,,,,,,,,,,,,,,,,,,,,,,"29.92","54","61",,,,,"77",,"OVC:08 15","29.91","10.00","57","000",,"0",,,,,,,,,,,,,,,,,,,,,,,,,,,,,,,,,,,,,"MET07607/15/20 03:55:02 METAR KSQL 151155Z 00000KT 10SM OVC015 16/12 A2992 RMK AO2","FM-15","7",,,,,,,,,,,,,,,,,,,,,,,,,,,,
"72493893231","2020-07-15T04:00:00","FM-15","4",,,,,,,,,,,,,,,,,,,,,,,,,,,,,,,,,,,,,,"29.92","54","61",,,,,"77",,,,"10.00",,"000",,"0",,,,,,,,,,,,,,,,,,,,,,,,,,,,,,,,,,,,,"MET064METAR KSQL 151200Z AUTO 00000KT 10SM OVC015 16/12 A2992 RMK AO2=","FM-15","4",,,,,,,,,,,,,,,,,,,,,,,,,,,,
"72493893231","2020-07-15T04:15:00","FM-15","7",,,,,,,,,,,,,,,,,,,,,,,,,,,,,,,,,,,,,,"29.92","54","61",,,,,"77",,"OVC:08 17","29.91","10.00","57","000",,"0",,,,,,,,,,,,,,,,,,,,,,,,,,,,,,,,,,,,,"MET07607/15/20 04:15:02 METAR KSQL 151215Z 00000KT 10SM OVC017 16/12 A2992 RMK AO2","FM-15","7",,,,,,,,,,,,,,,,,,,,,,,,,,,,
"72493893231","2020-07-15T04:20:00","FM-15","7",,,,,,,,,,,,,,,,,,,,,,,,,,,,,,,,,,,,,,"29.93","54","61",,,,,"77",,"OVC:08 17","29.92","10.00","57","000",,"0",,,,,,,,,,,,,,,,,,,,,,,,,,,,,,,,,,,,,"MET07607/15/20 04:20:02 METAR KSQL 151220Z 00000KT 10SM OVC017 16/12 A2993 RMK AO2","FM-15","7",,,,,,,,,,,,,,,,,,,,,,,,,,,,
"72493893231","2020-07-15T04:35:00","FM-15","7",,,,,,,,,,,,,,,,,,,,,,,,,,,,,,,,,,,,,,"29.93","54","61",,,,,"77",,"OVC:08 17","29.92","10.00","57","000",,"0",,,,,,,,,,,,,,,,,,,,,,,,,,,,,,,,,,,,,"MET07607/15/20 04:35:02 METAR KSQL 151235Z 00000KT 10SM OVC017 16/12 A2993 RMK AO2","FM-15","7",,,,,,,,,,,,,,,,,,,,,,,,,,,,
"72493893231","2020-07-15T04:40:00","FM-15","7",,,,,,,,,,,,,,,,,,,,,,,,,,,,,,,,,,,,,,"29.92","54","61",,,,,"77",,"OVC:08 17","29.91","10.00","57","290",,"3",,,,,,,,,,,,,,,,,,,,,,,,,,,,,,,,,,,,,"MET07607/15/20 04:40:02 METAR KSQL 151240Z 29003KT 10SM OVC017 16/12 A2992 RMK AO2","FM-15","7",,,,,,,,,,,,,,,,,,,,,,,,,,,,
"72493893231","2020-07-15T04:55:00","FM-15","7",,,,,,,,,,,,,,,,,,,,,,,,,,,,,,,,,,,,,,"29.93","54","61",,,,,"77",,"OVC:08 17","29.92","10.00","57","000",,"0",,,,,,,,,,,,,,,,,,,,,,,,,,,,,,,,,,,,,"MET07607/15/20 04:55:02 METAR KSQL 151255Z 00000KT 10SM OVC017 16/12 A2993 RMK AO2","FM-15","7",,,,,,,,,,,,,,,,,,,,,,,,,,,,
"72493893231","2020-07-15T05:00:00","FM-15","4",,,,,,,,,,,,,,,,,,,,,,,,,,,,,,,,,,,,,,"29.93","54","61",,,,,"77",,,,"10.00",,"000",,"0",,,,,,,,,,,,,,,,,,,,,,,,,,,,,,,,,,,,,"MET064METAR KSQL 151300Z AUTO 00000KT 10SM OVC017 16/12 A2993 RMK AO2=","FM-15","4",,,,,,,,,,,,,,,,,,,,,,,,,,,,
"72493893231","2020-07-15T05:15:00","FM-15","7",,,,,,,,,,,,,,,,,,,,,,,,,,,,,,,,,,,,,,"29.93","54","61",,,,,"77",,"OVC:08 17","29.92","10.00","57","310",,"3",,,,,,,,,,,,,,,,,,,,,,,,,,,,,,,,,,,,,"MET07607/15/20 05:15:02 METAR KSQL 151315Z 31003KT 10SM OVC017 16/12 A2993 RMK AO2","FM-15","7",,,,,,,,,,,,,,,,,,,,,,,,,,,,
"72493893231","2020-07-15T05:20:00","FM-15","7",,,,,,,,,,,,,,,,,,,,,,,,,,,,,,,,,,,,,,"29.93","54","59",,,,,"82",,"OVC:08 17","29.92","10.00","56","310",,"5",,,,,,,,,,,,,,,,,,,,,,,,,,,,,,,,,,,,,"MET07607/15/20 05:20:02 METAR KSQL 151320Z 31004KT 10SM OVC017 15/12 A2993 RMK AO2","FM-15","7",,,,,,,,,,,,,,,,,,,,,,,,,,,,
"72493893231","2020-07-15T05:35:00","FM-15","7",,,,,,,,,,,,,,,,,,,,,,,,,,,,,,,,,,,,,,"29.93","54","59",,,,,"82",,"OVC:08 17","29.92","10.00","56","000",,"0",,,,,,,,,,,,,,,,,,,,,,,,,,,,,,,,,,,,,"MET07607/15/20 05:35:02 METAR KSQL 151335Z 00000KT 10SM OVC017 15/12 A2993 RMK AO2","FM-15","7",,,,,,,,,,,,,,,,,,,,,,,,,,,,
"72493893231","2020-07-15T05:40:00","FM-15","7",,,,,,,,,,,,,,,,,,,,,,,,,,,,,,,,,,,,,,"29.93","54","59",,,,,"82",,"OVC:08 17","29.92","10.00","56","000",,"0",,,,,,,,,,,,,,,,,,,,,,,,,,,,,,,,,,,,,"MET07607/15/20 05:40:02 METAR KSQL 151340Z 00000KT 10SM OVC017 15/12 A2993 RMK AO2","FM-15","7",,,,,,,,,,,,,,,,,,,,,,,,,,,,
"72493893231","2020-07-15T05:55:00","FM-15","7",,,,,,,,,,,,,,,,,,,,,,,,,,,,,,,,,,,,,,"29.93","54","59",,,,,"82",,"OVC:08 17","29.92","10.00","56","000",,"0",,,,,,,,,,,,,,,,,,,,,,,,,,,,,,,,,,,,,"MET07607/15/20 05:55:02 METAR KSQL 151355Z 00000KT 10SM OVC017 15/12 A2993 RMK AO2","FM-15","7",,,,,,,,,,,,,,,,,,,,,,,,,,,,
"72493893231","2020-07-15T06:47:00","FM-15","7",,,,,,,,,,,,,,,,,,,,,,,,,,,,,,,,,,,,,,"29.93","55","61",,,,,"83",,"OVC:08 15","29.92","10.00","58","040",,"5",,,,,,,,,,,,,,,,,,,,,,,,,,,,,,,,,,,,,"MET07207/15/20 06:47:02 METAR KSQL 151447Z 04004KT 10SM OVC015 16/13 A2993 RMK","FM-15","7",,,,,,,,,,,,,,,,,,,,,,,,,,,,
"72493893231","2020-07-15T07:47:00","FM-15","7",,,,,,,,,,,,,,,,,,,,,,,,,,,,,,,,,,,,,,"29.94","55","63",,,,,"77",,"OVC:08 15","29.93","10.00","58","000",,"0",,,,,,,,,,,,,,,,,,,,,,,,,,,,,,,,,,,,,"MET07207/15/20 07:47:02 METAR KSQL 151547Z 00000KT 10SM OVC015 17/13 A2994 RMK","FM-15","7",,,,,,,,,,,,,,,,,,,,,,,,,,,,
"72493893231","2020-07-15T08:47:00","FM-15","7",,,,,,,,,,,,,,,,,,,,,,,,,,,,,,,,,,,,,,"29.94","55","64",,,,,"73",,"BKN:07 15","29.93","10.00","59","010",,"5",,,,,,,,,,,,,,,,,,,,,,,,,,,,,,,,,,,,,"MET07207/15/20 08:47:02 METAR KSQL 151647Z 01004KT 10SM BKN015 18/13 A2994 RMK","FM-15","7",,,,,,,,,,,,,,,,,,,,,,,,,,,,
"72493893231","2020-07-15T09:47:00","FM-15","7",,,,,,,,,,,,,,,,,,,,,,,,,,,,,,,,,,,,,,"29.94","57","64",,,,,"78",,"BKN:07 15","29.93","10.00","60","040",,"6",,,,,,,,,,,,,,,,,,,,,,,,,,,,,,,,,,,,,"MET07207/15/20 09:47:02 METAR KSQL 151747Z 04005KT 10SM BKN015 18/14 A2994 RMK","FM-15","7",,,,,,,,,,,,,,,,,,,,,,,,,,,,
"72493893231","2020-07-15T10:51:00","FM-15","7",,,,,,,,,,,,,,,,,,,,,,,,,,,,,,,,,,,,,,"29.93","57","66",,,,,"73",,"BKN:07 15","29.92","10.00","61","010",,"6",,,,,,,,,,,,,,,,,,,,,,,,,,,,,,,,,,,,,"MET07207/15/20 10:51:02 METAR KSQL 151851Z 01005KT 10SM BKN015 19/14 A2993 RMK","FM-15","7",,,,,,,,,,,,,,,,,,,,,,,,,,,,
"72493893231","2020-07-15T11:47:00","FM-15","7",,,,,,,,,,,,,,,,,,,,,,,,,,,,,,,,,,,,,,"29.92","55","72",,,,,"57",,"BKN:07 15","29.91","10.00","62","260",,"9",,,,,,,,,,,,,,,,,,,,,,,,,,,,,,,,,,,,,"MET07207/15/20 11:47:02 METAR KSQL 151947Z 26008KT 10SM BKN015 22/13 A2992 RMK","FM-15","7",,,,,,,,,,,,,,,,,,,,,,,,,,,,
"72493893231","2020-07-15T12:47:00","FM-15","7",,,,,,,,,,,,,,,,,,,,,,,,,,,,,,,,,,,,,,"29.91","55","72",,,,,"57",,"BKN:07 15","29.90","10.00","62","250",,"10",,,,,,,,,,,,,,,,,,,,,,,,,,,,,,,,,,,,,"MET07207/15/20 12:47:02 METAR KSQL 152047Z 25009KT 10SM BKN015 22/13 A2991 RMK","FM-15","7",,,,,,,,,,,,,,,,,,,,,,,,,,,,
"72493893231","2020-07-15T13:47:00","FM-15","7",,,,,,,,,,,,,,,,,,,,,,,,,,,,,,,,,,,,,,"29.89","54","73",,,,,"50",,"*","29.88","10.00","62","280",,"10",,,,,,,,,,,,,,,,,,,,,,,,,,,,,,,,,,,,,"MET06907/15/20 13:47:02 METAR KSQL 152147Z 28009KT 10SM SKC 23/12 A2989 RMK","FM-15","7",,,,,,,,,,,,,,,,,,,,,,,,,,,,
"72493893231","2020-07-15T14:47:00","FM-15","7",,,,,,,,,,,,,,,,,,,,,,,,,,,,,,,,,,,,,,"29.88","54","73",,,,,"50",,"*","29.87","10.00","62","270",,"11",,,,,,,,,,,,,,,,,,,,,,,,,,,,,,,,,,,,,"MET06907/15/20 14:47:02 METAR KSQL 152247Z 27010KT 10SM SKC 23/12 A2988 RMK","FM-15","7",,,,,,,,,,,,,,,,,,,,,,,,,,,,
"72493893231","2020-07-15T15:47:00","FM-15","7",,,,,,,,,,,,,,,,,,,,,,,,,,,,,,,,,,,,,,"29.88","52","73",,,,,"47",,"*","29.87",,"61","260",,"13",,,,,,,,,,,,,,,,,,,,,,,,,,,,,,,,,,,,,"MET06407/15/20 15:47:02 METAR KSQL 152347Z 26011KT SKC 23/11 A2988 RMK","FM-15","7",,,,,,,,,,,,,,,,,,,,,,,,,,,,
"72493893231","2020-07-15T17:47:00","FM-15","7",,,,,,,,,,,,,,,,,,,,,,,,,,,,,,,,,,,,,,"29.87","54","68",,,,,"60",,"*","29.86","10.00","60","290",,"11",,,,,,,,,,,,,,,,,,,,,,,,,,,,,,,,,,,,,"MET06907/15/20 17:47:01 METAR KSQL 160147Z 29010KT 10SM SKC 20/12 A2987 RMK","FM-15","7",,,,,,,,,,,,,,,,,,,,,,,,,,,,
"72493893231","2020-07-15T18:47:00","FM-15","7",,,,,,,,,,,,,,,,,,,,,,,,,,,,,,,,,,,,,,"29.88","54","64",,,,,"68",,"*","29.87","10.00","58","290",,"9",,,,,,,,,,,,,,,,,,,,,,,,,,,,,,,,,,,,,"MET06907/15/20 18:47:01 METAR KSQL 160247Z 29008KT 10SM SKC 18/12 A2988 RMK","FM-15","7",,,,,,,,,,,,,,,,,,,,,,,,,,,,
"72493893231","2020-07-15T19:47:00","FM-15","7",,,,,,,,,,,,,,,,,,,,,,,,,,,,,,,,,,,,,,"29.89","54","63",,,,,"73",,"*","29.88","10.00","58","300",,"6",,,,,,,,,,,,,,,,,,,,,,,,,,,,,,,,,,,,,"MET07407/15/20 19:47:01 METAR KSQL 160347Z 30005KT 10SM SKC 17/12 A2989 RMK LAST","FM-15","7",,,,,,,,,,,,,,,,,,,,,,,,,,,,
"72493893231","2020-07-15T20:15:00","FM-15","7",,,,,,,,,,,,,,,,,,,,,,,,,,,,,,,,,,,,,,"29.89","54","63",,,,,"73",,"CLR:00","29.88","10.00","58","280",,"5",,,,,,,,,,,,,,,,,,,,,,,,,,,,,,,,,,,,,"MET07307/15/20 20:15:01 METAR KSQL 160415Z 28004KT 10SM CLR 17/12 A2989 RMK AO2","FM-15","7",,,,,,,,,,,,,,,,,,,,,,,,,,,,
"72493893231","2020-07-15T20:20:00","FM-15","7",,,,,,,,,,,,,,,,,,,,,,,,,,,,,,,,,,,,,,"29.89","54","63",,,,,"73",,"CLR:00","29.88","10.00","58","250",,"5",,,,,,,,,,,,,,,,,,,,,,,,,,,,,,,,,,,,,"MET07307/15/20 20:20:01 METAR KSQL 160420Z 25004KT 10SM CLR 17/12 A2989 RMK AO2","FM-15","7",,,,,,,,,,,,,,,,,,,,,,,,,,,,
"72493893231","2020-07-15T20:35:00","FM-15","7",,,,,,,,,,,,,,,,,,,,,,,,,,,,,,,,,,,,,,"29.90","54","63",,,,,"73",,"CLR:00","29.89","10.00","58","270",,"3",,,,,,,,,,,,,,,,,,,,,,,,,,,,,,,,,,,,,"MET07307/15/20 20:35:01 METAR KSQL 160435Z 27003KT 10SM CLR 17/12 A2990 RMK AO2","FM-15","7",,,,,,,,,,,,,,,,,,,,,,,,,,,,
"72493893231","2020-07-15T20:40:00","FM-15","7",,,,,,,,,,,,,,,,,,,,,,,,,,,,,,,,,,,,,,"29.90","54","63",,,,,"73",,"CLR:00","29.89","10.00","58","290",,"3",,,,,,,,,,,,,,,,,,,,,,,,,,,,,,,,,,,,,"MET07307/15/20 20:40:01 METAR KSQL 160440Z 29003KT 10SM CLR 17/12 A2990 RMK AO2","FM-15","7",,,,,,,,,,,,,,,,,,,,,,,,,,,,
"72493893231","2020-07-15T20:55:00","FM-15","7",,,,,,,,,,,,,,,,,,,,,,,,,,,,,,,,,,,,,,"29.91","54","63",,,,,"73",,"CLR:00","29.90","10.00","58","290",,"5",,,,,,,,,,,,,,,,,,,,,,,,,,,,,,,,,,,,,"MET07307/15/20 20:55:01 METAR KSQL 160455Z 29004KT 10SM CLR 17/12 A2991 RMK AO2","FM-15","7",,,,,,,,,,,,,,,,,,,,,,,,,,,,
"72493893231","2020-07-15T21:00:00","FM-15","4",,,,,,,,,,,,,,,,,,,,,,,,,,,,,,,,,,,,,,"29.90","54","63",,,,,"73",,,,"10.00",,"270",,"5",,,,,,,,,,,,,,,,,,,,,,,,,,,,,,,,,,,,,"MET061METAR KSQL 160500Z AUTO 27004KT 10SM CLR 17/12 A2990 RMK AO2=","FM-15","4",,,,,,,,,,,,,,,,,,,,,,,,,,,,
"72493893231","2020-07-15T21:15:00","FM-15","7",,,,,,,,,,,,,,,,,,,,,,,,,,,,,,,,,,,,,,"29.90","54","63",,,,,"73",,"CLR:00","29.89","10.00","58","250",,"5",,,,,,,,,,,,,,,,,,,,,,,,,,,,,,,,,,,,,"MET07307/15/20 21:15:01 METAR KSQL 160515Z 25004KT 10SM CLR 17/12 A2990 RMK AO2","FM-15","7",,,,,,,,,,,,,,,,,,,,,,,,,,,,
"72493893231","2020-07-15T21:20:00","FM-15","7",,,,,,,,,,,,,,,,,,,,,,,,,,,,,,,,,,,,,,"29.90","54","63",,,,,"73",,"CLR:00","29.89","10.00","58","260",,"6",,,,,,,,,,,,,,,,,,,,,,,,,,,,,,,,,,,,,"MET07307/15/20 21:20:01 METAR KSQL 160520Z 26005KT 10SM CLR 17/12 A2990 RMK AO2","FM-15","7",,,,,,,,,,,,,,,,,,,,,,,,,,,,
"72493893231","2020-07-15T21:35:00","FM-15","7",,,,,,,,,,,,,,,,,,,,,,,,,,,,,,,,,,,,,,"29.90","54","63",,,,,"73",,"CLR:00","29.89","10.00","58","260",,"6",,,,,,,,,,,,,,,,,,,,,,,,,,,,,,,,,,,,,"MET07307/15/20 21:35:01 METAR KSQL 160535Z 26005KT 10SM CLR 17/12 A2990 RMK AO2","FM-15","7",,,,,,,,,,,,,,,,,,,,,,,,,,,,
"72493893231","2020-07-15T21:40:00","FM-15","7",,,,,,,,,,,,,,,,,,,,,,,,,,,,,,,,,,,,,,"29.90","54","63",,,,,"73",,"CLR:00","29.89","10.00","58","260",,"7",,,,,,,,,,,,,,,,,,,,,,,,,,,,,,,,,,,,,"MET07307/15/20 21:40:01 METAR KSQL 160540Z 26006KT 10SM CLR 17/12 A2990 RMK AO2","FM-15","7",,,,,,,,,,,,,,,,,,,,,,,,,,,,
"72493893231","2020-07-15T21:55:00","FM-15","7",,,,,,,,,,,,,,,,,,,,,,,,,,,,,,,,,,,,,,"29.91","54","61",,,,,"77",,"CLR:00","29.90","10.00","57","270",,"3",,,,,,,,,,,,,,,,,,,,,,,,,,,,,,,,,,,,,"MET07307/15/20 21:55:01 METAR KSQL 160555Z 27003KT 10SM CLR 16/12 A2991 RMK AO2","FM-15","7",,,,,,,,,,,,,,,,,,,,,,,,,,,,
"72493893231","2020-07-15T22:00:00","FM-15","4",,,,,,,,,,,,,,,,,,,,,,,,,,,,,,,,,,,,,,"29.91","54","61",,,,,"77",,,,"10.00",,"270",,"3",,,,,,,,,,,,,,,,,,,,,,,,,,,,,,,,,,,,,"MET061METAR KSQL 160600Z AUTO 27003KT 10SM CLR 16/12 A2991 RMK AO2=","FM-15","4",,,,,,,,,,,,,,,,,,,,,,,,,,,,
"72493893231","2020-07-15T22:15:00","FM-15","7",,,,,,,,,,,,,,,,,,,,,,,,,,,,,,,,,,,,,,"29.90","54","61",,,,,"77",,"CLR:00","29.89","10.00","57","270",,"3",,,,,,,,,,,,,,,,,,,,,,,,,,,,,,,,,,,,,"MET07307/15/20 22:15:01 METAR KSQL 160615Z 27003KT 10SM CLR 16/12 A2990 RMK AO2","FM-15","7",,,,,,,,,,,,,,,,,,,,,,,,,,,,
"72493893231","2020-07-15T22:20:00","FM-15","7",,,,,,,,,,,,,,,,,,,,,,,,,,,,,,,,,,,,,,"29.90","54","63",,,,,"73",,"CLR:00","29.89","10.00","58","260",,"3",,,,,,,,,,,,,,,,,,,,,,,,,,,,,,,,,,,,,"MET07307/15/20 22:20:01 METAR KSQL 160620Z 26003KT 10SM CLR 17/12 A2990 RMK AO2","FM-15","7",,,,,,,,,,,,,,,,,,,,,,,,,,,,
"72493893231","2020-07-15T22:35:00","FM-15","7",,,,,,,,,,,,,,,,,,,,,,,,,,,,,,,,,,,,,,"29.91","54","63",,,,,"73",,"CLR:00","29.90","10.00","58","250",,"3",,,,,,,,,,,,,,,,,,,,,,,,,,,,,,,,,,,,,"MET07307/15/20 22:35:01 METAR KSQL 160635Z 25003KT 10SM CLR 17/12 A2991 RMK AO2","FM-15","7",,,,,,,,,,,,,,,,,,,,,,,,,,,,
"72493893231","2020-07-15T22:40:00","FM-15","7",,,,,,,,,,,,,,,,,,,,,,,,,,,,,,,,,,,,,,"29.90","54","63",,,,,"73",,"CLR:00","29.89","10.00","58","250",,"3",,,,,,,,,,,,,,,,,,,,,,,,,,,,,,,,,,,,,"MET07307/15/20 22:40:01 METAR KSQL 160640Z 25003KT 10SM CLR 17/12 A2990 RMK AO2","FM-15","7",,,,,,,,,,,,,,,,,,,,,,,,,,,,
"72493893231","2020-07-15T22:55:00","FM-15","7",,,,,,,,,,,,,,,,,,,,,,,,,,,,,,,,,,,,,,"29.90","54","61",,,,,"77",,"CLR:00","29.89","10.00","57","260",,"5",,,,,,,,,,,,,,,,,,,,,,,,,,,,,,,,,,,,,"MET07307/15/20 22:55:01 METAR KSQL 160655Z 26004KT 10SM CLR 16/12 A2990 RMK AO2","FM-15","7",,,,,,,,,,,,,,,,,,,,,,,,,,,,
"72493893231","2020-07-15T23:00:00","FM-15","4",,,,,,,,,,,,,,,,,,,,,,,,,,,,,,,,,,,,,,"29.90","54","61",,,,,"77",,,,"10.00",,"270",,"5",,,,,,,,,,,,,,,,,,,,,,,,,,,,,,,,,,,,,"MET061METAR KSQL 160700Z AUTO 27004KT 10SM CLR 16/12 A2990 RMK AO2=","FM-15","4",,,,,,,,,,,,,,,,,,,,,,,,,,,,
"72493893231","2020-07-15T23:15:00","FM-15","7",,,,,,,,,,,,,,,,,,,,,,,,,,,,,,,,,,,,,,"29.90","54","61",,,,,"77",,"CLR:00","29.89","10.00","57","270",,"3",,,,,,,,,,,,,,,,,,,,,,,,,,,,,,,,,,,,,"MET07307/15/20 23:15:01 METAR KSQL 160715Z 27003KT 10SM CLR 16/12 A2990 RMK AO2","FM-15","7",,,,,,,,,,,,,,,,,,,,,,,,,,,,
"72493893231","2020-07-15T23:20:00","FM-15","7",,,,,,,,,,,,,,,,,,,,,,,,,,,,,,,,,,,,,,"29.90","54","59",,,,,"82",,"CLR:00","29.89","10.00","56","250",,"3",,,,,,,,,,,,,,,,,,,,,,,,,,,,,,,,,,,,,"MET07307/15/20 23:20:01 METAR KSQL 160720Z 25003KT 10SM CLR 15/12 A2990 RMK AO2","FM-15","7",,,,,,,,,,,,,,,,,,,,,,,,,,,,
"72493893231","2020-07-15T23:35:00","FM-15","7",,,,,,,,,,,,,,,,,,,,,,,,,,,,,,,,,,,,,,"29.90","54","59",,,,,"82",,"CLR:00","29.89","10.00","56","260",,"5",,,,,,,,,,,,,,,,,,,,,,,,,,,,,,,,,,,,,"MET07307/15/20 23:35:01 METAR KSQL 160735Z 26004KT 10SM CLR 15/12 A2990 RMK AO2","FM-15","7",,,,,,,,,,,,,,,,,,,,,,,,,,,,
"72493893231","2020-07-15T23:40:00","FM-15","7",,,,,,,,,,,,,,,,,,,,,,,,,,,,,,,,,,,,,,"29.90","54","59",,,,,"82",,"CLR:00","29.89","10.00","56","270",,"3",,,,,,,,,,,,,,,,,,,,,,,,,,,,,,,,,,,,,"MET07307/15/20 23:40:01 METAR KSQL 160740Z 27003KT 10SM CLR 15/12 A2990 RMK AO2","FM-15","7",,,,,,,,,,,,,,,,,,,,,,,,,,,,
"72493893231","2020-07-15T23:55:00","FM-15","7",,,,,,,,,,,,,,,,,,,,,,,,,,,,,,,,,,,,,,"29.90","54","59",,,,,"82",,"CLR:00","29.89","10.00","56","280",,"3",,,,,,,,,,,,,,,,,,,,,,,,,,,,,,,,,,,,,"MET07307/15/20 23:55:01 METAR KSQL 160755Z 28003KT 10SM CLR 15/12 A2990 RMK AO2","FM-15","7",,,,,,,,,,,,,,,,,,,,,,,,,,,,
"72493893231","2020-07-16T00:00:00","FM-15","4",,,,,,,,,,,,,,,,,,,,,,,,,,,,,,,,,,,,,,"29.90","54","59",,,,,"82",,,,"10.00",,"000",,"0",,,,,,,,,,,,,,,,,,,,,,,,,,,,,,,,,,,,,"MET061METAR KSQL 160800Z AUTO 00000KT 10SM CLR 15/12 A2990 RMK AO2=","FM-15","4",,,,,,,,,,,,,,,,,,,,,,,,,,,,
"72493893231","2020-07-16T00:15:00","FM-15","7",,,,,,,,,,,,,,,,,,,,,,,,,,,,,,,,,,,,,,"29.90","55","59",,,,,"88",,"CLR:00","29.89","10.00","57","280",,"3",,,,,,,,,,,,,,,,,,,,,,,,,,,,,,,,,,,,,"MET07307/16/20 00:15:01 METAR KSQL 160815Z 28003KT 10SM CLR 15/13 A2990 RMK AO2","FM-15","7",,,,,,,,,,,,,,,,,,,,,,,,,,,,
"72493893231","2020-07-16T00:20:00","FM-15","7",,,,,,,,,,,,,,,,,,,,,,,,,,,,,,,,,,,,,,"29.90","55","59",,,,,"88",,"CLR:00","29.89","10.00","57","280",,"3",,,,,,,,,,,,,,,,,,,,,,,,,,,,,,,,,,,,,"MET07307/16/20 00:20:01 METAR KSQL 160820Z 28003KT 10SM CLR 15/13 A2990 RMK AO2","FM-15","7",,,,,,,,,,,,,,,,,,,,,,,,,,,,
"72493893231","2020-07-16T00:35:00","FM-15","7",,,,,,,,,,,,,,,,,,,,,,,,,,,,,,,,,,,,,,"29.90","55","59",,,,,"88",,"CLR:00","29.89","10.00","57","300",,"3",,,,,,,,,,,,,,,,,,,,,,,,,,,,,,,,,,,,,"MET07307/16/20 00:35:01 METAR KSQL 160835Z 30003KT 10SM CLR 15/13 A2990 RMK AO2","FM-15","7",,,,,,,,,,,,,,,,,,,,,,,,,,,,
"72493893231","2020-07-16T00:40:00","FM-15","7",,,,,,,,,,,,,,,,,,,,,,,,,,,,,,,,,,,,,,"29.90","54","59",,,,,"82",,"FEW:02 18","29.89","10.00","56","300",,"3",,,,,,,,,,,,,,,,,,,,,,,,,,,,,,,,,,,,,"MET07607/16/20 00:40:01 METAR KSQL 160840Z 30003KT 10SM FEW018 15/12 A2990 RMK AO2","FM-15","7",,,,,,,,,,,,,,,,,,,,,,,,,,,,
"72493893231","2020-07-16T00:55:00","FM-15","7",,,,,,,,,,,,,,,,,,,,,,,,,,,,,,,,,,,,,,"29.90","55","59",,,,,"88",,"SCT:04 18","29.89","10.00","57","270",,"3",,,,,,,,,,,,,,,,,,,,,,,,,,,,,,,,,,,,,"MET07607/16/20 00:55:01 METAR KSQL 160855Z 27003KT 10SM SCT018 15/13 A2990 RMK AO2","FM-15","7",,,,,,,,,,,,,,,,,,,,,,,,,,,,
"72493893231","2020-07-16T01:00:00","FM-15","4",,,,,,,,,,,,,,,,,,,,,,,,,,,,,,,,,,,,,,"29.90","55","59",,,,,"88",,,,"10.00",,"280",,"3",,,,,,,,,,,,,,,,,,,,,,,,,,,,,,,,,,,,,"MET064METAR KSQL 160900Z AUTO 28003KT 10SM SCT018 15/13 A2990 RMK AO2=","FM-15","4",,,,,,,,,,,,,,,,,,,,,,,,,,,,
"72493893231","2020-07-16T01:15:00","FM-15","7",,,,,,,,,,,,,,,,,,,,,,,,,,,,,,,,,,,,,,"29.90","55","59",,,,,"88",,"BKN:07 16","29.89","10.00","57","250",,"3",,,,,,,,,,,,,,,,,,,,,,,,,,,,,,,,,,,,,"MET07607/16/20 01:15:01 METAR KSQL 160915Z 25003KT 10SM BKN016 15/13 A2990 RMK AO2","FM-15","7",,,,,,,,,,,,,,,,,,,,,,,,,,,,
"72493893231","2020-07-16T01:20:00","FM-15","7",,,,,,,,,,,,,,,,,,,,,,,,,,,,,,,,,,,,,,"29.90","55","59",,,,,"88",,"BKN:07 14","29.89","10.00","57","240",,"3",,,,,,,,,,,,,,,,,,,,,,,,,,,,,,,,,,,,,"MET07607/16/20 01:20:01 METAR KSQL 160920Z 24003KT 10SM BKN014 15/13 A2990 RMK AO2","FM-15","7",,,,,,,,,,,,,,,,,,,,,,,,,,,,
"72493893231","2020-07-16T01:35:00","FM-15","7",,,,,,,,,,,,,,,,,,,,,,,,,,,,,,,,,,,,,,"29.90","55","61",,,,,"83",,"OVC:08 14","29.89","10.00","58","250",,"3",,,,,,,,,,,,,,,,,,,,,,,,,,,,,,,,,,,,,"MET07607/16/20 01:35:01 METAR KSQL 160935Z 25003KT 10SM OVC014 16/13 A2990 RMK AO2","FM-15","7",,,,,,,,,,,,,,,,,,,,,,,,,,,,
"72493893231","2020-07-16T01:40:00","FM-15","7",,,,,,,,,,,,,,,,,,,,,,,,,,,,,,,,,,,,,,"29.90","55","61",,,,,"83",,"OVC:08 14","29.89","10.00","58","260",,"3",,,,,,,,,,,,,,,,,,,,,,,,,,,,,,,,,,,,,"MET07607/16/20 01:40:01 METAR KSQL 160940Z 26003KT 10SM OVC014 16/13 A2990 RMK AO2","FM-15","7",,,,,,,,,,,,,,,,,,,,,,,,,,,,
"72493893231","2020-07-16T01:55:00","FM-15","7",,,,,,,,,,,,,,,,,,,,,,,,,,,,,,,,,,,,,,"29.90","55","59",,,,,"88",,"OVC:08 14","29.89","10.00","57","280",,"3",,,,,,,,,,,,,,,,,,,,,,,,,,,,,,,,,,,,,"MET07607/16/20 01:55:01 METAR KSQL 160955Z 28003KT 10SM OVC014 15/13 A2990 RMK AO2","FM-15","7",,,,,,,,,,,,,,,,,,,,,,,,,,,,
"72493893231","2020-07-16T02:00:00","FM-15","4",,,,,,,,,,,,,,,,,,,,,,,,,,,,,,,,,,,,,,"29.89","55","59",,,,,"88",,,,"10.00",,"270",,"5",,,,,,,,,,,,,,,,,,,,,,,,,,,,,,,,,,,,,"MET064METAR KSQL 161000Z AUTO 27004KT 10SM OVC014 15/13 A2989 RMK AO2=","FM-15","4",,,,,,,,,,,,,,,,,,,,,,,,,,,,
"72493893231","2020-07-16T02:15:00","FM-15","7",,,,,,,,,,,,,,,,,,,,,,,,,,,,,,,,,,,,,,"29.89","55","59",,,,,"88",,"OVC:08 14","29.88","10.00","57","290",,"3",,,,,,,,,,,,,,,,,,,,,,,,,,,,,,,,,,,,,"MET07607/16/20 02:15:01 METAR KSQL 161015Z 29003KT 10SM OVC014 15/13 A2989 RMK AO2","FM-15","7",,,,,,,,,,,,,,,,,,,,,,,,,,,,
"72493893231","2020-07-16T02:20:00","FM-15","7",,,,,,,,,,,,,,,,,,,,,,,,,,,,,,,,,,,,,,"29.89","55","59",,,,,"88",,"OVC:08 14","29.88","10.00","57","300",,"5",,,,,,,,,,,,,,,,,,,,,,,,,,,,,,,,,,,,,"MET07607/16/20 02:20:01 METAR KSQL 161020Z 30004KT 10SM OVC014 15/13 A2989 RMK AO2","FM-15","7",,,,,,,,,,,,,,,,,,,,,,,,,,,,
"72493893231","2020-07-16T02:35:00","FM-15","7",,,,,,,,,,,,,,,,,,,,,,,,,,,,,,,,,,,,,,"29.89","55","59",,,,,"88",,"OVC:08 14","29.88","10.00","57","290",,"5",,,,,,,,,,,,,,,,,,,,,,,,,,,,,,,,,,,,,"MET07607/16/20 02:35:01 METAR KSQL 161035Z 29004KT 10SM OVC014 15/13 A2989 RMK AO2","FM-15","7",,,,,,,,,,,,,,,,,,,,,,,,,,,,
"72493893231","2020-07-16T02:40:00","FM-15","7",,,,,,,,,,,,,,,,,,,,,,,,,,,,,,,,,,,,,,"29.89","55","59",,,,,"88",,"OVC:08 14","29.88","10.00","57","300",,"5",,,,,,,,,,,,,,,,,,,,,,,,,,,,,,,,,,,,,"MET07607/16/20 02:40:01 METAR KSQL 161040Z 30004KT 10SM OVC014 15/13 A2989 RMK AO2","FM-15","7",,,,,,,,,,,,,,,,,,,,,,,,,,,,
"72493893231","2020-07-16T02:55:00","FM-15","7",,,,,,,,,,,,,,,,,,,,,,,,,,,,,,,,,,,,,,"29.89","54","59",,,,,"82",,"OVC:08 14","29.88","10.00","56","300",,"5",,,,,,,,,,,,,,,,,,,,,,,,,,,,,,,,,,,,,"MET07607/16/20 02:55:01 METAR KSQL 161055Z 30004KT 10SM OVC014 15/12 A2989 RMK AO2","FM-15","7",,,,,,,,,,,,,,,,,,,,,,,,,,,,
"72493893231","2020-07-16T03:00:00","FM-15","4",,,,,,,,,,,,,,,,,,,,,,,,,,,,,,,,,,,,,,"29.89","54","59",,,,,"82",,,,"10.00",,"300",,"5",,,,,,,,,,,,,,,,,,,,,,,,,,,,,,,,,,,,,"MET064METAR KSQL 161100Z AUTO 30004KT 10SM OVC014 15/12 A2989 RMK AO2=","FM-15","4",,,,,,,,,,,,,,,,,,,,,,,,,,,,
"72493893231","2020-07-16T03:15:00","FM-15","7",,,,,,,,,,,,,,,,,,,,,,,,,,,,,,,,,,,,,,"29.89","54","59",,,,,"82",,"OVC:08 14","29.88","10.00","56","310",,"5",,,,,,,,,,,,,,,,,,,,,,,,,,,,,,,,,,,,,"MET07607/16/20 03:15:02 METAR KSQL 161115Z 31004KT 10SM OVC014 15/12 A2989 RMK AO2","FM-15","7",,,,,,,,,,,,,,,,,,,,,,,,,,,,
"72493893231","2020-07-16T03:20:00","FM-15","7",,,,,,,,,,,,,,,,,,,,,,,,,,,,,,,,,,,,,,"29.89","54","59",,,,,"82",,"OVC:08 14","29.88","10.00","56","300",,"3",,,,,,,,,,,,,,,,,,,,,,,,,,,,,,,,,,,,,"MET07607/16/20 03:20:02 METAR KSQL 161120Z 30003KT 10SM OVC014 15/12 A2989 RMK AO2","FM-15","7",,,,,,,,,,,,,,,,,,,,,,,,,,,,
"72493893231","2020-07-16T03:35:00","FM-15","7",,,,,,,,,,,,,,,,,,,,,,,,,,,,,,,,,,,,,,"29.89","54","59",,,,,"82",,"OVC:08 14","29.88","10.00","56","310",,"3",,,,,,,,,,,,,,,,,,,,,,,,,,,,,,,,,,,,,"MET07607/16/20 03:35:02 METAR KSQL 161135Z 31003KT 10SM OVC014 15/12 A2989 RMK AO2","FM-15","7",,,,,,,,,,,,,,,,,,,,,,,,,,,,
"72493893231","2020-07-16T03:40:00","FM-15","7",,,,,,,,,,,,,,,,,,,,,,,,,,,,,,,,,,,,,,"29.89","54","59",,,,,"82",,"OVC:08 14","29.88","10.00","56","310",,"5",,,,,,,,,,,,,,,,,,,,,,,,,,,,,,,,,,,,,"MET07607/16/20 03:40:02 METAR KSQL 161140Z 31004KT 10SM OVC014 15/12 A2989 RMK AO2","FM-15","7",,,,,,,,,,,,,,,,,,,,,,,,,,,,
"72493893231","2020-07-16T03:55:00","FM-15","7",,,,,,,,,,,,,,,,,,,,,,,,,,,,,,,,,,,,,,"29.89","54","59",,,,,"82",,"OVC:08 14","29.88","10.00","56","300",,"5",,,,,,,,,,,,,,,,,,,,,,,,,,,,,,,,,,,,,"MET07607/16/20 03:55:02 METAR KSQL 161155Z 30004KT 10SM OVC014 15/12 A2989 RMK AO2","FM-15","7",,,,,,,,,,,,,,,,,,,,,,,,,,,,
"72493893231","2020-07-16T04:00:00","FM-15","4",,,,,,,,,,,,,,,,,,,,,,,,,,,,,,,,,,,,,,"29.89","54","59",,,,,"82",,,,"10.00",,"300",,"5",,,,,,,,,,,,,,,,,,,,,,,,,,,,,,,,,,,,,"MET064METAR KSQL 161200Z AUTO 30004KT 10SM OVC014 15/12 A2989 RMK AO2=","FM-15","4",,,,,,,,,,,,,,,,,,,,,,,,,,,,
"72493893231","2020-07-16T04:15:00","FM-15","7",,,,,,,,,,,,,,,,,,,,,,,,,,,,,,,,,,,,,,"29.89","54","59",,,,,"82",,"OVC:08 14","29.88","10.00","56","310",,"3",,,,,,,,,,,,,,,,,,,,,,,,,,,,,,,,,,,,,"MET07607/16/20 04:15:02 METAR KSQL 161215Z 31003KT 10SM OVC014 15/12 A2989 RMK AO2","FM-15","7",,,,,,,,,,,,,,,,,,,,,,,,,,,,
"72493893231","2020-07-16T04:20:00","FM-15","7",,,,,,,,,,,,,,,,,,,,,,,,,,,,,,,,,,,,,,"29.89","54","59",,,,,"82",,"OVC:08 14","29.88","10.00","56","320",,"3",,,,,,,,,,,,,,,,,,,,,,,,,,,,,,,,,,,,,"MET07607/16/20 04:20:02 METAR KSQL 161220Z 32003KT 10SM OVC014 15/12 A2989 RMK AO2","FM-15","7",,,,,,,,,,,,,,,,,,,,,,,,,,,,
"72493893231","2020-07-16T04:35:00","FM-15","7",,,,,,,,,,,,,,,,,,,,,,,,,,,,,,,,,,,,,,"29.89","54","59",,,,,"82",,"OVC:08 14","29.88","10.00","56","310",,"5",,,,,,,,,,,,,,,,,,,,,,,,,,,,,,,,,,,,,"MET07607/16/20 04:35:02 METAR KSQL 161235Z 31004KT 10SM OVC014 15/12 A2989 RMK AO2","FM-15","7",,,,,,,,,,,,,,,,,,,,,,,,,,,,
"72493893231","2020-07-16T04:40:00","FM-15","7",,,,,,,,,,,,,,,,,,,,,,,,,,,,,,,,,,,,,,"29.90","54","59",,,,,"82",,"OVC:08 14","29.89","10.00","56","320",,"3",,,,,,,,,,,,,,,,,,,,,,,,,,,,,,,,,,,,,"MET07607/16/20 04:40:02 METAR KSQL 161240Z 32003KT 10SM OVC014 15/12 A2990 RMK AO2","FM-15","7",,,,,,,,,,,,,,,,,,,,,,,,,,,,
"72493893231","2020-07-16T04:55:00","FM-15","7",,,,,,,,,,,,,,,,,,,,,,,,,,,,,,,,,,,,,,"29.90","54","59",,,,,"82",,"OVC:08 14","29.89","10.00","56","310",,"5",,,,,,,,,,,,,,,,,,,,,,,,,,,,,,,,,,,,,"MET07607/16/20 04:55:02 METAR KSQL 161255Z 31004KT 10SM OVC014 15/12 A2990 RMK AO2","FM-15","7",,,,,,,,,,,,,,,,,,,,,,,,,,,,
"72493893231","2020-07-16T05:00:00","FM-15","4",,,,,,,,,,,,,,,,,,,,,,,,,,,,,,,,,,,,,,"29.89","54","59",,,,,"82",,,,"10.00",,"310",,"5",,,,,,,,,,,,,,,,,,,,,,,,,,,,,,,,,,,,,"MET064METAR KSQL 161300Z AUTO 31004KT 10SM OVC014 15/12 A2989 RMK AO2=","FM-15","4",,,,,,,,,,,,,,,,,,,,,,,,,,,,
"72493893231","2020-07-16T05:15:00","FM-15","7",,,,,,,,,,,,,,,,,,,,,,,,,,,,,,,,,,,,,,"29.90","54","59",,,,,"82",,"OVC:08 14","29.89","10.00","56","000",,"0",,,,,,,,,,,,,,,,,,,,,,,,,,,,,,,,,,,,,"MET07607/16/20 05:15:02 METAR KSQL 161315Z 00000KT 10SM OVC014 15/12 A2990 RMK AO2","FM-15","7",,,,,,,,,,,,,,,,,,,,,,,,,,,,
"72493893231","2020-07-16T05:20:00","FM-15","7",,,,,,,,,,,,,,,,,,,,,,,,,,,,,,,,,,,,,,"29.90","54","59",,,,,"82",,"OVC:08 14","29.89","10.00","56","000",,"0",,,,,,,,,,,,,,,,,,,,,,,,,,,,,,,,,,,,,"MET07607/16/20 05:20:02 METAR KSQL 161320Z 00000KT 10SM OVC014 15/12 A2990 RMK AO2","FM-15","7",,,,,,,,,,,,,,,,,,,,,,,,,,,,
"72493893231","2020-07-16T05:35:00","FM-15","7",,,,,,,,,,,,,,,,,,,,,,,,,,,,,,,,,,,,,,"29.90","54","59",,,,,"82",,"OVC:08 14","29.89","10.00","56","350",,"3",,,,,,,,,,,,,,,,,,,,,,,,,,,,,,,,,,,,,"MET07607/16/20 05:35:02 METAR KSQL 161335Z 35003KT 10SM OVC014 15/12 A2990 RMK AO2","FM-15","7",,,,,,,,,,,,,,,,,,,,,,,,,,,,
"72493893231","2020-07-16T05:40:00","FM-15","7",,,,,,,,,,,,,,,,,,,,,,,,,,,,,,,,,,,,,,"29.90","54","59",,,,,"82",,"OVC:08 14","29.89","10.00","56","330",,"3",,,,,,,,,,,,,,,,,,,,,,,,,,,,,,,,,,,,,"MET07607/16/20 05:40:02 METAR KSQL 161340Z 33003KT 10SM OVC014 15/12 A2990 RMK AO2","FM-15","7",,,,,,,,,,,,,,,,,,,,,,,,,,,,
"72493893231","2020-07-16T05:55:00","FM-15","7",,,,,,,,,,,,,,,,,,,,,,,,,,,,,,,,,,,,,,"29.91","54","59",,,,,"82",,"OVC:08 14","29.90","10.00","56","340",,"3",,,,,,,,,,,,,,,,,,,,,,,,,,,,,,,,,,,,,"MET07607/16/20 05:55:02 METAR KSQL 161355Z 34003KT 10SM OVC014 15/12 A2991 RMK AO2","FM-15","7",,,,,,,,,,,,,,,,,,,,,,,,,,,,
"72493893231","2020-07-16T06:00:00","FM-15","4",,,,,,,,,,,,,,,,,,,,,,,,,,,,,,,,,,,,,,"29.91","54","59",,,,,"82",,,,"10.00",,"VRB",,"3",,,,,,,,,,,,,,,,,,,,,,,,,,,,,,,,,,,,,"MET051METAR KSQL 161400Z VRB03KT 10SM BKN015 15/12 A2991=","FM-15","4",,,,,,,,,,,,,,,,,,,,,,,,,,,,
"72493893231","2020-07-16T06:52:00","FM-15","7",,,,,,,,,,,,,,,,,,,,,,,,,,,,,,,,,,,,,,,"55","61",,,,,"83",,"OVC:08 15",,"10.00",,"000",,"0",,,,,,,,,,,,,,,,,,,,,,,,,,,,,,,,,,,,,"MET06607/16/20 06:52:02 METAR KSQL 161452Z 00000KT 10SM OVC015 16/13 RMK","FM-15","7",,,,,,,,,,,,,,,,,,,,,,,,,,,,
"72493893231","2020-07-16T07:56:00","FM-15","7",,,,,,,,,,,,,,,,,,,,,,,,,,,,,,,,,,,,,,"29.92","57","63",,,,,"83",,"OVC:08 15","29.91","10.00","60","VRB",,"5",,,,,,,,,,,,,,,,,,,,,,,,,,,,,,,,,,,,,"MET07207/16/20 07:56:02 METAR KSQL 161556Z VRB04KT 10SM OVC015 17/14 A2992 RMK","FM-15","7",,,,,,,,,,,,,,,,,,,,,,,,,,,,
"72493893231","2020-07-16T08:47:00","FM-15","7",,,,,,,,,,,,,,,,,,,,,,,,,,,,,,,,,,,,,,"29.92","55","64",,,,,"73",,"BKN:07 15","29.91","10.00","59","VRB",,"3",,,,,,,,,,,,,,,,,,,,,,,,,,,,,,,,,,,,,"MET07207/16/20 08:47:02 METAR KSQL 161647Z VRB03KT 10SM BKN015 18/13 A2992 RMK","FM-15","7",,,,,,,,,,,,,,,,,,,,,,,,,,,,
"72493893231","2020-07-16T09:47:00","FM-15","7",,,,,,,,,,,,,,,,,,,,,,,,,,,,,,,,,,,,,,"29.92","55","68",,,,,"64",,"*","29.91","10.00","60","360",,"9",,,,,,,,,,,,,,,,,,,,,,,,,,,,,,,,,,,,,"MET06907/16/20 09:47:02 METAR KSQL 161747Z 36008KT 10SM SKC 20/13 A2992 RMK","FM-15","7",,,,,,,,,,,,,,,,,,,,,,,,,,,,
"72493893231","2020-07-16T10:47:00","FM-15","7",,,,,,,,,,,,,,,,,,,,,,,,,,,,,,,,,,,,,,"29.92","57","66",,,,,"73",,"*","29.91","10.00","61","360",,"11",,,,,,,,,,,,,,,,,,,,,,,,,,,,,,,,,,,,,"MET06907/16/20 10:47:02 METAR KSQL 161847Z 36010KT 10SM SKC 19/14 A2992 RMK","FM-15","7",,,,,,,,,,,,,,,,,,,,,,,,,,,,
"72493893231","2020-07-16T11:47:00","FM-15","7",,,,,,,,,,,,,,,,,,,,,,,,,,,,,,,,,,,,,,"29.92","57","66",,,,,"73",,"*","29.91","10.00","61","360",,,,,,,,,,,,,,,,,,,,,,,,,,,,,,,,,,,,,,,"MET06907/16/20 11:47:02 METAR KSQL 161947Z 36021KT 10SM SKC 19/14 A2992 RMK","FM-15","7",,,,,,,,,,,,,,,,,,,,,,,,,,,,
"72493893231","2020-07-16T12:47:00","FM-15","7",,,,,,,,,,,,,,,,,,,,,,,,,,,,,,,,,,,,,,"29.91","57","70",,,,,"64",,"*","29.90","10.00","62","360",,"11s",,,,,,,,,,,,,,,,,,,,,,,,,,,,,,,,,,,,,"MET06907/16/20 12:47:02 METAR KSQL 162047Z 36010KT 10SM SKC 21/14 A2991 RMK","FM-15","7",,,,,,,,,,,,,,,,,,,,,,,,,,,,
"72493893231","2020-07-16T13:47:00","FM-15","7",,,,,,,,,,,,,,,,,,,,,,,,,,,,,,,,,,,,,,"29.89","55","75",,,,,"50",,"*","29.88","10.00","63","340",,"9",,,,,,,,,,,,,,,,,,,,,,,,,,,,,,,,,,,,,"MET06907/16/20 13:47:02 METAR KSQL 162147Z 34008KT 10SM SKC 24/13 A2989 RMK","FM-15","7",,,,,,,,,,,,,,,,,,,,,,,,,,,,
"72493893231","2020-07-16T14:47:00","FM-15","7",,,,,,,,,,,,,,,,,,,,,,,,,,,,,,,,,,,,,,"29.88","55","73",,,,,"53",,"*","29.87","10.00","62","270",,"8",,,,,,,,,,,,,,,,,,,,,,,,,,,,,,,,,,,,,"MET06907/16/20 14:47:02 METAR KSQL 162247Z 27007KT 10SM SKC 23/13 A2988 RMK","FM-15","7",,,,,,,,,,,,,,,,,,,,,,,,,,,,
"72493893231","2020-07-16T15:47:00","FM-15","7",,,,,,,,,,,,,,,,,,,,,,,,,,,,,,,,,,,,,,"29.88","55","73",,,,,"53",,"*","29.87","10.00","62","270",,"11",,,,,,,,,,,,,,,,,,,,,,,,,,,,,,,,,,,,,"MET06907/16/20 15:47:02 METAR KSQL 162347Z 27010KT 10SM SKC 23/13 A2988 RMK","FM-15","7",,,,,,,,,,,,,,,,,,,,,,,,,,,,
"72493893231","2020-07-16T16:47:00","FM-15","7",,,,,,,,,,,,,,,,,,,,,,,,,,,,,,,,,,,,,,"29.88","55","73",,,,,"53",,"*","29.87","10.00","62","270",,"11",,,,,,,,,,,,,,,,,,,,,,,,,,,,,,,,,,,,,"MET06907/16/20 16:47:01 METAR KSQL 170047Z 27010KT 10SM SKC 23/13 A2988 RMK","FM-15","7",,,,,,,,,,,,,,,,,,,,,,,,,,,,
"72493893231","2020-07-16T17:47:00","FM-15","7",,,,,,,,,,,,,,,,,,,,,,,,,,,,,,,,,,,,,,"29.89","55","72",,,,,"57",,"*","29.88","10.00","62","300",,"6",,,,,,,,,,,,,,,,,,,,,,,,,,,,,,,,,,,,,"MET06907/16/20 17:47:01 METAR KSQL 170147Z 30005KT 10SM SKC 22/13 A2989 RMK","FM-15","7",,,,,,,,,,,,,,,,,,,,,,,,,,,,
"72493893231","2020-07-16T18:47:00","FM-15","7",,,,,,,,,,,,,,,,,,,,,,,,,,,,,,,,,,,,,,"29.90","55","68",,,,,"64",,"*","29.89","10.00","60","300",,"7",,,,,,,,,,,,,,,,,,,,,,,,,,,,,,,,,,,,,"MET06907/16/20 18:47:01 METAR KSQL 170247Z 30006KT 10SM SKC 20/13 A2990 RMK","FM-15","7",,,,,,,,,,,,,,,,,,,,,,,,,,,,
"72493893231","2020-07-16T19:47:00","FM-15","7",,,,,,,,,,,,,,,,,,,,,,,,,,,,,,,,,,,,,,"29.90","54","66",,,,,"64",,"*","29.89","10.00","59","300",,"7",,,,,,,,,,,,,,,,,,,,,,,,,,,,,,,,,,,,,"MET07407/16/20 19:47:02 METAR KSQL 170347Z 30006KT 10SM SKC 19/12 A2990 RMK LAST","FM-15","7",,,,,,,,,,,,,,,,,,,,,,,,,,,,
"72493893231","2020-07-16T20:15:00","FM-15","7",,,,,,,,,,,,,,,,,,,,,,,,,,,,,,,,,,,,,,"29.91","54","63",,,,,"73",,"CLR:00","29.90","10.00","58","320",,"5",,,,,,,,,,,,,,,,,,,,,,,,,,,,,,,,,,,,,"MET07307/16/20 20:15:02 METAR KSQL 170415Z 32004KT 10SM CLR 17/12 A2991 RMK AO2","FM-15","7",,,,,,,,,,,,,,,,,,,,,,,,,,,,
"72493893231","2020-07-16T20:20:00","FM-15","7",,,,,,,,,,,,,,,,,,,,,,,,,,,,,,,,,,,,,,"29.91","54","63",,,,,"73",,"CLR:00","29.90","10.00","58","320",,"5",,,,,,,,,,,,,,,,,,,,,,,,,,,,,,,,,,,,,"MET07307/16/20 20:20:02 METAR KSQL 170420Z 32004KT 10SM CLR 17/12 A2991 RMK AO2","FM-15","7",,,,,,,,,,,,,,,,,,,,,,,,,,,,
"72493893231","2020-07-16T20:35:00","FM-15","7",,,,,,,,,,,,,,,,,,,,,,,,,,,,,,,,,,,,,,"29.92","54","63",,,,,"73",,"CLR:00","29.91","10.00","58","290",,"6",,,,,,,,,,,,,,,,,,,,,,,,,,,,,,,,,,,,,"MET07307/16/20 20:35:02 METAR KSQL 170435Z 29005KT 10SM CLR 17/12 A2992 RMK AO2","FM-15","7",,,,,,,,,,,,,,,,,,,,,,,,,,,,
"72493893231","2020-07-16T20:40:00","FM-15","7",,,,,,,,,,,,,,,,,,,,,,,,,,,,,,,,,,,,,,"29.92","54","63",,,,,"73",,"CLR:00","29.91","10.00","58","300",,"7",,,,,,,,,,,,,,,,,,,,,,,,,,,,,,,,,,,,,"MET07307/16/20 20:40:02 METAR KSQL 170440Z 30006KT 10SM CLR 17/12 A2992 RMK AO2","FM-15","7",,,,,,,,,,,,,,,,,,,,,,,,,,,,
"72493893231","2020-07-16T20:55:00","FM-15","7",,,,,,,,,,,,,,,,,,,,,,,,,,,,,,,,,,,,,,"29.92","54","63",,,,,"73",,"CLR:00","29.91","10.00","58","270",,"5",,,,,,,,,,,,,,,,,,,,,,,,,,,,,,,,,,,,,"MET07307/16/20 20:55:02 METAR KSQL 170455Z 27004KT 10SM CLR 17/12 A2992 RMK AO2","FM-15","7",,,,,,,,,,,,,,,,,,,,,,,,,,,,
"72493893231","2020-07-16T21:00:00","FM-15","4",,,,,,,,,,,,,,,,,,,,,,,,,,,,,,,,,,,,,,"29.92","55","63",,,,,"77",,,,"10.00",,"260",,"6",,,,,,,,,,,,,,,,,,,,,,,,,,,,,,,,,,,,,"MET061METAR KSQL 170500Z AUTO 26005KT 10SM CLR 17/13 A2992 RMK AO2=","FM-15","4",,,,,,,,,,,,,,,,,,,,,,,,,,,,
"72493893231","2020-07-16T21:15:00","FM-15","7",,,,,,,,,,,,,,,,,,,,,,,,,,,,,,,,,,,,,,"29.93","55","63",,,,,"77",,"CLR:00","29.92","10.00","58","270",,"6",,,,,,,,,,,,,,,,,,,,,,,,,,,,,,,,,,,,,"MET07307/16/20 21:15:02 METAR KSQL 170515Z 27005KT 10SM CLR 17/13 A2993 RMK AO2","FM-15","7",,,,,,,,,,,,,,,,,,,,,,,,,,,,
"72493893231","2020-07-16T21:20:00","FM-15","7",,,,,,,,,,,,,,,,,,,,,,,,,,,,,,,,,,,,,,"29.93","55","63",,,,,"77",,"CLR:00","29.92","10.00","58","270",,"6",,,,,,,,,,,,,,,,,,,,,,,,,,,,,,,,,,,,,"MET07307/16/20 21:20:02 METAR KSQL 170520Z 27005KT 10SM CLR 17/13 A2993 RMK AO2","FM-15","7",,,,,,,,,,,,,,,,,,,,,,,,,,,,
"72493893231","2020-07-16T21:35:00","FM-15","7",,,,,,,,,,,,,,,,,,,,,,,,,,,,,,,,,,,,,,"29.94","55","63",,,,,"77",,"CLR:00","29.93","10.00","58","270",,"6",,,,,,,,,,,,,,,,,,,,,,,,,,,,,,,,,,,,,"MET07307/16/20 21:35:02 METAR KSQL 170535Z 27005KT 10SM CLR 17/13 A2994 RMK AO2","FM-15","7",,,,,,,,,,,,,,,,,,,,,,,,,,,,
"72493893231","2020-07-16T21:40:00","FM-15","7",,,,,,,,,,,,,,,,,,,,,,,,,,,,,,,,,,,,,,"29.94","55","63",,,,,"77",,"CLR:00","29.93","10.00","58","270",,"6",,,,,,,,,,,,,,,,,,,,,,,,,,,,,,,,,,,,,"MET07307/16/20 21:40:02 METAR KSQL 170540Z 27005KT 10SM CLR 17/13 A2994 RMK AO2","FM-15","7",,,,,,,,,,,,,,,,,,,,,,,,,,,,
"72493893231","2020-07-16T21:55:00","FM-15","7",,,,,,,,,,,,,,,,,,,,,,,,,,,,,,,,,,,,,,"29.93","55","63",,,,,"77",,"CLR:00","29.92","10.00","58","260",,"6",,,,,,,,,,,,,,,,,,,,,,,,,,,,,,,,,,,,,"MET07307/16/20 21:55:02 METAR KSQL 170555Z 26005KT 10SM CLR 17/13 A2993 RMK AO2","FM-15","7",,,,,,,,,,,,,,,,,,,,,,,,,,,,
"72493893231","2020-07-16T22:00:00","FM-15","4",,,,,,,,,,,,,,,,,,,,,,,,,,,,,,,,,,,,,,"29.93","55","61",,,,,"83",,,,"10.00",,"270",,"6",,,,,,,,,,,,,,,,,,,,,,,,,,,,,,,,,,,,,"MET061METAR KSQL 170600Z AUTO 27005KT 10SM CLR 16/13 A2993 RMK AO2=","FM-15","4",,,,,,,,,,,,,,,,,,,,,,,,,,,,
"72493893231","2020-07-16T22:15:00","FM-15","7",,,,,,,,,,,,,,,,,,,,,,,,,,,,,,,,,,,,,,"29.93","55","61",,,,,"83",,"CLR:00","29.92","10.00","58","260",,"6",,,,,,,,,,,,,,,,,,,,,,,,,,,,,,,,,,,,,"MET07307/16/20 22:15:02 METAR KSQL 170615Z 26005KT 10SM CLR 16/13 A2993 RMK AO2","FM-15","7",,,,,,,,,,,,,,,,,,,,,,,,,,,,
"72493893231","2020-07-16T22:20:00","FM-15","7",,,,,,,,,,,,,,,,,,,,,,,,,,,,,,,,,,,,,,"29.93","55","61",,,,,"83",,"FEW:02 15","29.92","10.00","58","270",,"6",,,,,,,,,,,,,,,,,,,,,,,,,,,,,,,,,,,,,"MET07607/16/20 22:20:02 METAR KSQL 170620Z 27005KT 10SM FEW015 16/13 A2993 RMK AO2","FM-15","7",,,,,,,,,,,,,,,,,,,,,,,,,,,,
"72493893231","2020-07-16T22:35:00","FM-15","7",,,,,,,,,,,,,,,,,,,,,,,,,,,,,,,,,,,,,,"29.94","55","61",,,,,"83",,"BKN:07 15","29.93","10.00","58","270",,"5",,,,,,,,,,,,,,,,,,,,,,,,,,,,,,,,,,,,,"MET07607/16/20 22:35:02 METAR KSQL 170635Z 27004KT 10SM BKN015 16/13 A2994 RMK AO2","FM-15","7",,,,,,,,,,,,,,,,,,,,,,,,,,,,
"72493893231","2020-07-16T22:40:00","FM-15","7",,,,,,,,,,,,,,,,,,,,,,,,,,,,,,,,,,,,,,"29.94","55","61",,,,,"83",,"BKN:07 15","29.93","10.00","58","270",,"6",,,,,,,,,,,,,,,,,,,,,,,,,,,,,,,,,,,,,"MET07607/16/20 22:40:02 METAR KSQL 170640Z 27005KT 10SM BKN015 16/13 A2994 RMK AO2","FM-15","7",,,,,,,,,,,,,,,,,,,,,,,,,,,,
"72493893231","2020-07-16T22:55:00","FM-15","7",,,,,,,,,,,,,,,,,,,,,,,,,,,,,,,,,,,,,,"29.94","55","61",,,,,"83",,"SCT:04 15","29.93","10.00","58","270",,"3",,,,,,,,,,,,,,,,,,,,,,,,,,,,,,,,,,,,,"MET07607/16/20 22:55:02 METAR KSQL 170655Z 27003KT 10SM SCT015 16/13 A2994 RMK AO2","FM-15","7",,,,,,,,,,,,,,,,,,,,,,,,,,,,
"72493893231","2020-07-16T23:00:00","FM-15","4",,,,,,,,,,,,,,,,,,,,,,,,,,,,,,,,,,,,,,"29.94","55","61",,,,,"83",,,,"10.00",,"290",,"3",,,,,,,,,,,,,,,,,,,,,,,,,,,,,,,,,,,,,"MET064METAR KSQL 170700Z AUTO 29003KT 10SM FEW015 16/13 A2994 RMK AO2=","FM-15","4",,,,,,,,,,,,,,,,,,,,,,,,,,,,
"72493893231","2020-07-16T23:15:00","FM-15","7",,,,,,,,,,,,,,,,,,,,,,,,,,,,,,,,,,,,,,"29.94","55","61",,,,,"83",,"CLR:00","29.93","10.00","58","270",,"3",,,,,,,,,,,,,,,,,,,,,,,,,,,,,,,,,,,,,"MET07307/16/20 23:15:02 METAR KSQL 170715Z 27003KT 10SM CLR 16/13 A2994 RMK AO2","FM-15","7",,,,,,,,,,,,,,,,,,,,,,,,,,,,
"72493893231","2020-07-16T23:20:00","FM-15","7",,,,,,,,,,,,,,,,,,,,,,,,,,,,,,,,,,,,,,"29.94","55","63",,,,,"77",,"CLR:00","29.93","10.00","58","240",,"3",,,,,,,,,,,,,,,,,,,,,,,,,,,,,,,,,,,,,"MET07307/16/20 23:20:02 METAR KSQL 170720Z 24003KT 10SM CLR 17/13 A2994 RMK AO2","FM-15","7",,,,,,,,,,,,,,,,,,,,,,,,,,,,
"72493893231","2020-07-16T23:35:00","FM-15","7",,,,,,,,,,,,,,,,,,,,,,,,,,,,,,,,,,,,,,"29.94","55","63",,,,,"77",,"CLR:00","29.93","10.00","58","260",,"3",,,,,,,,,,,,,,,,,,,,,,,,,,,,,,,,,,,,,"MET07307/16/20 23:35:02 METAR KSQL 170735Z 26003KT 10SM CLR 17/13 A2994 RMK AO2","FM-15","7",,,,,,,,,,,,,,,,,,,,,,,,,,,,
"72493893231","2020-07-16T23:40:00","FM-15","7",,,,,,,,,,,,,,,,,,,,,,,,,,,,,,,,,,,,,,"29.93","55","63",,,,,"77",,"CLR:00","29.92","10.00","58","260",,"5",,,,,,,,,,,,,,,,,,,,,,,,,,,,,,,,,,,,,"MET07307/16/20 23:40:02 METAR KSQL 170740Z 26004KT 10SM CLR 17/13 A2993 RMK AO2","FM-15","7",,,,,,,,,,,,,,,,,,,,,,,,,,,,
"72493893231","2020-07-16T23:55:00","FM-15","7",,,,,,,,,,,,,,,,,,,,,,,,,,,,,,,,,,,,,,"29.93","55","61",,,,,"83",,"CLR:00","29.92","10.00","58","280",,"5",,,,,,,,,,,,,,,,,,,,,,,,,,,,,,,,,,,,,"MET07307/16/20 23:55:02 METAR KSQL 170755Z 28004KT 10SM CLR 16/13 A2993 RMK AO2","FM-15","7",,,,,,,,,,,,,,,,,,,,,,,,,,,,
"72493893231","2020-07-17T00:00:00","FM-15","4",,,,,,,,,,,,,,,,,,,,,,,,,,,,,,,,,,,,,,"29.93","55","61",,,,,"83",,,,"10.00",,"290",,"5",,,,,,,,,,,,,,,,,,,,,,,,,,,,,,,,,,,,,"MET061METAR KSQL 170800Z AUTO 29004KT 10SM CLR 16/13 A2993 RMK AO2=","FM-15","4",,,,,,,,,,,,,,,,,,,,,,,,,,,,
"72493893231","2020-07-17T00:15:00","FM-15","7",,,,,,,,,,,,,,,,,,,,,,,,,,,,,,,,,,,,,,"29.93","55","59",,,,,"88",,"FEW:02 13","29.92","10.00","57","310",,"6",,,,,,,,,,,,,,,,,,,,,,,,,,,,,,,,,,,,,"MET07607/17/20 00:15:02 METAR KSQL 170815Z 31005KT 10SM FEW013 15/13 A2993 RMK AO2","FM-15","7",,,,,,,,,,,,,,,,,,,,,,,,,,,,
"72493893231","2020-07-17T00:20:00","FM-15","7",,,,,,,,,,,,,,,,,,,,,,,,,,,,,,,,,,,,,,"29.93","55","59",,,,,"88",,"SCT:04 13","29.92","10.00","57","310",,"6",,,,,,,,,,,,,,,,,,,,,,,,,,,,,,,,,,,,,"MET07607/17/20 00:20:02 METAR KSQL 170820Z 31005KT 10SM SCT013 15/13 A2993 RMK AO2","FM-15","7",,,,,,,,,,,,,,,,,,,,,,,,,,,,
"72493893231","2020-07-17T00:35:00","FM-15","7",,,,,,,,,,,,,,,,,,,,,,,,,,,,,,,,,,,,,,"29.93","55","59",,,,,"88",,"BKN:07 13","29.92","10.00","57","310",,"5",,,,,,,,,,,,,,,,,,,,,,,,,,,,,,,,,,,,,"MET07607/17/20 00:35:02 METAR KSQL 170835Z 31004KT 10SM BKN013 15/13 A2993 RMK AO2","FM-15","7",,,,,,,,,,,,,,,,,,,,,,,,,,,,
"72493893231","2020-07-17T00:40:00","FM-15","7",,,,,,,,,,,,,,,,,,,,,,,,,,,,,,,,,,,,,,"29.93","55","59",,,,,"88",,"BKN:07 13","29.92","10.00","57","320",,"5",,,,,,,,,,,,,,,,,,,,,,,,,,,,,,,,,,,,,"MET07607/17/20 00:40:02 METAR KSQL 170840Z 32004KT 10SM BKN013 15/13 A2993 RMK AO2","FM-15","7",,,,,,,,,,,,,,,,,,,,,,,,,,,,
"72493893231","2020-07-17T00:55:00","FM-15","7",,,,,,,,,,,,,,,,,,,,,,,,,,,,,,,,,,,,,,"29.93","55","61",,,,,"83",,"OVC:08 13","29.92","10.00","58","150",,"5",,,,,,,,,,,,,,,,,,,,,,,,,,,,,,,,,,,,,"MET07607/17/20 00:55:02 METAR KSQL 170855Z 15004KT 10SM OVC013 16/13 A2993 RMK AO2","FM-15","7",,,,,,,,,,,,,,,,,,,,,,,,,,,,
"72493893231","2020-07-17T01:00:00","FM-15","4",,,,,,,,,,,,,,,,,,,,,,,,,,,,,,,,,,,,,,"29.93","57","63",,,,,"83",,,,"10.00",,"160",,"8",,,,,,,,,,,,,,,,,,,,,,,,,,,,,,,,,,,,,"MET064METAR KSQL 170900Z AUTO 16007KT 10SM BKN013 17/14 A2993 RMK AO2=","FM-15","4",,,,,,,,,,,,,,,,,,,,,,,,,,,,
"72493893231","2020-07-17T01:15:00","FM-15","7",,,,,,,,,,,,,,,,,,,,,,,,,,,,,,,,,,,,,,"29.93","57","63",,,,,"83",,"SCT:04 13","29.92","10.00","60","160",,"8",,,,,,,,,,,,,,,,,,,,,,,,,,,,,,,,,,,,,"MET07607/17/20 01:15:02 METAR KSQL 170915Z 16007KT 10SM SCT013 17/14 A2993 RMK AO2","FM-15","7",,,,,,,,,,,,,,,,,,,,,,,,,,,,
"72493893231","2020-07-17T01:20:00","FM-15","7",,,,,,,,,,,,,,,,,,,,,,,,,,,,,,,,,,,,,,"29.93","57","63",,,,,"83",,"SCT:04 13","29.92","10.00","60","160",,"7",,,,,,,,,,,,,,,,,,,,,,,,,,,,,,,,,,,,,"MET07607/17/20 01:20:02 METAR KSQL 170920Z 16006KT 10SM SCT013 17/14 A2993 RMK AO2","FM-15","7",,,,,,,,,,,,,,,,,,,,,,,,,,,,
"72493893231","2020-07-17T01:35:00","FM-15","7",,,,,,,,,,,,,,,,,,,,,,,,,,,,,,,,,,,,,,"29.93","57","63",,,,,"83",,"BKN:07 13","29.92","10.00","60","140",,"8",,,,,,,,,,,,,,,,,,,,,,,,,,,,,,,,,,,,,"MET07607/17/20 01:35:02 METAR KSQL 170935Z 14007KT 10SM BKN013 17/14 A2993 RMK AO2","FM-15","7",,,,,,,,,,,,,,,,,,,,,,,,,,,,
"72493893231","2020-07-17T01:40:00","FM-15","7",,,,,,,,,,,,,,,,,,,,,,,,,,,,,,,,,,,,,,"29.93","57","63",,,,,"83",,"BKN:07 13","29.92","10.00","60","150",,"6",,,,,,,,,,,,,,,,,,,,,,,,,,,,,,,,,,,,,"MET07607/17/20 01:40:02 METAR KSQL 170940Z 15005KT 10SM BKN013 17/14 A2993 RMK AO2","FM-15","7",,,,,,,,,,,,,,,,,,,,,,,,,,,,
"72493893231","2020-07-17T01:55:00","FM-15","7",,,,,,,,,,,,,,,,,,,,,,,,,,,,,,,,,,,,,,"29.93","57","63",,,,,"83",,"OVC:08 13","29.92","10.00","60","130",,"6",,,,,,,,,,,,,,,,,,,,,,,,,,,,,,,,,,,,,"MET07607/17/20 01:55:02 METAR KSQL 170955Z 13005KT 10SM OVC013 17/14 A2993 RMK AO2","FM-15","7",,,,,,,,,,,,,,,,,,,,,,,,,,,,
"72493893231","2020-07-17T02:00:00","FM-15","4",,,,,,,,,,,,,,,,,,,,,,,,,,,,,,,,,,,,,,"29.93","57","63",,,,,"83",,,,"10.00",,"140",,"6",,,,,,,,,,,,,,,,,,,,,,,,,,,,,,,,,,,,,"MET064METAR KSQL 171000Z AUTO 14005KT 10SM OVC013 17/14 A2993 RMK AO2=","FM-15","4",,,,,,,,,,,,,,,,,,,,,,,,,,,,
"72493893231","2020-07-17T02:15:00","FM-15","7",,,,,,,,,,,,,,,,,,,,,,,,,,,,,,,,,,,,,,"29.93","57","63",,,,,"83",,"OVC:08 13","29.92","10.00","60","150",,"7",,,,,,,,,,,,,,,,,,,,,,,,,,,,,,,,,,,,,"MET07607/17/20 02:15:02 METAR KSQL 171015Z 15006KT 10SM OVC013 17/14 A2993 RMK AO2","FM-15","7",,,,,,,,,,,,,,,,,,,,,,,,,,,,
"72493893231","2020-07-17T02:20:00","FM-15","7",,,,,,,,,,,,,,,,,,,,,,,,,,,,,,,,,,,,,,"29.93","57","63",,,,,"83",,"OVC:08 13","29.92","10.00","60","140",,"6",,,,,,,,,,,,,,,,,,,,,,,,,,,,,,,,,,,,,"MET07607/17/20 02:20:02 METAR KSQL 171020Z 14005KT 10SM OVC013 17/14 A2993 RMK AO2","FM-15","7",,,,,,,,,,,,,,,,,,,,,,,,,,,,
"72493893231","2020-07-17T02:35:00","FM-15","7",,,,,,,,,,,,,,,,,,,,,,,,,,,,,,,,,,,,,,"29.92","57","63",,,,,"83",,"OVC:08 13","29.91","10.00","60","180",,"5",,,,,,,,,,,,,,,,,,,,,,,,,,,,,,,,,,,,,"MET07607/17/20 02:35:02 METAR KSQL 171035Z 18004KT 10SM OVC013 17/14 A2992 RMK AO2","FM-15","7",,,,,,,,,,,,,,,,,,,,,,,,,,,,
"72493893231","2020-07-17T02:40:00","FM-15","7",,,,,,,,,,,,,,,,,,,,,,,,,,,,,,,,,,,,,,"29.92","57","63",,,,,"83",,"OVC:08 13","29.91","10.00","60","160",,"3",,,,,,,,,,,,,,,,,,,,,,,,,,,,,,,,,,,,,"MET07607/17/20 02:40:02 METAR KSQL 171040Z 16003KT 10SM OVC013 17/14 A2992 RMK AO2","FM-15","7",,,,,,,,,,,,,,,,,,,,,,,,,,,,
"72493893231","2020-07-17T02:55:00","FM-15","7",,,,,,,,,,,,,,,,,,,,,,,,,,,,,,,,,,,,,,"29.92","57","63",,,,,"83",,"OVC:08 13","29.91","10.00","60","160",,"3",,,,,,,,,,,,,,,,,,,,,,,,,,,,,,,,,,,,,"MET07607/17/20 02:55:02 METAR KSQL 171055Z 16003KT 10SM OVC013 17/14 A2992 RMK AO2","FM-15","7",,,,,,,,,,,,,,,,,,,,,,,,,,,,
"72493893231","2020-07-17T03:00:00","FM-15","4",,,,,,,,,,,,,,,,,,,,,,,,,,,,,,,,,,,,,,"29.92","57","63",,,,,"83",,,,"10.00",,"130",,"5",,,,,,,,,,,,,,,,,,,,,,,,,,,,,,,,,,,,,"MET064METAR KSQL 171100Z AUTO 13004KT 10SM OVC013 17/14 A2992 RMK AO2=","FM-15","4",,,,,,,,,,,,,,,,,,,,,,,,,,,,
"72493893231","2020-07-17T03:15:00","FM-15","7",,,,,,,,,,,,,,,,,,,,,,,,,,,,,,,,,,,,,,"29.92","57","63",,,,,"83",,"OVC:08 13","29.91","10.00","60","000",,"0",,,,,,,,,,,,,,,,,,,,,,,,,,,,,,,,,,,,,"MET07607/17/20 03:15:02 METAR KSQL 171115Z 00000KT 10SM OVC013 17/14 A2992 RMK AO2","FM-15","7",,,,,,,,,,,,,,,,,,,,,,,,,,,,
"72493893231","2020-07-17T03:20:00","FM-15","7",,,,,,,,,,,,,,,,,,,,,,,,,,,,,,,,,,,,,,"29.92","57","63",,,,,"83",,"OVC:08 13","29.91","10.00","60","000",,"0",,,,,,,,,,,,,,,,,,,,,,,,,,,,,,,,,,,,,"MET07607/17/20 03:20:02 METAR KSQL 171120Z 00000KT 10SM OVC013 17/14 A2992 RMK AO2","FM-15","7",,,,,,,,,,,,,,,,,,,,,,,,,,,,
"72493893231","2020-07-17T03:35:00","FM-15","7",,,,,,,,,,,,,,,,,,,,,,,,,,,,,,,,,,,,,,"29.92","55","61",,,,,"83",,"OVC:08 13","29.91","10.00","58","000",,"0",,,,,,,,,,,,,,,,,,,,,,,,,,,,,,,,,,,,,"MET07607/17/20 03:35:02 METAR KSQL 171135Z 00000KT 10SM OVC013 16/13 A2992 RMK AO2","FM-15","7",,,,,,,,,,,,,,,,,,,,,,,,,,,,
"72493893231","2020-07-17T03:40:00","FM-15","7",,,,,,,,,,,,,,,,,,,,,,,,,,,,,,,,,,,,,,"29.92","55","61",,,,,"83",,"OVC:08 13","29.91","10.00","58","000",,"0",,,,,,,,,,,,,,,,,,,,,,,,,,,,,,,,,,,,,"MET07607/17/20 03:40:02 METAR KSQL 171140Z 00000KT 10SM OVC013 16/13 A2992 RMK AO2","FM-15","7",,,,,,,,,,,,,,,,,,,,,,,,,,,,
"72493893231","2020-07-17T03:55:00","FM-15","7",,,,,,,,,,,,,,,,,,,,,,,,,,,,,,,,,,,,,,"29.92","55","61",,,,,"83",,"OVC:08 13","29.91","10.00","58","320",,"5",,,,,,,,,,,,,,,,,,,,,,,,,,,,,,,,,,,,,"MET07607/17/20 03:55:02 METAR KSQL 171155Z 32004KT 10SM OVC013 16/13 A2992 RMK AO2","FM-15","7",,,,,,,,,,,,,,,,,,,,,,,,,,,,
"72493893231","2020-07-17T04:00:00","FM-15","4",,,,,,,,,,,,,,,,,,,,,,,,,,,,,,,,,,,,,,"29.92","55","61",,,,,"83",,,,"10.00",,"310",,"6",,,,,,,,,,,,,,,,,,,,,,,,,,,,,,,,,,,,,"MET064METAR KSQL 171200Z AUTO 31005KT 10SM OVC013 16/13 A2992 RMK AO2=","FM-15","4",,,,,,,,,,,,,,,,,,,,,,,,,,,,
"72493893231","2020-07-17T04:15:00","FM-15","7",,,,,,,,,,,,,,,,,,,,,,,,,,,,,,,,,,,,,,"29.93","55","61",,,,,"83",,"OVC:08 15","29.92","10.00","58","310",,"5",,,,,,,,,,,,,,,,,,,,,,,,,,,,,,,,,,,,,"MET07607/17/20 04:15:02 METAR KSQL 171215Z 31004KT 10SM OVC015 16/13 A2993 RMK AO2","FM-15","7",,,,,,,,,,,,,,,,,,,,,,,,,,,,
"72493893231","2020-07-17T04:20:00","FM-15","7",,,,,,,,,,,,,,,,,,,,,,,,,,,,,,,,,,,,,,"29.93","55","61",,,,,"83",,"OVC:08 15","29.92","10.00","58","310",,"3",,,,,,,,,,,,,,,,,,,,,,,,,,,,,,,,,,,,,"MET07607/17/20 04:20:02 METAR KSQL 171220Z 31003KT 10SM OVC015 16/13 A2993 RMK AO2","FM-15","7",,,,,,,,,,,,,,,,,,,,,,,,,,,,
"72493893231","2020-07-17T04:35:00","FM-15","7",,,,,,,,,,,,,,,,,,,,,,,,,,,,,,,,,,,,,,"29.93","55","61",,,,,"83",,"OVC:08 13","29.92","10.00","58","260",,"3",,,,,,,,,,,,,,,,,,,,,,,,,,,,,,,,,,,,,"MET07607/17/20 04:35:02 METAR KSQL 171235Z 26003KT 10SM OVC013 16/13 A2993 RMK AO2","FM-15","7",,,,,,,,,,,,,,,,,,,,,,,,,,,,
"72493893231","2020-07-17T04:40:00","FM-15","7",,,,,,,,,,,,,,,,,,,,,,,,,,,,,,,,,,,,,,"29.93","55","61",,,,,"83",,"OVC:08 13","29.92","10.00","58","270",,"3",,,,,,,,,,,,,,,,,,,,,,,,,,,,,,,,,,,,,"MET07607/17/20 04:40:02 METAR KSQL 171240Z 27003KT 10SM OVC013 16/13 A2993 RMK AO2","FM-15","7",,,,,,,,,,,,,,,,,,,,,,,,,,,,
"72493893231","2020-07-17T04:55:00","FM-15","7",,,,,,,,,,,,,,,,,,,,,,,,,,,,,,,,,,,,,,"29.93","55","61",,,,,"83",,"OVC:08 13","29.92","10.00","58","290",,"3",,,,,,,,,,,,,,,,,,,,,,,,,,,,,,,,,,,,,"MET07607/17/20 04:55:02 METAR KSQL 171255Z 29003KT 10SM OVC013 16/13 A2993 RMK AO2","FM-15","7",,,,,,,,,,,,,,,,,,,,,,,,,,,,
"72493893231","2020-07-17T05:00:00","FM-15","4",,,,,,,,,,,,,,,,,,,,,,,,,,,,,,,,,,,,,,"29.94","55","61",,,,,"83",,,,"10.00",,"000",,"0",,,,,,,,,,,,,,,,,,,,,,,,,,,,,,,,,,,,,"MET064METAR KSQL 171300Z AUTO 00000KT 10SM OVC013 16/13 A2994 RMK AO2=","FM-15","4",,,,,,,,,,,,,,,,,,,,,,,,,,,,
"72493893231","2020-07-17T05:15:00","FM-15","7",,,,,,,,,,,,,,,,,,,,,,,,,,,,,,,,,,,,,,"29.94","55","61",,,,,"83",,"OVC:08 13","29.93","10.00","58","000",,"0",,,,,,,,,,,,,,,,,,,,,,,,,,,,,,,,,,,,,"MET07607/17/20 05:15:02 METAR KSQL 171315Z 00000KT 10SM OVC013 16/13 A2994 RMK AO2","FM-15","7",,,,,,,,,,,,,,,,,,,,,,,,,,,,
"72493893231","2020-07-17T05:20:00","FM-15","7",,,,,,,,,,,,,,,,,,,,,,,,,,,,,,,,,,,,,,"29.94","55","61",,,,,"83",,"OVC:08 13","29.93","10.00","58","280",,"3",,,,,,,,,,,,,,,,,,,,,,,,,,,,,,,,,,,,,"MET07607/17/20 05:20:02 METAR KSQL 171320Z 28003KT 10SM OVC013 16/13 A2994 RMK AO2","FM-15","7",,,,,,,,,,,,,,,,,,,,,,,,,,,,
"72493893231","2020-07-17T05:35:00","FM-15","7",,,,,,,,,,,,,,,,,,,,,,,,,,,,,,,,,,,,,,"29.95","55","61",,,,,"83",,"OVC:08 15","29.94","10.00","58","320",,"3",,,,,,,,,,,,,,,,,,,,,,,,,,,,,,,,,,,,,"MET07607/17/20 05:35:02 METAR KSQL 171335Z 32003KT 10SM OVC015 16/13 A2995 RMK AO2","FM-15","7",,,,,,,,,,,,,,,,,,,,,,,,,,,,
"72493893231","2020-07-17T05:40:00","FM-15","7",,,,,,,,,,,,,,,,,,,,,,,,,,,,,,,,,,,,,,"29.95","55","61",,,,,"83",,"OVC:08 15","29.94","10.00","58","310",,"3",,,,,,,,,,,,,,,,,,,,,,,,,,,,,,,,,,,,,"MET07607/17/20 05:40:02 METAR KSQL 171340Z 31003KT 10SM OVC015 16/13 A2995 RMK AO2","FM-15","7",,,,,,,,,,,,,,,,,,,,,,,,,,,,
"72493893231","2020-07-17T05:55:00","FM-15","7",,,,,,,,,,,,,,,,,,,,,,,,,,,,,,,,,,,,,,"29.95","55","61",,,,,"83",,"OVC:08 15","29.94","10.00","58","310",,"5",,,,,,,,,,,,,,,,,,,,,,,,,,,,,,,,,,,,,"MET07607/17/20 05:55:02 METAR KSQL 171355Z 31004KT 10SM OVC015 16/13 A2995 RMK AO2","FM-15","7",,,,,,,,,,,,,,,,,,,,,,,,,,,,
"72493893231","2020-07-17T06:00:00","FM-15","4",,,,,,,,,,,,,,,,,,,,,,,,,,,,,,,,,,,,,,"29.95","55","61",,,,,"83",,,,"10.00",,"VRB",,"3",,,,,,,,,,,,,,,,,,,,,,,,,,,,,,,,,,,,,"MET051METAR KSQL 171400Z VRB03KT 10SM OVC015 16/13 A2995=","FM-15","4",,,,,,,,,,,,,,,,,,,,,,,,,,,,
"72493893231","2020-07-17T06:47:00","FM-15","7",,,,,,,,,,,,,,,,,,,,,,,,,,,,,,,,,,,,,,"29.97","54","61",,,,,"77",,"OVC:08 15","29.96","10.00","57","260",,"7",,,,,,,,,,,,,,,,,,,,,,,,,,,,,,,,,,,,,"MET07207/17/20 06:47:02 METAR KSQL 171447Z 26006KT 10SM OVC015 16/12 A2997 RMK","FM-15","7",,,,,,,,,,,,,,,,,,,,,,,,,,,,
"72493893231","2020-07-17T07:47:00","FM-15","7",,,,,,,,,,,,,,,,,,,,,,,,,,,,,,,,,,,,,,"29.98","55","64",,,,,"73",,"BKN:07 17","29.97","10.00","59","VRB",,"3",,,,,,,,,,,,,,,,,,,,,,,,,,,,,,,,,,,,,"MET07207/17/20 07:47:02 METAR KSQL 171547Z VRB03KT 10SM BKN017 18/13 A2998 RMK","FM-15","7",,,,,,,,,,,,,,,,,,,,,,,,,,,,
"72493893231","2020-07-17T08:53:00","FM-15","7",,,,,,,,,,,,,,,,,,,,,,,,,,,,,,,,,,,,,,"29.98","57","66",,,,,"73",,"BKN:07 17","29.97","10.00","61","000",,"0",,,,,,,,,,,,,,,,,,,,,,,,,,,,,,,,,,,,,"MET07207/17/20 08:53:02 METAR KSQL 171653Z 00000KT 10SM BKN017 19/14 A2998 RMK","FM-15","7",,,,,,,,,,,,,,,,,,,,,,,,,,,,
"72493893231","2020-07-17T09:47:00","FM-15","7",,,,,,,,,,,,,,,,,,,,,,,,,,,,,,,,,,,,,,"29.98","57","66",,,,,"73",,"*","29.97","10.00","61","050",,"6",,,,,,,,,,,,,,,,,,,,,,,,,,,,,,,,,,,,,"MET06907/17/20 09:47:02 METAR KSQL 171747Z 05005KT 10SM SKC 19/14 A2998 RMK","FM-15","7",,,,,,,,,,,,,,,,,,,,,,,,,,,,
"72493893231","2020-07-17T10:47:00","FM-15","7",,,,,,,,,,,,,,,,,,,,,,,,,,,,,,,,,,,,,,"29.97","57","68",,,,,"69",,"*","29.96","10.00","62","030",,"6",,,,,,,,,,,,,,,,,,,,,,,,,,,,,,,,,,,,,"MET06907/17/20 10:47:02 METAR KSQL 171847Z 03005KT 10SM SKC 20/14 A2997 RMK","FM-15","7",,,,,,,,,,,,,,,,,,,,,,,,,,,,
"72493893231","2020-07-17T11:47:00","FM-15","7",,,,,,,,,,,,,,,,,,,,,,,,,,,,,,,,,,,,,,"29.97","57","72",,,,,"61",,"*","29.96","10.00","63","330",,"11",,,,,,,,,,,,,,,,,,,,,,,,,,,,,,,,,,,,,"MET06907/17/20 11:47:02 METAR KSQL 171947Z 33010KT 10SM SKC 22/14 A2997 RMK","FM-15","7",,,,,,,,,,,,,,,,,,,,,,,,,,,,
"72493893231","2020-07-17T12:47:00","FM-15","7",,,,,,,,,,,,,,,,,,,,,,,,,,,,,,,,,,,,,,"29.95","55","72",,,,,"57",,"*","29.94","10.00","62","290","24","17",,,,,,,,,,,,,,,,,,,,,,,,,,,,,,,,,,,,,"MET07207/17/20 12:47:02 METAR KSQL 172047Z 29015G21KT 10SM SKC 22/13 A2995 RMK","FM-15","7",,,,,,,,,,,,,,,,,,,,,,,,,,,,
"72493893231","2020-07-17T13:47:00","FM-15","7",,,,,,,,,,,,,,,,,,,,,,,,,,,,,,,,,,,,,,"29.94","55","75",,,,,"50",,"*","29.93","10.00","63","320",,"10",,,,,,,,,,,,,,,,,,,,,,,,,,,,,,,,,,,,,"MET06907/17/20 13:47:02 METAR KSQL 172147Z 32009KT 10SM SKC 24/13 A2994 RMK","FM-15","7",,,,,,,,,,,,,,,,,,,,,,,,,,,,
"72493893231","2020-07-17T14:47:00","FM-15","7",,,,,,,,,,,,,,,,,,,,,,,,,,,,,,,,,,,,,,"29.92","55","75",,,,,"50",,"*","29.91","10.00","63","260",,"9",,,,,,,,,,,,,,,,,,,,,,,,,,,,,,,,,,,,,"MET06907/17/20 14:47:02 METAR KSQL 172247Z 26008KT 10SM SKC 24/13 A2992 RMK","FM-15","7",,,,,,,,,,,,,,,,,,,,,,,,,,,,
"72493893231","2020-07-17T15:47:00","FM-15","7",,,,,,,,,,,,,,,,,,,,,,,,,,,,,,,,,,,,,,"29.91","55","75",,,,,"50",,"*","29.90","10.00","63","270",,"17",,,,,,,,,,,,,,,,,,,,,,,,,,,,,,,,,,,,,"MET06907/17/20 15:47:02 METAR KSQL 172347Z 27015KT 10SM SKC 24/13 A2991 RMK","FM-15","7",,,,,,,,,,,,,,,,,,,,,,,,,,,,
"72493893231","2020-07-17T16:47:00","FM-15","7",,,,,,,,,,,,,,,,,,,,,,,,,,,,,,,,,,,,,,"29.90","55","75",,,,,"50",,"*","29.89","10.00","63","270",,"11",,,,,,,,,,,,,,,,,,,,,,,,,,,,,,,,,,,,,"MET06907/17/20 16:47:01 METAR KSQL 180047Z 27010KT 10SM SKC 24/13 A2990 RMK","FM-15","7",,,,,,,,,,,,,,,,,,,,,,,,,,,,
"72493893231","2020-07-17T17:47:00","FM-15","7",,,,,,,,,,,,,,,,,,,,,,,,,,,,,,,,,,,,,,"29.90","55","73",,,,,"53",,"*","29.89","10.00","62","270",,"11",,,,,,,,,,,,,,,,,,,,,,,,,,,,,,,,,,,,,"MET06907/17/20 17:47:01 METAR KSQL 180147Z 27010KT 10SM SKC 23/13 A2990 RMK","FM-15","7",,,,,,,,,,,,,,,,,,,,,,,,,,,,
"72493893231","2020-07-17T18:47:00","FM-15","7",,,,,,,,,,,,,,,,,,,,,,,,,,,,,,,,,,,,,,"29.92","55","68",,,,,"64",,"*","29.91","10.00","60","270",,"7",,,,,,,,,,,,,,,,,,,,,,,,,,,,,,,,,,,,,"MET06907/17/20 18:47:01 METAR KSQL 180247Z 27006KT 10SM SKC 20/13 A2992 RMK","FM-15","7",,,,,,,,,,,,,,,,,,,,,,,,,,,,
"72493893231","2020-07-17T19:47:00","FM-15","7",,,,,,,,,,,,,,,,,,,,,,,,,,,,,,,,,,,,,,"29.92","55","66",,,,,"68",,"*","29.91","10.00","60","VRB",,"3",,,,,,,,,,,,,,,,,,,,,,,,,,,,,,,,,,,,,"MET07407/17/20 19:47:02 METAR KSQL 180347Z VRB03KT 10SM SKC 19/13 A2992 RMK LAST","FM-15","7",,,,,,,,,,,,,,,,,,,,,,,,,,,,
"72493893231","2020-07-17T20:15:00","FM-15","7",,,,,,,,,,,,,,,,,,,,,,,,,,,,,,,,,,,,,,"29.94","55","64",,,,,"73",,"CLR:00","29.93","10.00","59","270",,"5",,,,,,,,,,,,,,,,,,,,,,,,,,,,,,,,,,,,,"MET07307/17/20 20:15:02 METAR KSQL 180415Z 27004KT 10SM CLR 18/13 A2994 RMK AO2","FM-15","7",,,,,,,,,,,,,,,,,,,,,,,,,,,,
"72493893231","2020-07-17T20:20:00","FM-15","7",,,,,,,,,,,,,,,,,,,,,,,,,,,,,,,,,,,,,,"29.94","55","64",,,,,"73",,"CLR:00","29.93","10.00","59","260",,"5",,,,,,,,,,,,,,,,,,,,,,,,,,,,,,,,,,,,,"MET07307/17/20 20:20:02 METAR KSQL 180420Z 26004KT 10SM CLR 18/13 A2994 RMK AO2","FM-15","7",,,,,,,,,,,,,,,,,,,,,,,,,,,,
"72493893231","2020-07-17T20:35:00","FM-15","7",,,,,,,,,,,,,,,,,,,,,,,,,,,,,,,,,,,,,,"29.94","55","64",,,,,"73",,"CLR:00","29.93","10.00","59","260",,"6",,,,,,,,,,,,,,,,,,,,,,,,,,,,,,,,,,,,,"MET07307/17/20 20:35:02 METAR KSQL 180435Z 26005KT 10SM CLR 18/13 A2994 RMK AO2","FM-15","7",,,,,,,,,,,,,,,,,,,,,,,,,,,,
"72493893231","2020-07-17T20:40:00","FM-15","7",,,,,,,,,,,,,,,,,,,,,,,,,,,,,,,,,,,,,,"29.94","55","64",,,,,"73",,"CLR:00","29.93","10.00","59","260",,"7",,,,,,,,,,,,,,,,,,,,,,,,,,,,,,,,,,,,,"MET07307/17/20 20:40:02 METAR KSQL 180440Z 26006KT 10SM CLR 18/13 A2994 RMK AO2","FM-15","7",,,,,,,,,,,,,,,,,,,,,,,,,,,,
"72493893231","2020-07-17T20:55:00","FM-15","7",,,,,,,,,,,,,,,,,,,,,,,,,,,,,,,,,,,,,,"29.95","55","64",,,,,"73",,"CLR:00","29.94","10.00","59","260",,"7",,,,,,,,,,,,,,,,,,,,,,,,,,,,,,,,,,,,,"MET07307/17/20 20:55:02 METAR KSQL 180455Z 26006KT 10SM CLR 18/13 A2995 RMK AO2","FM-15","7",,,,,,,,,,,,,,,,,,,,,,,,,,,,
"72493893231","2020-07-17T21:00:00","FM-15","4",,,,,,,,,,,,,,,,,,,,,,,,,,,,,,,,,,,,,,"29.95","55","64",,,,,"73",,,,"10.00",,"260",,"5",,,,,,,,,,,,,,,,,,,,,,,,,,,,,,,,,,,,,"MET061METAR KSQL 180500Z AUTO 26004KT 10SM CLR 18/13 A2995 RMK AO2=","FM-15","4",,,,,,,,,,,,,,,,,,,,,,,,,,,,
"72493893231","2020-07-17T21:15:00","FM-15","7",,,,,,,,,,,,,,,,,,,,,,,,,,,,,,,,,,,,,,"29.95","55","64",,,,,"73",,"CLR:00","29.94","10.00","59","250",,"6",,,,,,,,,,,,,,,,,,,,,,,,,,,,,,,,,,,,,"MET07307/17/20 21:15:02 METAR KSQL 180515Z 25005KT 10SM CLR 18/13 A2995 RMK AO2","FM-15","7",,,,,,,,,,,,,,,,,,,,,,,,,,,,
"72493893231","2020-07-17T21:20:00","FM-15","7",,,,,,,,,,,,,,,,,,,,,,,,,,,,,,,,,,,,,,"29.95","55","63",,,,,"77",,"CLR:00","29.94","10.00","58","250",,"7",,,,,,,,,,,,,,,,,,,,,,,,,,,,,,,,,,,,,"MET07307/17/20 21:20:02 METAR KSQL 180520Z 25006KT 10SM CLR 17/13 A2995 RMK AO2","FM-15","7",,,,,,,,,,,,,,,,,,,,,,,,,,,,
"72493893231","2020-07-17T21:35:00","FM-15","7",,,,,,,,,,,,,,,,,,,,,,,,,,,,,,,,,,,,,,"29.95","55","63",,,,,"77",,"CLR:00","29.94","10.00","58","250",,"6",,,,,,,,,,,,,,,,,,,,,,,,,,,,,,,,,,,,,"MET07307/17/20 21:35:02 METAR KSQL 180535Z 25005KT 10SM CLR 17/13 A2995 RMK AO2","FM-15","7",,,,,,,,,,,,,,,,,,,,,,,,,,,,
"72493893231","2020-07-17T21:40:00","FM-15","7",,,,,,,,,,,,,,,,,,,,,,,,,,,,,,,,,,,,,,"29.96","55","63",,,,,"77",,"CLR:00","29.95","10.00","58","260",,"3",,,,,,,,,,,,,,,,,,,,,,,,,,,,,,,,,,,,,"MET07307/17/20 21:40:02 METAR KSQL 180540Z 26003KT 10SM CLR 17/13 A2996 RMK AO2","FM-15","7",,,,,,,,,,,,,,,,,,,,,,,,,,,,
"72493893231","2020-07-17T21:55:00","FM-15","7",,,,,,,,,,,,,,,,,,,,,,,,,,,,,,,,,,,,,,"29.96","55","63",,,,,"77",,"CLR:00","29.95","10.00","58","260",,"3",,,,,,,,,,,,,,,,,,,,,,,,,,,,,,,,,,,,,"MET07307/17/20 21:55:02 METAR KSQL 180555Z 26003KT 10SM CLR 17/13 A2996 RMK AO2","FM-15","7",,,,,,,,,,,,,,,,,,,,,,,,,,,,
"72493893231","2020-07-17T22:00:00","FM-15","4",,,,,,,,,,,,,,,,,,,,,,,,,,,,,,,,,,,,,,"29.96","55","63",,,,,"77",,,,"10.00",,"260",,"3",,,,,,,,,,,,,,,,,,,,,,,,,,,,,,,,,,,,,"MET061METAR KSQL 180600Z AUTO 26003KT 10SM CLR 17/13 A2996 RMK AO2=","FM-15","4",,,,,,,,,,,,,,,,,,,,,,,,,,,,
"72493893231","2020-07-17T22:15:00","FM-15","7",,,,,,,,,,,,,,,,,,,,,,,,,,,,,,,,,,,,,,"29.96","55","63",,,,,"77",,"FEW:02 110","29.95","10.00","58","210",,"5",,,,,,,,,,,,,,,,,,,,,,,,,,,,,,,,,,,,,"MET07607/17/20 22:15:02 METAR KSQL 180615Z 21004KT 10SM FEW110 17/13 A2996 RMK AO2","FM-15","7",,,,,,,,,,,,,,,,,,,,,,,,,,,,
"72493893231","2020-07-17T22:20:00","FM-15","7",,,,,,,,,,,,,,,,,,,,,,,,,,,,,,,,,,,,,,"29.96","55","63",,,,,"77",,"FEW:02 110","29.95","10.00","58","170",,"5",,,,,,,,,,,,,,,,,,,,,,,,,,,,,,,,,,,,,"MET07607/17/20 22:20:02 METAR KSQL 180620Z 17004KT 10SM FEW110 17/13 A2996 RMK AO2","FM-15","7",,,,,,,,,,,,,,,,,,,,,,,,,,,,
"72493893231","2020-07-17T22:35:00","FM-15","7",,,,,,,,,,,,,,,,,,,,,,,,,,,,,,,,,,,,,,"29.96","57","63",,,,,"83",,"CLR:00","29.95","10.00","60","200",,"5",,,,,,,,,,,,,,,,,,,,,,,,,,,,,,,,,,,,,"MET07307/17/20 22:35:02 METAR KSQL 180635Z 20004KT 10SM CLR 17/14 A2996 RMK AO2","FM-15","7",,,,,,,,,,,,,,,,,,,,,,,,,,,,
"72493893231","2020-07-17T22:40:00","FM-15","7",,,,,,,,,,,,,,,,,,,,,,,,,,,,,,,,,,,,,,"29.96","57","63",,,,,"83",,"CLR:00","29.95","10.00","60","210",,"5",,,,,,,,,,,,,,,,,,,,,,,,,,,,,,,,,,,,,"MET07307/17/20 22:40:02 METAR KSQL 180640Z 21004KT 10SM CLR 17/14 A2996 RMK AO2","FM-15","7",,,,,,,,,,,,,,,,,,,,,,,,,,,,
"72493893231","2020-07-17T22:55:00","FM-15","7",,,,,,,,,,,,,,,,,,,,,,,,,,,,,,,,,,,,,,"29.96","57","63",,,,,"83",,"CLR:00","29.95","10.00","60","000",,"0",,,,,,,,,,,,,,,,,,,,,,,,,,,,,,,,,,,,,"MET07307/17/20 22:55:02 METAR KSQL 180655Z 00000KT 10SM CLR 17/14 A2996 RMK AO2","FM-15","7",,,,,,,,,,,,,,,,,,,,,,,,,,,,
"72493893231","2020-07-17T23:00:00","FM-15","4",,,,,,,,,,,,,,,,,,,,,,,,,,,,,,,,,,,,,,"29.96","55","63",,,,,"77",,,,"10.00",,"240",,"3",,,,,,,,,,,,,,,,,,,,,,,,,,,,,,,,,,,,,"MET061METAR KSQL 180700Z AUTO 24003KT 10SM CLR 17/13 A2996 RMK AO2=","FM-15","4",,,,,,,,,,,,,,,,,,,,,,,,,,,,
"72493893231","2020-07-17T23:15:00","FM-15","7",,,,,,,,,,,,,,,,,,,,,,,,,,,,,,,,,,,,,,"29.96","55","63",,,,,"77",,"CLR:00","29.95","10.00","58","270",,"5",,,,,,,,,,,,,,,,,,,,,,,,,,,,,,,,,,,,,"MET07307/17/20 23:15:02 METAR KSQL 180715Z 27004KT 10SM CLR 17/13 A2996 RMK AO2","FM-15","7",,,,,,,,,,,,,,,,,,,,,,,,,,,,
"72493893231","2020-07-17T23:20:00","FM-15","7",,,,,,,,,,,,,,,,,,,,,,,,,,,,,,,,,,,,,,"29.96","55","63",,,,,"77",,"CLR:00","29.95","10.00","58","250",,"3",,,,,,,,,,,,,,,,,,,,,,,,,,,,,,,,,,,,,"MET07307/17/20 23:20:02 METAR KSQL 180720Z 25003KT 10SM CLR 17/13 A2996 RMK AO2","FM-15","7",,,,,,,,,,,,,,,,,,,,,,,,,,,,
"72493893231","2020-07-17T23:35:00","FM-15","7",,,,,,,,,,,,,,,,,,,,,,,,,,,,,,,,,,,,,,"29.96","55","63",,,,,"77",,"CLR:00","29.95","10.00","58","270",,"5",,,,,,,,,,,,,,,,,,,,,,,,,,,,,,,,,,,,,"MET07307/17/20 23:35:02 METAR KSQL 180735Z 27004KT 10SM CLR 17/13 A2996 RMK AO2","FM-15","7",,,,,,,,,,,,,,,,,,,,,,,,,,,,
"72493893231","2020-07-17T23:40:00","FM-15","7",,,,,,,,,,,,,,,,,,,,,,,,,,,,,,,,,,,,,,"29.96","55","63",,,,,"77",,"CLR:00","29.95","10.00","58","260",,"3",,,,,,,,,,,,,,,,,,,,,,,,,,,,,,,,,,,,,"MET07307/17/20 23:40:02 METAR KSQL 180740Z 26003KT 10SM CLR 17/13 A2996 RMK AO2","FM-15","7",,,,,,,,,,,,,,,,,,,,,,,,,,,,
"72493893231","2020-07-17T23:55:00","FM-15","7",,,,,,,,,,,,,,,,,,,,,,,,,,,,,,,,,,,,,,"29.96","55","63",,,,,"77",,"CLR:00","29.95","10.00","58","240",,"6",,,,,,,,,,,,,,,,,,,,,,,,,,,,,,,,,,,,,"MET07307/17/20 23:55:02 METAR KSQL 180755Z 24005KT 10SM CLR 17/13 A2996 RMK AO2","FM-15","7",,,,,,,,,,,,,,,,,,,,,,,,,,,,
"72493893231","2020-07-18T00:00:00","FM-15","4",,,,,,,,,,,,,,,,,,,,,,,,,,,,,,,,,,,,,,"29.96","55","63",,,,,"77",,,,"10.00",,"260",,"5",,,,,,,,,,,,,,,,,,,,,,,,,,,,,,,,,,,,,"MET061METAR KSQL 180800Z AUTO 26004KT 10SM CLR 17/13 A2996 RMK AO2=","FM-15","4",,,,,,,,,,,,,,,,,,,,,,,,,,,,
"72493893231","2020-07-18T00:15:00","FM-15","7",,,,,,,,,,,,,,,,,,,,,,,,,,,,,,,,,,,,,,"29.96","55","61",,,,,"83",,"CLR:00","29.95","10.00","58","260",,"5",,,,,,,,,,,,,,,,,,,,,,,,,,,,,,,,,,,,,"MET07307/18/20 00:15:02 METAR KSQL 180815Z 26004KT 10SM CLR 16/13 A2996 RMK AO2","FM-15","7",,,,,,,,,,,,,,,,,,,,,,,,,,,,
"72493893231","2020-07-18T00:20:00","FM-15","7",,,,,,,,,,,,,,,,,,,,,,,,,,,,,,,,,,,,,,"29.96","55","61",,,,,"83",,"FEW:02 60","29.95","10.00","58","260",,"5",,,,,,,,,,,,,,,,,,,,,,,,,,,,,,,,,,,,,"MET07607/18/20 00:20:02 METAR KSQL 180820Z 26004KT 10SM FEW060 16/13 A2996 RMK AO2","FM-15","7",,,,,,,,,,,,,,,,,,,,,,,,,,,,
"72493893231","2020-07-18T00:35:00","FM-15","7",,,,,,,,,,,,,,,,,,,,,,,,,,,,,,,,,,,,,,"29.96","55","61",,,,,"83",,"CLR:00","29.95","10.00","58","250",,"3",,,,,,,,,,,,,,,,,,,,,,,,,,,,,,,,,,,,,"MET07307/18/20 00:35:02 METAR KSQL 180835Z 25003KT 10SM CLR 16/13 A2996 RMK AO2","FM-15","7",,,,,,,,,,,,,,,,,,,,,,,,,,,,
"72493893231","2020-07-18T00:40:00","FM-15","7",,,,,,,,,,,,,,,,,,,,,,,,,,,,,,,,,,,,,,"29.96","55","61",,,,,"83",,"CLR:00","29.95","10.00","58","260",,"5",,,,,,,,,,,,,,,,,,,,,,,,,,,,,,,,,,,,,"MET07307/18/20 00:40:02 METAR KSQL 180840Z 26004KT 10SM CLR 16/13 A2996 RMK AO2","FM-15","7",,,,,,,,,,,,,,,,,,,,,,,,,,,,
"72493893231","2020-07-18T00:55:00","FM-15","7",,,,,,,,,,,,,,,,,,,,,,,,,,,,,,,,,,,,,,"29.95","55","59",,,,,"88",,"CLR:00","29.94","10.00","57","000",,"0",,,,,,,,,,,,,,,,,,,,,,,,,,,,,,,,,,,,,"MET07307/18/20 00:55:02 METAR KSQL 180855Z 00000KT 10SM CLR 15/13 A2995 RMK AO2","FM-15","7",,,,,,,,,,,,,,,,,,,,,,,,,,,,
"72493893231","2020-07-18T01:00:00","FM-15","4",,,,,,,,,,,,,,,,,,,,,,,,,,,,,,,,,,,,,,"29.95","55","59",,,,,"88",,,,"10.00",,"270",,"3",,,,,,,,,,,,,,,,,,,,,,,,,,,,,,,,,,,,,"MET061METAR KSQL 180900Z AUTO 27003KT 10SM CLR 15/13 A2995 RMK AO2=","FM-15","4",,,,,,,,,,,,,,,,,,,,,,,,,,,,
"72493893231","2020-07-18T01:15:00","FM-15","7",,,,,,,,,,,,,,,,,,,,,,,,,,,,,,,,,,,,,,"29.95","55","59",,,,,"88",,"CLR:00","29.94","10.00","57","310",,"3",,,,,,,,,,,,,,,,,,,,,,,,,,,,,,,,,,,,,"MET07307/18/20 01:15:02 METAR KSQL 180915Z 31003KT 10SM CLR 15/13 A2995 RMK AO2","FM-15","7",,,,,,,,,,,,,,,,,,,,,,,,,,,,
"72493893231","2020-07-18T01:20:00","FM-15","7",,,,,,,,,,,,,,,,,,,,,,,,,,,,,,,,,,,,,,"29.95","55","59",,,,,"88",,"CLR:00","29.94","10.00","57","310",,"3",,,,,,,,,,,,,,,,,,,,,,,,,,,,,,,,,,,,,"MET07307/18/20 01:20:02 METAR KSQL 180920Z 31003KT 10SM CLR 15/13 A2995 RMK AO2","FM-15","7",,,,,,,,,,,,,,,,,,,,,,,,,,,,
"72493893231","2020-07-18T01:35:00","FM-15","7",,,,,,,,,,,,,,,,,,,,,,,,,,,,,,,,,,,,,,"29.95","55","59",,,,,"88",,"CLR:00","29.94","10.00","57","000",,"0",,,,,,,,,,,,,,,,,,,,,,,,,,,,,,,,,,,,,"MET07307/18/20 01:35:02 METAR KSQL 180935Z 00000KT 10SM CLR 15/13 A2995 RMK AO2","FM-15","7",,,,,,,,,,,,,,,,,,,,,,,,,,,,
"72493893231","2020-07-18T01:40:00","FM-15","7",,,,,,,,,,,,,,,,,,,,,,,,,,,,,,,,,,,,,,"29.95","55","59",,,,,"88",,"CLR:00","29.94","10.00","57","310",,"5",,,,,,,,,,,,,,,,,,,,,,,,,,,,,,,,,,,,,"MET07307/18/20 01:40:02 METAR KSQL 180940Z 31004KT 10SM CLR 15/13 A2995 RMK AO2","FM-15","7",,,,,,,,,,,,,,,,,,,,,,,,,,,,
"72493893231","2020-07-18T01:55:00","FM-15","7",,,,,,,,,,,,,,,,,,,,,,,,,,,,,,,,,,,,,,"29.95","55","59",,,,,"88",,"CLR:00","29.94","10.00","57","300",,"5",,,,,,,,,,,,,,,,,,,,,,,,,,,,,,,,,,,,,"MET07307/18/20 01:55:02 METAR KSQL 180955Z 30004KT 10SM CLR 15/13 A2995 RMK AO2","FM-15","7",,,,,,,,,,,,,,,,,,,,,,,,,,,,
"72493893231","2020-07-18T02:00:00","FM-15","4",,,,,,,,,,,,,,,,,,,,,,,,,,,,,,,,,,,,,,"29.95","55","59",,,,,"88",,,,"10.00",,"310",,"5",,,,,,,,,,,,,,,,,,,,,,,,,,,,,,,,,,,,,"MET064METAR KSQL 181000Z AUTO 31004KT 10SM FEW016 15/13 A2995 RMK AO2=","FM-15","4",,,,,,,,,,,,,,,,,,,,,,,,,,,,
"72493893231","2020-07-18T02:15:00","FM-15","7",,,,,,,,,,,,,,,,,,,,,,,,,,,,,,,,,,,,,,"29.95","55","59",,,,,"88",,"SCT:04 16","29.94","10.00","57","310",,"3",,,,,,,,,,,,,,,,,,,,,,,,,,,,,,,,,,,,,"MET07607/18/20 02:15:02 METAR KSQL 181015Z 31003KT 10SM SCT016 15/13 A2995 RMK AO2","FM-15","7",,,,,,,,,,,,,,,,,,,,,,,,,,,,
"72493893231","2020-07-18T02:20:00","FM-15","7",,,,,,,,,,,,,,,,,,,,,,,,,,,,,,,,,,,,,,"29.95","55","59",,,,,"88",,"SCT:04 16","29.94","10.00","57","000",,"0",,,,,,,,,,,,,,,,,,,,,,,,,,,,,,,,,,,,,"MET07607/18/20 02:20:02 METAR KSQL 181020Z 00000KT 10SM SCT016 15/13 A2995 RMK AO2","FM-15","7",,,,,,,,,,,,,,,,,,,,,,,,,,,,
"72493893231","2020-07-18T02:35:00","FM-15","7",,,,,,,,,,,,,,,,,,,,,,,,,,,,,,,,,,,,,,"29.95","55","59",,,,,"88",,"OVC:08 16","29.94","10.00","57","000",,"0",,,,,,,,,,,,,,,,,,,,,,,,,,,,,,,,,,,,,"MET07607/18/20 02:35:02 METAR KSQL 181035Z 00000KT 10SM OVC016 15/13 A2995 RMK AO2","FM-15","7",,,,,,,,,,,,,,,,,,,,,,,,,,,,
"72493893231","2020-07-18T02:40:00","FM-15","7",,,,,,,,,,,,,,,,,,,,,,,,,,,,,,,,,,,,,,"29.95","55","59",,,,,"88",,"OVC:08 16","29.94","10.00","57","000",,"0",,,,,,,,,,,,,,,,,,,,,,,,,,,,,,,,,,,,,"MET07607/18/20 02:40:02 METAR KSQL 181040Z 00000KT 10SM OVC016 15/13 A2995 RMK AO2","FM-15","7",,,,,,,,,,,,,,,,,,,,,,,,,,,,
"72493893231","2020-07-18T02:55:00","FM-15","7",,,,,,,,,,,,,,,,,,,,,,,,,,,,,,,,,,,,,,"29.95","55","59",,,,,"88",,"OVC:08 16","29.94","10.00","57","000",,"0",,,,,,,,,,,,,,,,,,,,,,,,,,,,,,,,,,,,,"MET07607/18/20 02:55:02 METAR KSQL 181055Z 00000KT 10SM OVC016 15/13 A2995 RMK AO2","FM-15","7",,,,,,,,,,,,,,,,,,,,,,,,,,,,
"72493893231","2020-07-18T03:00:00","FM-15","4",,,,,,,,,,,,,,,,,,,,,,,,,,,,,,,,,,,,,,"29.95","55","59",,,,,"88",,,,"10.00",,"000",,"0",,,,,,,,,,,,,,,,,,,,,,,,,,,,,,,,,,,,,"MET064METAR KSQL 181100Z AUTO 00000KT 10SM OVC016 15/13 A2995 RMK AO2=","FM-15","4",,,,,,,,,,,,,,,,,,,,,,,,,,,,
"72493893231","2020-07-18T03:15:00","FM-15","7",,,,,,,,,,,,,,,,,,,,,,,,,,,,,,,,,,,,,,"29.96","55","59",,,,,"88",,"OVC:08 16","29.95","10.00","57","320",,"3",,,,,,,,,,,,,,,,,,,,,,,,,,,,,,,,,,,,,"MET07607/18/20 03:15:02 METAR KSQL 181115Z 32003KT 10SM OVC016 15/13 A2996 RMK AO2","FM-15","7",,,,,,,,,,,,,,,,,,,,,,,,,,,,
"72493893231","2020-07-18T03:20:00","FM-15","7",,,,,,,,,,,,,,,,,,,,,,,,,,,,,,,,,,,,,,"29.96","55","59",,,,,"88",,"OVC:08 14","29.95","10.00","57","310",,"5",,,,,,,,,,,,,,,,,,,,,,,,,,,,,,,,,,,,,"MET07607/18/20 03:20:02 METAR KSQL 181120Z 31004KT 10SM OVC014 15/13 A2996 RMK AO2","FM-15","7",,,,,,,,,,,,,,,,,,,,,,,,,,,,
"72493893231","2020-07-18T03:35:00","FM-15","7",,,,,,,,,,,,,,,,,,,,,,,,,,,,,,,,,,,,,,"29.96","55","59",,,,,"88",,"OVC:08 14","29.95","10.00","57","310",,"3",,,,,,,,,,,,,,,,,,,,,,,,,,,,,,,,,,,,,"MET07607/18/20 03:35:02 METAR KSQL 181135Z 31003KT 10SM OVC014 15/13 A2996 RMK AO2","FM-15","7",,,,,,,,,,,,,,,,,,,,,,,,,,,,
"72493893231","2020-07-18T03:40:00","FM-15","7",,,,,,,,,,,,,,,,,,,,,,,,,,,,,,,,,,,,,,"29.96","55","59",,,,,"88",,"OVC:08 14","29.95","10.00","57","310",,"3",,,,,,,,,,,,,,,,,,,,,,,,,,,,,,,,,,,,,"MET07607/18/20 03:40:02 METAR KSQL 181140Z 31003KT 10SM OVC014 15/13 A2996 RMK AO2","FM-15","7",,,,,,,,,,,,,,,,,,,,,,,,,,,,
"72493893231","2020-07-18T03:55:00","FM-15","7",,,,,,,,,,,,,,,,,,,,,,,,,,,,,,,,,,,,,,"29.96","55","61",,,,,"83",,"OVC:08 14","29.95","10.00","58","000",,"0",,,,,,,,,,,,,,,,,,,,,,,,,,,,,,,,,,,,,"MET07607/18/20 03:55:02 METAR KSQL 181155Z 00000KT 10SM OVC014 16/13 A2996 RMK AO2","FM-15","7",,,,,,,,,,,,,,,,,,,,,,,,,,,,
"72493893231","2020-07-18T04:00:00","FM-15","4",,,,,,,,,,,,,,,,,,,,,,,,,,,,,,,,,,,,,,"29.96","55","61",,,,,"83",,,,"10.00",,"000",,"0",,,,,,,,,,,,,,,,,,,,,,,,,,,,,,,,,,,,,"MET064METAR KSQL 181200Z AUTO 00000KT 10SM OVC014 16/13 A2996 RMK AO2=","FM-15","4",,,,,,,,,,,,,,,,,,,,,,,,,,,,
"72493893231","2020-07-18T04:15:00","FM-15","7",,,,,,,,,,,,,,,,,,,,,,,,,,,,,,,,,,,,,,"29.96","55","63",,,,,"77",,"OVC:08 14","29.95","10.00","58","000",,"0",,,,,,,,,,,,,,,,,,,,,,,,,,,,,,,,,,,,,"MET07607/18/20 04:15:02 METAR KSQL 181215Z 00000KT 10SM OVC014 17/13 A2996 RMK AO2","FM-15","7",,,,,,,,,,,,,,,,,,,,,,,,,,,,
"72493893231","2020-07-18T04:20:00","FM-15","7",,,,,,,,,,,,,,,,,,,,,,,,,,,,,,,,,,,,,,"29.96","55","63",,,,,"77",,"OVC:08 12","29.95","10.00","58","000",,"0",,,,,,,,,,,,,,,,,,,,,,,,,,,,,,,,,,,,,"MET07607/18/20 04:20:02 METAR KSQL 181220Z 00000KT 10SM OVC012 17/13 A2996 RMK AO2","FM-15","7",,,,,,,,,,,,,,,,,,,,,,,,,,,,
"72493893231","2020-07-18T04:35:00","FM-15","7",,,,,,,,,,,,,,,,,,,,,,,,,,,,,,,,,,,,,,"29.96","57","63",,,,,"83",,"OVC:08 12","29.95","10.00","60","000",,"0",,,,,,,,,,,,,,,,,,,,,,,,,,,,,,,,,,,,,"MET07607/18/20 04:35:02 METAR KSQL 181235Z 00000KT 10SM OVC012 17/14 A2996 RMK AO2","FM-15","7",,,,,,,,,,,,,,,,,,,,,,,,,,,,
"72493893231","2020-07-18T04:40:00","FM-15","7",,,,,,,,,,,,,,,,,,,,,,,,,,,,,,,,,,,,,,"29.96","57","63",,,,,"83",,"OVC:08 12","29.95","10.00","60","000",,"0",,,,,,,,,,,,,,,,,,,,,,,,,,,,,,,,,,,,,"MET07607/18/20 04:40:02 METAR KSQL 181240Z 00000KT 10SM OVC012 17/14 A2996 RMK AO2","FM-15","7",,,,,,,,,,,,,,,,,,,,,,,,,,,,
"72493893231","2020-07-18T04:55:00","FM-15","7",,,,,,,,,,,,,,,,,,,,,,,,,,,,,,,,,,,,,,"29.97","57","63",,,,,"83",,"OVC:08 12","29.96","10.00","60","000",,"0",,,,,,,,,,,,,,,,,,,,,,,,,,,,,,,,,,,,,"MET07607/18/20 04:55:02 METAR KSQL 181255Z 00000KT 10SM OVC012 17/14 A2997 RMK AO2","FM-15","7",,,,,,,,,,,,,,,,,,,,,,,,,,,,
"72493893231","2020-07-18T05:00:00","FM-15","4",,,,,,,,,,,,,,,,,,,,,,,,,,,,,,,,,,,,,,"29.97","57","63",,,,,"83",,,,"10.00",,"000",,"0",,,,,,,,,,,,,,,,,,,,,,,,,,,,,,,,,,,,,"MET064METAR KSQL 181300Z AUTO 00000KT 10SM OVC012 17/14 A2997 RMK AO2=","FM-15","4",,,,,,,,,,,,,,,,,,,,,,,,,,,,
"72493893231","2020-07-18T05:15:00","FM-15","7",,,,,,,,,,,,,,,,,,,,,,,,,,,,,,,,,,,,,,"29.97","57","63",,,,,"83",,"OVC:08 12","29.96","10.00","60","060",,"6",,,,,,,,,,,,,,,,,,,,,,,,,,,,,,,,,,,,,"MET07607/18/20 05:15:02 METAR KSQL 181315Z 06005KT 10SM OVC012 17/14 A2997 RMK AO2","FM-15","7",,,,,,,,,,,,,,,,,,,,,,,,,,,,
"72493893231","2020-07-18T05:20:00","FM-15","7",,,,,,,,,,,,,,,,,,,,,,,,,,,,,,,,,,,,,,"29.97","59","63",,,,,"88",,"OVC:08 12","29.96","10.00","61","070",,"6",,,,,,,,,,,,,,,,,,,,,,,,,,,,,,,,,,,,,"MET07607/18/20 05:20:02 METAR KSQL 181320Z 07005KT 10SM OVC012 17/15 A2997 RMK AO2","FM-15","7",,,,,,,,,,,,,,,,,,,,,,,,,,,,
"72493893231","2020-07-18T05:35:00","FM-15","7",,,,,,,,,,,,,,,,,,,,,,,,,,,,,,,,,,,,,,"29.98","59","63",,,,,"88",,"OVC:08 12","29.97","10.00","61","070",,"6",,,,,,,,,,,,,,,,,,,,,,,,,,,,,,,,,,,,,"MET07607/18/20 05:35:02 METAR KSQL 181335Z 07005KT 10SM OVC012 17/15 A2998 RMK AO2","FM-15","7",,,,,,,,,,,,,,,,,,,,,,,,,,,,
"72493893231","2020-07-18T05:40:00","FM-15","7",,,,,,,,,,,,,,,,,,,,,,,,,,,,,,,,,,,,,,"29.98","59","63",,,,,"88",,"OVC:08 12","29.97","10.00","61","060",,"7",,,,,,,,,,,,,,,,,,,,,,,,,,,,,,,,,,,,,"MET07607/18/20 05:40:02 METAR KSQL 181340Z 06006KT 10SM OVC012 17/15 A2998 RMK AO2","FM-15","7",,,,,,,,,,,,,,,,,,,,,,,,,,,,
"72493893231","2020-07-18T05:47:00","FM-15","4",,,,,,,,,,,,,,,,,,,,,,,,,,,,,,,,,,,,,,"29.99","59","63",,,,,"88",,,,"10.00",,"070",,"3",,,,,,,,,,,,,,,,,,,,,,,,,,,,,,,,,,,,,"MET051METAR KSQL 181347Z 07003KT 10SM OVC012 17/15 A2999=","FM-15","4",,,,,,,,,,,,,,,,,,,,,,,,,,,,
"72493893231","2020-07-18T05:55:00","FM-15","7",,,,,,,,,,,,,,,,,,,,,,,,,,,,,,,,,,,,,,"29.99","59","63",,,,,"88",,"OVC:08 12","29.98","10.00","61","070",,"6",,,,,,,,,,,,,,,,,,,,,,,,,,,,,,,,,,,,,"MET07607/18/20 05:55:02 METAR KSQL 181355Z 07005KT 10SM OVC012 17/15 A2999 RMK AO2","FM-15","7",,,,,,,,,,,,,,,,,,,,,,,,,,,,
"72493893231","2020-07-18T06:00:00","FM-15","4",,,,,,,,,,,,,,,,,,,,,,,,,,,,,,,,,,,,,,"29.99","59","63",,,,,"88",,,,"10.00",,"090",,"3",,,,,,,,,,,,,,,,,,,,,,,,,,,,,,,,,,,,,"MET064METAR KSQL 181400Z AUTO 09003KT 10SM OVC012 17/15 A2999 RMK AO2=","FM-15","4",,,,,,,,,,,,,,,,,,,,,,,,,,,,
"72493893231","2020-07-18T06:47:00","FM-15","7",,,,,,,,,,,,,,,,,,,,,,,,,,,,,,,,,,,,,,"30.00","59","63",,,,,"88",,"OVC:08 12","29.99","10.00","61","000",,"0",,,,,,,,,,,,,,,,,,,,,,,,,,,,,,,,,,,,,"MET07207/18/20 06:47:02 METAR KSQL 181447Z 00000KT 10SM OVC012 17/15 A3000 RMK","FM-15","7",,,,,,,,,,,,,,,,,,,,,,,,,,,,
"72493893231","2020-07-18T07:47:00","FM-15","7",,,,,,,,,,,,,,,,,,,,,,,,,,,,,,,,,,,,,,"30.01","59","63",,,,,"88",,"OVC:08 12","30.00","10.00","61","040",,"3",,,,,,,,,,,,,,,,,,,,,,,,,,,,,,,,,,,,,"MET07207/18/20 07:47:02 METAR KSQL 181547Z 04003KT 10SM OVC012 17/15 A3001 RMK","FM-15","7",,,,,,,,,,,,,,,,,,,,,,,,,,,,
"72493893231","2020-07-18T08:47:00","FM-15","7",,,,,,,,,,,,,,,,,,,,,,,,,,,,,,,,,,,,,,"30.01","59","64",,,,,"83",,"OVC:08 12","30.00","10.00","61","VRB",,"3",,,,,,,,,,,,,,,,,,,,,,,,,,,,,,,,,,,,,"MET07207/18/20 08:47:02 METAR KSQL 181647Z VRB03KT 10SM OVC012 18/15 A3001 RMK","FM-15","7",,,,,,,,,,,,,,,,,,,,,,,,,,,,
"72493893231","2020-07-18T09:47:00","FM-15","7",,,,,,,,,,,,,,,,,,,,,,,,,,,,,,,,,,,,,,"30.01","59","66",,,,,"78",,"FEW:02 11","30.00","10.00","62","030",,"11",,,,,,,,,,,,,,,,,,,,,,,,,,,,,,,,,,,,,"MET07207/18/20 09:47:02 METAR KSQL 181747Z 03010KT 10SM FEW011 19/15 A3001 RMK","FM-15","7",,,,,,,,,,,,,,,,,,,,,,,,,,,,
"72493893231","2020-07-18T10:47:00","FM-15","7",,,,,,,,,,,,,,,,,,,,,,,,,,,,,,,,,,,,,,"30.01","59","66",,,,,"78",,"FEW:02 10","30.00","10.00","62","010",,"7",,,,,,,,,,,,,,,,,,,,,,,,,,,,,,,,,,,,,"MET07207/18/20 10:47:02 METAR KSQL 181847Z 01006KT 10SM FEW010 19/15 A3001 RMK","FM-15","7",,,,,,,,,,,,,,,,,,,,,,,,,,,,
"72493893231","2020-07-18T11:47:00","FM-15","7",,,,,,,,,,,,,,,,,,,,,,,,,,,,,,,,,,,,,,"30.00","59","72",,,,,"65",,"*","29.99","10.00","64","330",,"8",,,,,,,,,,,,,,,,,,,,,,,,,,,,,,,,,,,,,"MET06907/18/20 11:47:02 METAR KSQL 181947Z 33007KT 10SM SKC 22/15 A3000 RMK","FM-15","7",,,,,,,,,,,,,,,,,,,,,,,,,,,,
"72493893231","2020-07-18T12:47:00","FM-15","7",,,,,,,,,,,,,,,,,,,,,,,,,,,,,,,,,,,,,,"29.98","59","73",,,,,"61",,"*","29.97","10.00","65","340",,"9",,,,,,,,,,,,,,,,,,,,,,,,,,,,,,,,,,,,,"MET06907/18/20 12:47:02 METAR KSQL 182047Z 34008KT 10SM SKC 23/15 A2998 RMK","FM-15","7",,,,,,,,,,,,,,,,,,,,,,,,,,,,
"72493893231","2020-07-18T13:47:00","FM-15","7",,,,,,,,,,,,,,,,,,,,,,,,,,,,,,,,,,,,,,"29.97","57","75",,,,,"54",,"*","29.96","10.00","64","250",,"17",,,,,,,,,,,,,,,,,,,,,,,,,,,,,,,,,,,,,"MET06907/18/20 13:47:02 METAR KSQL 182147Z 25015KT 10SM SKC 24/14 A2997 RMK","FM-15","7",,,,,,,,,,,,,,,,,,,,,,,,,,,,
"72493893231","2020-07-18T14:47:00","FM-15","7",,,,,,,,,,,,,,,,,,,,,,,,,,,,,,,,,,,,,,"29.96","57","75",,,,,"54",,"*","29.95","10.00","64","270",,"17",,,,,,,,,,,,,,,,,,,,,,,,,,,,,,,,,,,,,"MET06907/18/20 14:47:02 METAR KSQL 182247Z 27015KT 10SM SKC 24/14 A2996 RMK","FM-15","7",,,,,,,,,,,,,,,,,,,,,,,,,,,,
"72493893231","2020-07-18T15:47:00","FM-15","7",,,,,,,,,,,,,,,,,,,,,,,,,,,,,,,,,,,,,,"29.95","55","75",,,,,"50",,"*","29.94","10.00","63","270",,"11",,,,,,,,,,,,,,,,,,,,,,,,,,,,,,,,,,,,,"MET06907/18/20 15:47:02 METAR KSQL 182347Z 27010KT 10SM SKC 24/13 A2995 RMK","FM-15","7",,,,,,,,,,,,,,,,,,,,,,,,,,,,
"72493893231","2020-07-18T16:51:00","FM-15","7",,,,,,,,,,,,,,,,,,,,,,,,,,,,,,,,,,,,,,"29.93","54","75",,,,,"47",,"*","29.92","10.00","63","310",,"8",,,,,,,,,,,,,,,,,,,,,,,,,,,,,,,,,,,,,"MET06907/18/20 16:51:01 METAR KSQL 190051Z 31007KT 10SM SKC 24/12 A2993 RMK","FM-15","7",,,,,,,,,,,,,,,,,,,,,,,,,,,,
"72493893231","2020-07-18T17:47:00","FM-15","7",,,,,,,,,,,,,,,,,,,,,,,,,,,,,,,,,,,,,,"29.93","55","73",,,,,"53",,"*","29.92","10.00","62","330",,"9",,,,,,,,,,,,,,,,,,,,,,,,,,,,,,,,,,,,,"MET06907/18/20 17:47:01 METAR KSQL 190147Z 33008KT 10SM SKC 23/13 A2993 RMK","FM-15","7",,,,,,,,,,,,,,,,,,,,,,,,,,,,
"72493893231","2020-07-18T18:47:00","FM-15","7",,,,,,,,,,,,,,,,,,,,,,,,,,,,,,,,,,,,,,"29.94","55","70",,,,,"60",,"*","29.93","10.00","61","270",,"8",,,,,,,,,,,,,,,,,,,,,,,,,,,,,,,,,,,,,"MET06907/18/20 18:47:01 METAR KSQL 190247Z 27007KT 10SM SKC 21/13 A2994 RMK","FM-15","7",,,,,,,,,,,,,,,,,,,,,,,,,,,,
"72493893231","2020-07-18T19:52:00","FM-15","7",,,,,,,,,,,,,,,,,,,,,,,,,,,,,,,,,,,,,,"29.95","55","64",,,,,"73",,"*","29.94","10.00","59","290",,"8",,,,,,,,,,,,,,,,,,,,,,,,,,,,,,,,,,,,,"MET07407/18/20 19:52:02 METAR KSQL 190352Z 29007KT 10SM SKC 18/13 A2995 RMK LAST","FM-15","7",,,,,,,,,,,,,,,,,,,,,,,,,,,,
"72493893231","2020-07-18T20:15:00","FM-15","7",,,,,,,,,,,,,,,,,,,,,,,,,,,,,,,,,,,,,,"29.96","55","64",,,,,"73",,"CLR:00","29.95","10.00","59","310",,"7",,,,,,,,,,,,,,,,,,,,,,,,,,,,,,,,,,,,,"MET07307/18/20 20:15:02 METAR KSQL 190415Z 31006KT 10SM CLR 18/13 A2996 RMK AO2","FM-15","7",,,,,,,,,,,,,,,,,,,,,,,,,,,,
"72493893231","2020-07-18T20:20:00","FM-15","7",,,,,,,,,,,,,,,,,,,,,,,,,,,,,,,,,,,,,,"29.96","55","64",,,,,"73",,"CLR:00","29.95","10.00","59","310",,"7",,,,,,,,,,,,,,,,,,,,,,,,,,,,,,,,,,,,,"MET07307/18/20 20:20:02 METAR KSQL 190420Z 31006KT 10SM CLR 18/13 A2996 RMK AO2","FM-15","7",,,,,,,,,,,,,,,,,,,,,,,,,,,,
"72493893231","2020-07-18T20:35:00","FM-15","7",,,,,,,,,,,,,,,,,,,,,,,,,,,,,,,,,,,,,,"29.96","55","64",,,,,"73",,"CLR:00","29.95","10.00","59","330",,"6",,,,,,,,,,,,,,,,,,,,,,,,,,,,,,,,,,,,,"MET07307/18/20 20:35:02 METAR KSQL 190435Z 33005KT 10SM CLR 18/13 A2996 RMK AO2","FM-15","7",,,,,,,,,,,,,,,,,,,,,,,,,,,,
"72493893231","2020-07-18T20:40:00","FM-15","7",,,,,,,,,,,,,,,,,,,,,,,,,,,,,,,,,,,,,,"29.96","55","64",,,,,"73",,"CLR:00","29.95","10.00","59","340",,"6",,,,,,,,,,,,,,,,,,,,,,,,,,,,,,,,,,,,,"MET07307/18/20 20:40:02 METAR KSQL 190440Z 34005KT 10SM CLR 18/13 A2996 RMK AO2","FM-15","7",,,,,,,,,,,,,,,,,,,,,,,,,,,,
"72493893231","2020-07-18T20:55:00","FM-15","7",,,,,,,,,,,,,,,,,,,,,,,,,,,,,,,,,,,,,,"29.97","55","64",,,,,"73",,"CLR:00","29.96","10.00","59","350",,"6",,,,,,,,,,,,,,,,,,,,,,,,,,,,,,,,,,,,,"MET07307/18/20 20:55:02 METAR KSQL 190455Z 35005KT 10SM CLR 18/13 A2997 RMK AO2","FM-15","7",,,,,,,,,,,,,,,,,,,,,,,,,,,,
"72493893231","2020-07-18T21:00:00","FM-15","4",,,,,,,,,,,,,,,,,,,,,,,,,,,,,,,,,,,,,,"29.97","55","63",,,,,"77",,,,"10.00",,"340",,"5",,,,,,,,,,,,,,,,,,,,,,,,,,,,,,,,,,,,,"MET061METAR KSQL 190500Z AUTO 34004KT 10SM CLR 17/13 A2997 RMK AO2=","FM-15","4",,,,,,,,,,,,,,,,,,,,,,,,,,,,
"72493893231","2020-07-18T21:15:00","FM-15","7",,,,,,,,,,,,,,,,,,,,,,,,,,,,,,,,,,,,,,"29.97","55","63",,,,,"77",,"CLR:00","29.96","10.00","58","320",,"5",,,,,,,,,,,,,,,,,,,,,,,,,,,,,,,,,,,,,"MET07307/18/20 21:15:02 METAR KSQL 190515Z 32004KT 10SM CLR 17/13 A2997 RMK AO2","FM-15","7",,,,,,,,,,,,,,,,,,,,,,,,,,,,
"72493893231","2020-07-18T21:20:00","FM-15","7",,,,,,,,,,,,,,,,,,,,,,,,,,,,,,,,,,,,,,"29.97","55","63",,,,,"77",,"CLR:00","29.96","10.00","58","330",,"5",,,,,,,,,,,,,,,,,,,,,,,,,,,,,,,,,,,,,"MET07307/18/20 21:20:02 METAR KSQL 190520Z 33004KT 10SM CLR 17/13 A2997 RMK AO2","FM-15","7",,,,,,,,,,,,,,,,,,,,,,,,,,,,
"72493893231","2020-07-18T21:35:00","FM-15","7",,,,,,,,,,,,,,,,,,,,,,,,,,,,,,,,,,,,,,"29.97","55","63",,,,,"77",,"CLR:00","29.96","10.00","58","310",,"8",,,,,,,,,,,,,,,,,,,,,,,,,,,,,,,,,,,,,"MET07307/18/20 21:35:02 METAR KSQL 190535Z 31007KT 10SM CLR 17/13 A2997 RMK AO2","FM-15","7",,,,,,,,,,,,,,,,,,,,,,,,,,,,
"72493893231","2020-07-18T21:40:00","FM-15","7",,,,,,,,,,,,,,,,,,,,,,,,,,,,,,,,,,,,,,"29.97","55","63",,,,,"77",,"CLR:00","29.96","10.00","58","310",,"8",,,,,,,,,,,,,,,,,,,,,,,,,,,,,,,,,,,,,"MET07307/18/20 21:40:02 METAR KSQL 190540Z 31007KT 10SM CLR 17/13 A2997 RMK AO2","FM-15","7",,,,,,,,,,,,,,,,,,,,,,,,,,,,
"72493893231","2020-07-18T21:55:00","FM-15","7",,,,,,,,,,,,,,,,,,,,,,,,,,,,,,,,,,,,,,"29.97","55","63",,,,,"77",,"CLR:00","29.96","10.00","58","310",,"8",,,,,,,,,,,,,,,,,,,,,,,,,,,,,,,,,,,,,"MET07307/18/20 21:55:02 METAR KSQL 190555Z 31007KT 10SM CLR 17/13 A2997 RMK AO2","FM-15","7",,,,,,,,,,,,,,,,,,,,,,,,,,,,
"72493893231","2020-07-18T22:00:00","FM-15","4",,,,,,,,,,,,,,,,,,,,,,,,,,,,,,,,,,,,,,"29.97","55","63",,,,,"77",,,,"10.00",,"310",,"7",,,,,,,,,,,,,,,,,,,,,,,,,,,,,,,,,,,,,"MET061METAR KSQL 190600Z AUTO 31006KT 10SM CLR 17/13 A2997 RMK AO2=","FM-15","4",,,,,,,,,,,,,,,,,,,,,,,,,,,,
"72493893231","2020-07-18T22:15:00","FM-15","7",,,,,,,,,,,,,,,,,,,,,,,,,,,,,,,,,,,,,,"29.97","55","63",,,,,"77",,"CLR:00","29.96","10.00","58","310",,"6",,,,,,,,,,,,,,,,,,,,,,,,,,,,,,,,,,,,,"MET07307/18/20 22:15:02 METAR KSQL 190615Z 31005KT 10SM CLR 17/13 A2997 RMK AO2","FM-15","7",,,,,,,,,,,,,,,,,,,,,,,,,,,,
"72493893231","2020-07-18T22:20:00","FM-15","7",,,,,,,,,,,,,,,,,,,,,,,,,,,,,,,,,,,,,,"29.97","55","63",,,,,"77",,"CLR:00","29.96","10.00","58","310",,"5",,,,,,,,,,,,,,,,,,,,,,,,,,,,,,,,,,,,,"MET07307/18/20 22:20:02 METAR KSQL 190620Z 31004KT 10SM CLR 17/13 A2997 RMK AO2","FM-15","7",,,,,,,,,,,,,,,,,,,,,,,,,,,,
"72493893231","2020-07-18T22:35:00","FM-15","7",,,,,,,,,,,,,,,,,,,,,,,,,,,,,,,,,,,,,,"29.97","55","63",,,,,"77",,"CLR:00","29.96","10.00","58","320",,"3",,,,,,,,,,,,,,,,,,,,,,,,,,,,,,,,,,,,,"MET07307/18/20 22:35:02 METAR KSQL 190635Z 32003KT 10SM CLR 17/13 A2997 RMK AO2","FM-15","7",,,,,,,,,,,,,,,,,,,,,,,,,,,,
"72493893231","2020-07-18T22:40:00","FM-15","7",,,,,,,,,,,,,,,,,,,,,,,,,,,,,,,,,,,,,,"29.97","55","63",,,,,"77",,"CLR:00","29.96","10.00","58","320",,"5",,,,,,,,,,,,,,,,,,,,,,,,,,,,,,,,,,,,,"MET07307/18/20 22:40:02 METAR KSQL 190640Z 32004KT 10SM CLR 17/13 A2997 RMK AO2","FM-15","7",,,,,,,,,,,,,,,,,,,,,,,,,,,,
"72493893231","2020-07-18T22:55:00","FM-15","7",,,,,,,,,,,,,,,,,,,,,,,,,,,,,,,,,,,,,,"29.98","55","63",,,,,"77",,"CLR:00","29.97","10.00","58","310",,"5",,,,,,,,,,,,,,,,,,,,,,,,,,,,,,,,,,,,,"MET07307/18/20 22:55:02 METAR KSQL 190655Z 31004KT 10SM CLR 17/13 A2998 RMK AO2","FM-15","7",,,,,,,,,,,,,,,,,,,,,,,,,,,,
"72493893231","2020-07-18T23:00:00","FM-15","4",,,,,,,,,,,,,,,,,,,,,,,,,,,,,,,,,,,,,,"29.98","55","63",,,,,"77",,,,"10.00",,"310",,"5",,,,,,,,,,,,,,,,,,,,,,,,,,,,,,,,,,,,,"MET061METAR KSQL 190700Z AUTO 31004KT 10SM CLR 17/13 A2998 RMK AO2=","FM-15","4",,,,,,,,,,,,,,,,,,,,,,,,,,,,
"72493893231","2020-07-18T23:15:00","FM-15","7",,,,,,,,,,,,,,,,,,,,,,,,,,,,,,,,,,,,,,"29.98","55","63",,,,,"77",,"CLR:00","29.97","10.00","58","300",,"5",,,,,,,,,,,,,,,,,,,,,,,,,,,,,,,,,,,,,"MET07307/18/20 23:15:02 METAR KSQL 190715Z 30004KT 10SM CLR 17/13 A2998 RMK AO2","FM-15","7",,,,,,,,,,,,,,,,,,,,,,,,,,,,
"72493893231","2020-07-18T23:20:00","FM-15","7",,,,,,,,,,,,,,,,,,,,,,,,,,,,,,,,,,,,,,"29.98","55","63",,,,,"77",,"CLR:00","29.97","10.00","58","300",,"5",,,,,,,,,,,,,,,,,,,,,,,,,,,,,,,,,,,,,"MET07307/18/20 23:20:02 METAR KSQL 190720Z 30004KT 10SM CLR 17/13 A2998 RMK AO2","FM-15","7",,,,,,,,,,,,,,,,,,,,,,,,,,,,
"72493893231","2020-07-18T23:35:00","FM-15","7",,,,,,,,,,,,,,,,,,,,,,,,,,,,,,,,,,,,,,"29.98","55","61",,,,,"83",,"CLR:00","29.97","10.00","58","300",,"5",,,,,,,,,,,,,,,,,,,,,,,,,,,,,,,,,,,,,"MET07307/18/20 23:35:02 METAR KSQL 190735Z 30004KT 10SM CLR 16/13 A2998 RMK AO2","FM-15","7",,,,,,,,,,,,,,,,,,,,,,,,,,,,
"72493893231","2020-07-18T23:40:00","FM-15","7",,,,,,,,,,,,,,,,,,,,,,,,,,,,,,,,,,,,,,"29.98","55","61",,,,,"83",,"CLR:00","29.97","10.00","58","290",,"5",,,,,,,,,,,,,,,,,,,,,,,,,,,,,,,,,,,,,"MET07307/18/20 23:40:02 METAR KSQL 190740Z 29004KT 10SM CLR 16/13 A2998 RMK AO2","FM-15","7",,,,,,,,,,,,,,,,,,,,,,,,,,,,
"72493893231","2020-07-18T23:55:00","FM-15","7",,,,,,,,,,,,,,,,,,,,,,,,,,,,,,,,,,,,,,"29.98","55","61",,,,,"83",,"CLR:00","29.97","10.00","58","300",,"5",,,,,,,,,,,,,,,,,,,,,,,,,,,,,,,,,,,,,"MET07307/18/20 23:55:02 METAR KSQL 190755Z 30004KT 10SM CLR 16/13 A2998 RMK AO2","FM-15","7",,,,,,,,,,,,,,,,,,,,,,,,,,,,
"72493893231","2020-07-19T00:00:00","FM-15","4",,,,,,,,,,,,,,,,,,,,,,,,,,,,,,,,,,,,,,"29.98","55","61",,,,,"83",,,,"10.00",,"300",,"3",,,,,,,,,,,,,,,,,,,,,,,,,,,,,,,,,,,,,"MET061METAR KSQL 190800Z AUTO 30003KT 10SM CLR 16/13 A2998 RMK AO2=","FM-15","4",,,,,,,,,,,,,,,,,,,,,,,,,,,,
"72493893231","2020-07-19T00:15:00","FM-15","7",,,,,,,,,,,,,,,,,,,,,,,,,,,,,,,,,,,,,,"29.97","55","59",,,,,"88",,"CLR:00","29.96","10.00","57","310",,"5",,,,,,,,,,,,,,,,,,,,,,,,,,,,,,,,,,,,,"MET07307/19/20 00:15:02 METAR KSQL 190815Z 31004KT 10SM CLR 15/13 A2997 RMK AO2","FM-15","7",,,,,,,,,,,,,,,,,,,,,,,,,,,,
"72493893231","2020-07-19T00:20:00","FM-15","7",,,,,,,,,,,,,,,,,,,,,,,,,,,,,,,,,,,,,,"29.97","55","59",,,,,"88",,"CLR:00","29.96","10.00","57","310",,"5",,,,,,,,,,,,,,,,,,,,,,,,,,,,,,,,,,,,,"MET07307/19/20 00:20:02 METAR KSQL 190820Z 31004KT 10SM CLR 15/13 A2997 RMK AO2","FM-15","7",,,,,,,,,,,,,,,,,,,,,,,,,,,,
"72493893231","2020-07-19T00:35:00","FM-15","7",,,,,,,,,,,,,,,,,,,,,,,,,,,,,,,,,,,,,,"29.98","55","59",,,,,"88",,"CLR:00","29.97","10.00","57","310",,"6",,,,,,,,,,,,,,,,,,,,,,,,,,,,,,,,,,,,,"MET07307/19/20 00:35:02 METAR KSQL 190835Z 31005KT 10SM CLR 15/13 A2998 RMK AO2","FM-15","7",,,,,,,,,,,,,,,,,,,,,,,,,,,,
"72493893231","2020-07-19T00:40:00","FM-15","7",,,,,,,,,,,,,,,,,,,,,,,,,,,,,,,,,,,,,,"29.98","55","59",,,,,"88",,"CLR:00","29.97","10.00","57","300",,"6",,,,,,,,,,,,,,,,,,,,,,,,,,,,,,,,,,,,,"MET07307/19/20 00:40:02 METAR KSQL 190840Z 30005KT 10SM CLR 15/13 A2998 RMK AO2","FM-15","7",,,,,,,,,,,,,,,,,,,,,,,,,,,,
"72493893231","2020-07-19T00:55:00","FM-15","7",,,,,,,,,,,,,,,,,,,,,,,,,,,,,,,,,,,,,,"29.97","55","59",,,,,"88",,"CLR:00","29.96","10.00","57","300",,"6",,,,,,,,,,,,,,,,,,,,,,,,,,,,,,,,,,,,,"MET07307/19/20 00:55:02 METAR KSQL 190855Z 30005KT 10SM CLR 15/13 A2997 RMK AO2","FM-15","7",,,,,,,,,,,,,,,,,,,,,,,,,,,,
"72493893231","2020-07-19T01:00:00","FM-15","4",,,,,,,,,,,,,,,,,,,,,,,,,,,,,,,,,,,,,,"29.98","55","59",,,,,"88",,,,"10.00",,"300",,"5",,,,,,,,,,,,,,,,,,,,,,,,,,,,,,,,,,,,,"MET061METAR KSQL 190900Z AUTO 30004KT 10SM CLR 15/13 A2998 RMK AO2=","FM-15","4",,,,,,,,,,,,,,,,,,,,,,,,,,,,
"72493893231","2020-07-19T01:15:00","FM-15","7",,,,,,,,,,,,,,,,,,,,,,,,,,,,,,,,,,,,,,"29.97","55","59",,,,,"88",,"CLR:00","29.96","10.00","57","310",,"3",,,,,,,,,,,,,,,,,,,,,,,,,,,,,,,,,,,,,"MET07307/19/20 01:15:02 METAR KSQL 190915Z 31003KT 10SM CLR 15/13 A2997 RMK AO2","FM-15","7",,,,,,,,,,,,,,,,,,,,,,,,,,,,
"72493893231","2020-07-19T01:20:00","FM-15","7",,,,,,,,,,,,,,,,,,,,,,,,,,,,,,,,,,,,,,"29.97","55","59",,,,,"88",,"CLR:00","29.96","10.00","57","310",,"3",,,,,,,,,,,,,,,,,,,,,,,,,,,,,,,,,,,,,"MET07307/19/20 01:20:02 METAR KSQL 190920Z 31003KT 10SM CLR 15/13 A2997 RMK AO2","FM-15","7",,,,,,,,,,,,,,,,,,,,,,,,,,,,
"72493893231","2020-07-19T01:35:00","FM-15","7",,,,,,,,,,,,,,,,,,,,,,,,,,,,,,,,,,,,,,"29.97","55","59",,,,,"88",,"CLR:00","29.96","10.00","57","300",,"3",,,,,,,,,,,,,,,,,,,,,,,,,,,,,,,,,,,,,"MET07307/19/20 01:35:02 METAR KSQL 190935Z 30003KT 10SM CLR 15/13 A2997 RMK AO2","FM-15","7",,,,,,,,,,,,,,,,,,,,,,,,,,,,
"72493893231","2020-07-19T01:40:00","FM-15","7",,,,,,,,,,,,,,,,,,,,,,,,,,,,,,,,,,,,,,"29.97","55","59",,,,,"88",,"CLR:00","29.96","10.00","57","310",,"3",,,,,,,,,,,,,,,,,,,,,,,,,,,,,,,,,,,,,"MET07307/19/20 01:40:02 METAR KSQL 190940Z 31003KT 10SM CLR 15/13 A2997 RMK AO2","FM-15","7",,,,,,,,,,,,,,,,,,,,,,,,,,,,
"72493893231","2020-07-19T01:55:00","FM-15","7",,,,,,,,,,,,,,,,,,,,,,,,,,,,,,,,,,,,,,"29.97","55","59",,,,,"88",,"SCT:04 18","29.96","10.00","57","310",,"3",,,,,,,,,,,,,,,,,,,,,,,,,,,,,,,,,,,,,"MET07607/19/20 01:55:02 METAR KSQL 190955Z 31003KT 10SM SCT018 15/13 A2997 RMK AO2","FM-15","7",,,,,,,,,,,,,,,,,,,,,,,,,,,,
"72493893231","2020-07-19T02:00:00","FM-15","4",,,,,,,,,,,,,,,,,,,,,,,,,,,,,,,,,,,,,,"29.97","55","59",,,,,"88",,,,"10.00",,"300",,"3",,,,,,,,,,,,,,,,,,,,,,,,,,,,,,,,,,,,,"MET064METAR KSQL 191000Z AUTO 30003KT 10SM BKN018 15/13 A2997 RMK AO2=","FM-15","4",,,,,,,,,,,,,,,,,,,,,,,,,,,,
"72493893231","2020-07-19T02:15:00","FM-15","7",,,,,,,,,,,,,,,,,,,,,,,,,,,,,,,,,,,,,,"29.97","55","59",,,,,"88",,"OVC:08 18","29.96","10.00","57","310",,"3",,,,,,,,,,,,,,,,,,,,,,,,,,,,,,,,,,,,,"MET07607/19/20 02:15:02 METAR KSQL 191015Z 31003KT 10SM OVC018 15/13 A2997 RMK AO2","FM-15","7",,,,,,,,,,,,,,,,,,,,,,,,,,,,
"72493893231","2020-07-19T02:20:00","FM-15","7",,,,,,,,,,,,,,,,,,,,,,,,,,,,,,,,,,,,,,"29.97","55","59",,,,,"88",,"OVC:08 18","29.96","10.00","57","310",,"3",,,,,,,,,,,,,,,,,,,,,,,,,,,,,,,,,,,,,"MET07607/19/20 02:20:02 METAR KSQL 191020Z 31003KT 10SM OVC018 15/13 A2997 RMK AO2","FM-15","7",,,,,,,,,,,,,,,,,,,,,,,,,,,,
"72493893231","2020-07-19T02:35:00","FM-15","7",,,,,,,,,,,,,,,,,,,,,,,,,,,,,,,,,,,,,,"29.97","55","59",,,,,"88",,"OVC:08 18","29.96","10.00","57","320",,"3",,,,,,,,,,,,,,,,,,,,,,,,,,,,,,,,,,,,,"MET07607/19/20 02:35:02 METAR KSQL 191035Z 32003KT 10SM OVC018 15/13 A2997 RMK AO2","FM-15","7",,,,,,,,,,,,,,,,,,,,,,,,,,,,
"72493893231","2020-07-19T02:40:00","FM-15","7",,,,,,,,,,,,,,,,,,,,,,,,,,,,,,,,,,,,,,"29.97","55","59",,,,,"88",,"OVC:08 18","29.96","10.00","57","000",,"0",,,,,,,,,,,,,,,,,,,,,,,,,,,,,,,,,,,,,"MET07607/19/20 02:40:02 METAR KSQL 191040Z 00000KT 10SM OVC018 15/13 A2997 RMK AO2","FM-15","7",,,,,,,,,,,,,,,,,,,,,,,,,,,,
"72493893231","2020-07-19T02:55:00","FM-15","7",,,,,,,,,,,,,,,,,,,,,,,,,,,,,,,,,,,,,,"29.97","55","59",,,,,"88",,"OVC:08 18","29.96","10.00","57","000",,"0",,,,,,,,,,,,,,,,,,,,,,,,,,,,,,,,,,,,,"MET07607/19/20 02:55:02 METAR KSQL 191055Z 00000KT 10SM OVC018 15/13 A2997 RMK AO2","FM-15","7",,,,,,,,,,,,,,,,,,,,,,,,,,,,
"72493893231","2020-07-19T03:00:00","FM-15","4",,,,,,,,,,,,,,,,,,,,,,,,,,,,,,,,,,,,,,"29.97","55","59",,,,,"88",,,,"10.00",,"330",,"3",,,,,,,,,,,,,,,,,,,,,,,,,,,,,,,,,,,,,"MET064METAR KSQL 191100Z AUTO 33003KT 10SM OVC018 15/13 A2997 RMK AO2=","FM-15","4",,,,,,,,,,,,,,,,,,,,,,,,,,,,
"72493893231","2020-07-19T03:15:00","FM-15","7",,,,,,,,,,,,,,,,,,,,,,,,,,,,,,,,,,,,,,"29.97","55","59",,,,,"88",,"OVC:08 16","29.96","10.00","57","000",,"0",,,,,,,,,,,,,,,,,,,,,,,,,,,,,,,,,,,,,"MET07607/19/20 03:15:02 METAR KSQL 191115Z 00000KT 10SM OVC016 15/13 A2997 RMK AO2","FM-15","7",,,,,,,,,,,,,,,,,,,,,,,,,,,,
"72493893231","2020-07-19T03:20:00","FM-15","7",,,,,,,,,,,,,,,,,,,,,,,,,,,,,,,,,,,,,,"29.97","55","59",,,,,"88",,"OVC:08 16","29.96","10.00","57","000",,"0",,,,,,,,,,,,,,,,,,,,,,,,,,,,,,,,,,,,,"MET07607/19/20 03:20:02 METAR KSQL 191120Z 00000KT 10SM OVC016 15/13 A2997 RMK AO2","FM-15","7",,,,,,,,,,,,,,,,,,,,,,,,,,,,
"72493893231","2020-07-19T03:35:00","FM-15","7",,,,,,,,,,,,,,,,,,,,,,,,,,,,,,,,,,,,,,"29.97","55","59",,,,,"88",,"OVC:08 16","29.96","10.00","57","000",,"0",,,,,,,,,,,,,,,,,,,,,,,,,,,,,,,,,,,,,"MET07607/19/20 03:35:02 METAR KSQL 191135Z 00000KT 10SM OVC016 15/13 A2997 RMK AO2","FM-15","7",,,,,,,,,,,,,,,,,,,,,,,,,,,,
"72493893231","2020-07-19T03:40:00","FM-15","7",,,,,,,,,,,,,,,,,,,,,,,,,,,,,,,,,,,,,,"29.97","55","59",,,,,"88",,"OVC:08 16","29.96","10.00","57","000",,"0",,,,,,,,,,,,,,,,,,,,,,,,,,,,,,,,,,,,,"MET07607/19/20 03:40:02 METAR KSQL 191140Z 00000KT 10SM OVC016 15/13 A2997 RMK AO2","FM-15","7",,,,,,,,,,,,,,,,,,,,,,,,,,,,
"72493893231","2020-07-19T03:55:00","FM-15","7",,,,,,,,,,,,,,,,,,,,,,,,,,,,,,,,,,,,,,"29.97","55","61",,,,,"83",,"OVC:08 14","29.96","10.00","58","000",,"0",,,,,,,,,,,,,,,,,,,,,,,,,,,,,,,,,,,,,"MET07607/19/20 03:55:02 METAR KSQL 191155Z 00000KT 10SM OVC014 16/13 A2997 RMK AO2","FM-15","7",,,,,,,,,,,,,,,,,,,,,,,,,,,,
"72493893231","2020-07-19T04:00:00","FM-15","4",,,,,,,,,,,,,,,,,,,,,,,,,,,,,,,,,,,,,,"29.97","57","61",,,,,"88",,,,"10.00",,"000",,"0",,,,,,,,,,,,,,,,,,,,,,,,,,,,,,,,,,,,,"MET064METAR KSQL 191200Z AUTO 00000KT 10SM OVC014 16/14 A2997 RMK AO2=","FM-15","4",,,,,,,,,,,,,,,,,,,,,,,,,,,,
"72493893231","2020-07-19T04:15:00","FM-15","7",,,,,,,,,,,,,,,,,,,,,,,,,,,,,,,,,,,,,,"29.97","57","61",,,,,"88",,"OVC:08 14","29.96","10.00","59","330",,"3",,,,,,,,,,,,,,,,,,,,,,,,,,,,,,,,,,,,,"MET07607/19/20 04:15:02 METAR KSQL 191215Z 33003KT 10SM OVC014 16/14 A2997 RMK AO2","FM-15","7",,,,,,,,,,,,,,,,,,,,,,,,,,,,
"72493893231","2020-07-19T04:20:00","FM-15","7",,,,,,,,,,,,,,,,,,,,,,,,,,,,,,,,,,,,,,"29.97","55","61",,,,,"83",,"OVC:08 14","29.96","10.00","58","320",,"3",,,,,,,,,,,,,,,,,,,,,,,,,,,,,,,,,,,,,"MET07607/19/20 04:20:02 METAR KSQL 191220Z 32003KT 10SM OVC014 16/13 A2997 RMK AO2","FM-15","7",,,,,,,,,,,,,,,,,,,,,,,,,,,,
"72493893231","2020-07-19T04:35:00","FM-15","7",,,,,,,,,,,,,,,,,,,,,,,,,,,,,,,,,,,,,,"29.97","55","61",,,,,"83",,"OVC:08 14","29.96","10.00","58","340",,"3",,,,,,,,,,,,,,,,,,,,,,,,,,,,,,,,,,,,,"MET07607/19/20 04:35:02 METAR KSQL 191235Z 34003KT 10SM OVC014 16/13 A2997 RMK AO2","FM-15","7",,,,,,,,,,,,,,,,,,,,,,,,,,,,
"72493893231","2020-07-19T04:40:00","FM-15","7",,,,,,,,,,,,,,,,,,,,,,,,,,,,,,,,,,,,,,"29.97","55","61",,,,,"83",,"OVC:08 14","29.96","10.00","58","330",,"3",,,,,,,,,,,,,,,,,,,,,,,,,,,,,,,,,,,,,"MET07607/19/20 04:40:02 METAR KSQL 191240Z 33003KT 10SM OVC014 16/13 A2997 RMK AO2","FM-15","7",,,,,,,,,,,,,,,,,,,,,,,,,,,,
"72493893231","2020-07-19T04:55:00","FM-15","7",,,,,,,,,,,,,,,,,,,,,,,,,,,,,,,,,,,,,,"29.97","55","61",,,,,"83",,"OVC:08 14","29.96","10.00","58","000",,"0",,,,,,,,,,,,,,,,,,,,,,,,,,,,,,,,,,,,,"MET07607/19/20 04:55:02 METAR KSQL 191255Z 00000KT 10SM OVC014 16/13 A2997 RMK AO2","FM-15","7",,,,,,,,,,,,,,,,,,,,,,,,,,,,
"72493893231","2020-07-19T05:00:00","FM-15","4",,,,,,,,,,,,,,,,,,,,,,,,,,,,,,,,,,,,,,"29.97","55","61",,,,,"83",,,,"10.00",,"000",,"0",,,,,,,,,,,,,,,,,,,,,,,,,,,,,,,,,,,,,"MET064METAR KSQL 191300Z AUTO 00000KT 10SM OVC014 16/13 A2997 RMK AO2=","FM-15","4",,,,,,,,,,,,,,,,,,,,,,,,,,,,
"72493893231","2020-07-19T05:15:00","FM-15","7",,,,,,,,,,,,,,,,,,,,,,,,,,,,,,,,,,,,,,"29.97","55","61",,,,,"83",,"OVC:08 14","29.96","10.00","58","340",,"5",,,,,,,,,,,,,,,,,,,,,,,,,,,,,,,,,,,,,"MET07607/19/20 05:15:02 METAR KSQL 191315Z 34004KT 10SM OVC014 16/13 A2997 RMK AO2","FM-15","7",,,,,,,,,,,,,,,,,,,,,,,,,,,,
"72493893231","2020-07-19T05:20:00","FM-15","7",,,,,,,,,,,,,,,,,,,,,,,,,,,,,,,,,,,,,,"29.97","55","61",,,,,"83",,"OVC:08 14","29.96","10.00","58","310",,"6",,,,,,,,,,,,,,,,,,,,,,,,,,,,,,,,,,,,,"MET07607/19/20 05:20:02 METAR KSQL 191320Z 31005KT 10SM OVC014 16/13 A2997 RMK AO2","FM-15","7",,,,,,,,,,,,,,,,,,,,,,,,,,,,
"72493893231","2020-07-19T05:35:00","FM-15","7",,,,,,,,,,,,,,,,,,,,,,,,,,,,,,,,,,,,,,"29.98","55","59",,,,,"88",,"OVC:08 14","29.97","10.00","57","310",,"5",,,,,,,,,,,,,,,,,,,,,,,,,,,,,,,,,,,,,"MET07607/19/20 05:35:02 METAR KSQL 191335Z 31004KT 10SM OVC014 15/13 A2998 RMK AO2","FM-15","7",,,,,,,,,,,,,,,,,,,,,,,,,,,,
"72493893231","2020-07-19T05:40:00","FM-15","7",,,,,,,,,,,,,,,,,,,,,,,,,,,,,,,,,,,,,,"29.98","55","59",,,,,"88",,"OVC:08 14","29.97","10.00","57","310",,"5",,,,,,,,,,,,,,,,,,,,,,,,,,,,,,,,,,,,,"MET07607/19/20 05:40:02 METAR KSQL 191340Z 31004KT 10SM OVC014 15/13 A2998 RMK AO2","FM-15","7",,,,,,,,,,,,,,,,,,,,,,,,,,,,
"72493893231","2020-07-19T05:55:00","FM-15","7",,,,,,,,,,,,,,,,,,,,,,,,,,,,,,,,,,,,,,"29.98","55","59",,,,,"88",,"OVC:08 14","29.97","10.00","57","310",,"5",,,,,,,,,,,,,,,,,,,,,,,,,,,,,,,,,,,,,"MET07607/19/20 05:55:02 METAR KSQL 191355Z 31004KT 10SM OVC014 15/13 A2998 RMK AO2","FM-15","7",,,,,,,,,,,,,,,,,,,,,,,,,,,,
"72493893231","2020-07-19T06:00:00","FM-15","4",,,,,,,,,,,,,,,,,,,,,,,,,,,,,,,,,,,,,,"29.98","55","59",,,,,"88",,,,"10.00",,"VRB",,"3",,,,,,,,,,,,,,,,,,,,,,,,,,,,,,,,,,,,,"MET051METAR KSQL 191400Z VRB03KT 10SM OVC015 15/13 A2998=","FM-15","4",,,,,,,,,,,,,,,,,,,,,,,,,,,,
"72493893231","2020-07-19T06:47:00","FM-15","7",,,,,,,,,,,,,,,,,,,,,,,,,,,,,,,,,,,,,,"29.99","55","61",,,,,"83",,"OVC:08 12","29.98","10.00","58","VRB",,"3",,,,,,,,,,,,,,,,,,,,,,,,,,,,,,,,,,,,,"MET07207/19/20 06:47:02 METAR KSQL 191447Z VRB03KT 10SM OVC012 16/13 A2999 RMK","FM-15","7",,,,,,,,,,,,,,,,,,,,,,,,,,,,
"72493893231","2020-07-19T07:47:00","FM-15","7",,,,,,,,,,,,,,,,,,,,,,,,,,,,,,,,,,,,,,"30.00","55","63",,,,,"77",,"OVC:08 14","29.99","10.00","58","VRB",,"3",,,,,,,,,,,,,,,,,,,,,,,,,,,,,,,,,,,,,"MET07207/19/20 07:47:02 METAR KSQL 191547Z VRB03KT 10SM OVC014 17/13 A3000 RMK","FM-15","7",,,,,,,,,,,,,,,,,,,,,,,,,,,,
"72493893231","2020-07-19T08:47:00","FM-15","7",,,,,,,,,,,,,,,,,,,,,,,,,,,,,,,,,,,,,,"30.01","57","64",,,,,"78",,"OVC:08 16","30.00","10.00","60","010",,"5",,,,,,,,,,,,,,,,,,,,,,,,,,,,,,,,,,,,,"MET07207/19/20 08:47:02 METAR KSQL 191647Z 01004KT 10SM OVC016 18/14 A3001 RMK","FM-15","7",,,,,,,,,,,,,,,,,,,,,,,,,,,,
"72493893231","2020-07-19T09:47:00","FM-15","7",,,,,,,,,,,,,,,,,,,,,,,,,,,,,,,,,,,,,,"30.01","55","68",,,,,"64",,"SCT:04 18","30.00","10.00","60","290",,"6",,,,,,,,,,,,,,,,,,,,,,,,,,,,,,,,,,,,,"MET07207/19/20 09:47:02 METAR KSQL 191747Z 29005KT 10SM SCT018 20/13 A3001 RMK","FM-15","7",,,,,,,,,,,,,,,,,,,,,,,,,,,,
"72493893231","2020-07-19T10:47:00","FM-15","7",,,,,,,,,,,,,,,,,,,,,,,,,,,,,,,,,,,,,,"30.01","59","66",,,,,"78",,"SCT:04 18","30.00","10.00","62","360",,"8",,,,,,,,,,,,,,,,,,,,,,,,,,,,,,,,,,,,,"MET07207/19/20 10:47:02 METAR KSQL 191847Z 36007KT 10SM SCT018 19/15 A3001 RMK","FM-15","7",,,,,,,,,,,,,,,,,,,,,,,,,,,,
"72493893231","2020-07-19T11:47:00","FM-15","7",,,,,,,,,,,,,,,,,,,,,,,,,,,,,,,,,,,,,,"30.01","59","66",,,,,"78",,"FEW:02 18","30.00","10.00","62","360",,"6",,,,,,,,,,,,,,,,,,,,,,,,,,,,,,,,,,,,,"MET07207/19/20 11:47:02 METAR KSQL 191947Z 36005KT 10SM FEW018 19/15 A3001 RMK","FM-15","7",,,,,,,,,,,,,,,,,,,,,,,,,,,,
"72493893231","2020-07-19T12:47:00","FM-15","7",,,,,,,,,,,,,,,,,,,,,,,,,,,,,,,,,,,,,,"30.00","59","66",,,,,"78",,"SCT:04 200","29.99","10.00","62","360",,"14",,,,,,,,,,,,,,,,,,,,,,,,,,,,,,,,,,,,,"MET07207/19/20 12:47:02 METAR KSQL 192047Z 36012KT 10SM SCT200 19/15 A3000 RMK","FM-15","7",,,,,,,,,,,,,,,,,,,,,,,,,,,,
"72493893231","2020-07-19T13:47:00","FM-15","7",,,,,,,,,,,,,,,,,,,,,,,,,,,,,,,,,,,,,,"29.99","57","73",,,,,"57",,"*","29.98","10.00","63","260",,"9",,,,,,,,,,,,,,,,,,,,,,,,,,,,,,,,,,,,,"MET06907/19/20 13:47:02 METAR KSQL 192147Z 26008KT 10SM SKC 23/14 A2999 RMK","FM-15","7",,,,,,,,,,,,,,,,,,,,,,,,,,,,
"72493893231","2020-07-19T14:47:00","FM-15","7",,,,,,,,,,,,,,,,,,,,,,,,,,,,,,,,,,,,,,"29.97","55","73",,,,,"53",,"FEW:02 10","29.96","10.00","62","250",,"13",,,,,,,,,,,,,,,,,,,,,,,,,,,,,,,,,,,,,"MET07207/19/20 14:47:02 METAR KSQL 192247Z 25011KT 10SM FEW010 23/13 A2997 RMK","FM-15","7",,,,,,,,,,,,,,,,,,,,,,,,,,,,
"72493893231","2020-07-19T15:47:00","FM-15","7",,,,,,,,,,,,,,,,,,,,,,,,,,,,,,,,,,,,,,"29.96","55","73",,,,,"53",,"FEW:02 10","29.95","10.00","62","270",,"10",,,,,,,,,,,,,,,,,,,,,,,,,,,,,,,,,,,,,"MET07207/19/20 15:47:02 METAR KSQL 192347Z 27009KT 10SM FEW010 23/13 A2996 RMK","FM-15","7",,,,,,,,,,,,,,,,,,,,,,,,,,,,
"72493893231","2020-07-19T17:47:00","FM-15","7",,,,,,,,,,,,,,,,,,,,,,,,,,,,,,,,,,,,,,"29.96","55","68",,,,,"64",,"*","29.95","10.00","60","280",,"14",,,,,,,,,,,,,,,,,,,,,,,,,,,,,,,,,,,,,"MET06907/19/20 17:47:01 METAR KSQL 200147Z 28012KT 10SM SKC 20/13 A2996 RMK","FM-15","7",,,,,,,,,,,,,,,,,,,,,,,,,,,,
"72493893231","2020-07-19T18:47:00","FM-15","7",,,,,,,,,,,,,,,,,,,,,,,,,,,,,,,,,,,,,,"29.96","55","66",,,,,"68",,"*","29.95","10.00","60","270",,"6",,,,,,,,,,,,,,,,,,,,,,,,,,,,,,,,,,,,,"MET06907/19/20 18:47:01 METAR KSQL 200247Z 27005KT 10SM SKC 19/13 A2996 RMK","FM-15","7",,,,,,,,,,,,,,,,,,,,,,,,,,,,
"72493893231","2020-07-19T19:47:00","FM-15","7",,,,,,,,,,,,,,,,,,,,,,,,,,,,,,,,,,,,,,"29.97","55","64",,,,,"73",,"*","29.96","10.00","59","280",,"6",,,,,,,,,,,,,,,,,,,,,,,,,,,,,,,,,,,,,"MET07407/19/20 19:47:02 METAR KSQL 200347Z 28005KT 10SM SKC 18/13 A2997 RMK LAST","FM-15","7",,,,,,,,,,,,,,,,,,,,,,,,,,,,
"72493893231","2020-07-19T20:15:00","FM-15","7",,,,,,,,,,,,,,,,,,,,,,,,,,,,,,,,,,,,,,"29.98","55","63",,,,,"77",,"CLR:00","29.97","10.00","58","310",,"7",,,,,,,,,,,,,,,,,,,,,,,,,,,,,,,,,,,,,"MET07307/19/20 20:15:02 METAR KSQL 200415Z 31006KT 10SM CLR 17/13 A2998 RMK AO2","FM-15","7",,,,,,,,,,,,,,,,,,,,,,,,,,,,
"72493893231","2020-07-19T20:20:00","FM-15","7",,,,,,,,,,,,,,,,,,,,,,,,,,,,,,,,,,,,,,"29.98","55","63",,,,,"77",,"CLR:00","29.97","10.00","58","320",,"8",,,,,,,,,,,,,,,,,,,,,,,,,,,,,,,,,,,,,"MET07307/19/20 20:20:02 METAR KSQL 200420Z 32007KT 10SM CLR 17/13 A2998 RMK AO2","FM-15","7",,,,,,,,,,,,,,,,,,,,,,,,,,,,
"72493893231","2020-07-19T20:35:00","FM-15","7",,,,,,,,,,,,,,,,,,,,,,,,,,,,,,,,,,,,,,"29.98","55","63",,,,,"77",,"CLR:00","29.97","10.00","58","290",,"6",,,,,,,,,,,,,,,,,,,,,,,,,,,,,,,,,,,,,"MET07307/19/20 20:35:02 METAR KSQL 200435Z 29005KT 10SM CLR 17/13 A2998 RMK AO2","FM-15","7",,,,,,,,,,,,,,,,,,,,,,,,,,,,
"72493893231","2020-07-19T20:40:00","FM-15","7",,,,,,,,,,,,,,,,,,,,,,,,,,,,,,,,,,,,,,"29.98","55","63",,,,,"77",,"CLR:00","29.97","10.00","58","300",,"5",,,,,,,,,,,,,,,,,,,,,,,,,,,,,,,,,,,,,"MET07307/19/20 20:40:02 METAR KSQL 200440Z 30004KT 10SM CLR 17/13 A2998 RMK AO2","FM-15","7",,,,,,,,,,,,,,,,,,,,,,,,,,,,
"72493893231","2020-07-19T20:55:00","FM-15","7",,,,,,,,,,,,,,,,,,,,,,,,,,,,,,,,,,,,,,"29.99","55","63",,,,,"77",,"CLR:00","29.98","10.00","58","300",,"6",,,,,,,,,,,,,,,,,,,,,,,,,,,,,,,,,,,,,"MET07307/19/20 20:55:02 METAR KSQL 200455Z 30005KT 10SM CLR 17/13 A2999 RMK AO2","FM-15","7",,,,,,,,,,,,,,,,,,,,,,,,,,,,
"72493893231","2020-07-19T21:00:00","FM-15","4",,,,,,,,,,,,,,,,,,,,,,,,,,,,,,,,,,,,,,"29.99","55","63",,,,,"77",,,,"10.00",,"290",,"3",,,,,,,,,,,,,,,,,,,,,,,,,,,,,,,,,,,,,"MET061METAR KSQL 200500Z AUTO 29003KT 10SM CLR 17/13 A2999 RMK AO2=","FM-15","4",,,,,,,,,,,,,,,,,,,,,,,,,,,,
"72493893231","2020-07-19T21:15:00","FM-15","7",,,,,,,,,,,,,,,,,,,,,,,,,,,,,,,,,,,,,,"29.99","55","63",,,,,"77",,"CLR:00","29.98","10.00","58","310",,"6",,,,,,,,,,,,,,,,,,,,,,,,,,,,,,,,,,,,,"MET07307/19/20 21:15:02 METAR KSQL 200515Z 31005KT 10SM CLR 17/13 A2999 RMK AO2","FM-15","7",,,,,,,,,,,,,,,,,,,,,,,,,,,,
"72493893231","2020-07-19T21:20:00","FM-15","7",,,,,,,,,,,,,,,,,,,,,,,,,,,,,,,,,,,,,,"29.99","55","63",,,,,"77",,"FEW:02 60","29.98","10.00","58","310",,"6",,,,,,,,,,,,,,,,,,,,,,,,,,,,,,,,,,,,,"MET07607/19/20 21:20:02 METAR KSQL 200520Z 31005KT 10SM FEW060 17/13 A2999 RMK AO2","FM-15","7",,,,,,,,,,,,,,,,,,,,,,,,,,,,
"72493893231","2020-07-19T21:35:00","FM-15","7",,,,,,,,,,,,,,,,,,,,,,,,,,,,,,,,,,,,,,"29.99","55","63",,,,,"77",,"FEW:02 60","29.98","10.00","58","290",,"3",,,,,,,,,,,,,,,,,,,,,,,,,,,,,,,,,,,,,"MET07607/19/20 21:35:02 METAR KSQL 200535Z 29003KT 10SM FEW060 17/13 A2999 RMK AO2","FM-15","7",,,,,,,,,,,,,,,,,,,,,,,,,,,,
"72493893231","2020-07-19T21:40:00","FM-15","7",,,,,,,,,,,,,,,,,,,,,,,,,,,,,,,,,,,,,,"29.99","55","63",,,,,"77",,"FEW:02 60","29.98","10.00","58","300",,"3",,,,,,,,,,,,,,,,,,,,,,,,,,,,,,,,,,,,,"MET07607/19/20 21:40:02 METAR KSQL 200540Z 30003KT 10SM FEW060 17/13 A2999 RMK AO2","FM-15","7",,,,,,,,,,,,,,,,,,,,,,,,,,,,
"72493893231","2020-07-19T21:55:00","FM-15","7",,,,,,,,,,,,,,,,,,,,,,,,,,,,,,,,,,,,,,"30.00","55","63",,,,,"77",,"SCT:04 60","29.99","10.00","58","270",,"5",,,,,,,,,,,,,,,,,,,,,,,,,,,,,,,,,,,,,"MET07607/19/20 21:55:02 METAR KSQL 200555Z 27004KT 10SM SCT060 17/13 A3000 RMK AO2","FM-15","7",,,,,,,,,,,,,,,,,,,,,,,,,,,,
"72493893231","2020-07-19T22:00:00","FM-15","4",,,,,,,,,,,,,,,,,,,,,,,,,,,,,,,,,,,,,,"30.00","55","63",,,,,"77",,,,"10.00",,"300",,"5",,,,,,,,,,,,,,,,,,,,,,,,,,,,,,,,,,,,,"MET064METAR KSQL 200600Z AUTO 30004KT 10SM BKN060 17/13 A3000 RMK AO2=","FM-15","4",,,,,,,,,,,,,,,,,,,,,,,,,,,,
"72493893231","2020-07-19T22:15:00","FM-15","7",,,,,,,,,,,,,,,,,,,,,,,,,,,,,,,,,,,,,,"30.00","55","63",,,,,"77",,"OVC:08 60","29.99","10.00","58","300",,"3",,,,,,,,,,,,,,,,,,,,,,,,,,,,,,,,,,,,,"MET07607/19/20 22:15:02 METAR KSQL 200615Z 30003KT 10SM OVC060 17/13 A3000 RMK AO2","FM-15","7",,,,,,,,,,,,,,,,,,,,,,,,,,,,
"72493893231","2020-07-19T22:20:00","FM-15","7",,,,,,,,,,,,,,,,,,,,,,,,,,,,,,,,,,,,,,"30.00","55","61",,,,,"83",,"OVC:08 60","29.99","10.00","58","310",,"5",,,,,,,,,,,,,,,,,,,,,,,,,,,,,,,,,,,,,"MET07607/19/20 22:20:02 METAR KSQL 200620Z 31004KT 10SM OVC060 16/13 A3000 RMK AO2","FM-15","7",,,,,,,,,,,,,,,,,,,,,,,,,,,,
"72493893231","2020-07-19T22:35:00","FM-15","7",,,,,,,,,,,,,,,,,,,,,,,,,,,,,,,,,,,,,,"30.00","55","59",,,,,"88",,"OVC:08 60","29.99","10.00","57","300",,"6",,,,,,,,,,,,,,,,,,,,,,,,,,,,,,,,,,,,,"MET07607/19/20 22:35:02 METAR KSQL 200635Z 30005KT 10SM OVC060 15/13 A3000 RMK AO2","FM-15","7",,,,,,,,,,,,,,,,,,,,,,,,,,,,
"72493893231","2020-07-19T22:40:00","FM-15","7",,,,,,,,,,,,,,,,,,,,,,,,,,,,,,,,,,,,,,"30.00","55","59",,,,,"88",,"BKN:07 60","29.99","10.00","57","300",,"5",,,,,,,,,,,,,,,,,,,,,,,,,,,,,,,,,,,,,"MET07607/19/20 22:40:02 METAR KSQL 200640Z 30004KT 10SM BKN060 15/13 A3000 RMK AO2","FM-15","7",,,,,,,,,,,,,,,,,,,,,,,,,,,,
"72493893231","2020-07-19T22:55:00","FM-15","7",,,,,,,,,,,,,,,,,,,,,,,,,,,,,,,,,,,,,,"30.00","55","61",,,,,"83",,"SCT:04 60","29.99","10.00","58","270",,"6",,,,,,,,,,,,,,,,,,,,,,,,,,,,,,,,,,,,,"MET07607/19/20 22:55:02 METAR KSQL 200655Z 27005KT 10SM SCT060 16/13 A3000 RMK AO2","FM-15","7",,,,,,,,,,,,,,,,,,,,,,,,,,,,
"72493893231","2020-07-19T23:00:00","FM-15","4",,,,,,,,,,,,,,,,,,,,,,,,,,,,,,,,,,,,,,"30.01","55","61",,,,,"83",,,,"10.00",,"260",,"6",,,,,,,,,,,,,,,,,,,,,,,,,,,,,,,,,,,,,"MET064METAR KSQL 200700Z AUTO 26005KT 10SM SCT060 16/13 A3001 RMK AO2=","FM-15","4",,,,,,,,,,,,,,,,,,,,,,,,,,,,
"72493893231","2020-07-19T23:15:00","FM-15","7",,,,,,,,,,,,,,,,,,,,,,,,,,,,,,,,,,,,,,"30.01","55","59",,,,,"88",,"CLR:00","30.00","10.00","57","260",,"6",,,,,,,,,,,,,,,,,,,,,,,,,,,,,,,,,,,,,"MET07307/19/20 23:15:02 METAR KSQL 200715Z 26005KT 10SM CLR 15/13 A3001 RMK AO2","FM-15","7",,,,,,,,,,,,,,,,,,,,,,,,,,,,
"72493893231","2020-07-19T23:20:00","FM-15","7",,,,,,,,,,,,,,,,,,,,,,,,,,,,,,,,,,,,,,"30.01","55","59",,,,,"88",,"FEW:02 15","30.00","10.00","57","260",,"6",,,,,,,,,,,,,,,,,,,,,,,,,,,,,,,,,,,,,"MET07607/19/20 23:20:02 METAR KSQL 200720Z 26005KT 10SM FEW015 15/13 A3001 RMK AO2","FM-15","7",,,,,,,,,,,,,,,,,,,,,,,,,,,,
"72493893231","2020-07-19T23:35:00","FM-15","7",,,,,,,,,,,,,,,,,,,,,,,,,,,,,,,,,,,,,,"30.01","55","59",,,,,"88",,"BKN:07 15","30.00","10.00","57","270",,"6",,,,,,,,,,,,,,,,,,,,,,,,,,,,,,,,,,,,,"MET07607/19/20 23:35:02 METAR KSQL 200735Z 27005KT 10SM BKN015 15/13 A3001 RMK AO2","FM-15","7",,,,,,,,,,,,,,,,,,,,,,,,,,,,
"72493893231","2020-07-19T23:40:00","FM-15","7",,,,,,,,,,,,,,,,,,,,,,,,,,,,,,,,,,,,,,"30.01","55","59",,,,,"88",,"BKN:07 13","30.00","10.00","57","270",,"5",,,,,,,,,,,,,,,,,,,,,,,,,,,,,,,,,,,,,"MET07607/19/20 23:40:02 METAR KSQL 200740Z 27004KT 10SM BKN013 15/13 A3001 RMK AO2","FM-15","7",,,,,,,,,,,,,,,,,,,,,,,,,,,,
"72493893231","2020-07-19T23:55:00","FM-15","7",,,,,,,,,,,,,,,,,,,,,,,,,,,,,,,,,,,,,,"30.01","55","59",,,,,"88",,"OVC:08 13","30.00","10.00","57","270",,"7",,,,,,,,,,,,,,,,,,,,,,,,,,,,,,,,,,,,,"MET07607/19/20 23:55:02 METAR KSQL 200755Z 27006KT 10SM OVC013 15/13 A3001 RMK AO2","FM-15","7",,,,,,,,,,,,,,,,,,,,,,,,,,,,
"72493893231","2020-07-20T00:00:00","FM-15","4",,,,,,,,,,,,,,,,,,,,,,,,,,,,,,,,,,,,,,"30.01","55","59",,,,,"88",,,,"10.00",,"270",,"6",,,,,,,,,,,,,,,,,,,,,,,,,,,,,,,,,,,,,"MET064METAR KSQL 200800Z AUTO 27005KT 10SM OVC013 15/13 A3001 RMK AO2=","FM-15","4",,,,,,,,,,,,,,,,,,,,,,,,,,,,
"72493893231","2020-07-20T00:15:00","FM-15","7",,,,,,,,,,,,,,,,,,,,,,,,,,,,,,,,,,,,,,"30.01","55","59",,,,,"88",,"OVC:08 15","30.00","10.00","57","280",,"5",,,,,,,,,,,,,,,,,,,,,,,,,,,,,,,,,,,,,"MET07607/20/20 00:15:02 METAR KSQL 200815Z 28004KT 10SM OVC015 15/13 A3001 RMK AO2","FM-15","7",,,,,,,,,,,,,,,,,,,,,,,,,,,,
"72493893231","2020-07-20T00:20:00","FM-15","7",,,,,,,,,,,,,,,,,,,,,,,,,,,,,,,,,,,,,,"30.02","55","59",,,,,"88",,"OVC:08 15","30.01","10.00","57","280",,"5",,,,,,,,,,,,,,,,,,,,,,,,,,,,,,,,,,,,,"MET07607/20/20 00:20:02 METAR KSQL 200820Z 28004KT 10SM OVC015 15/13 A3002 RMK AO2","FM-15","7",,,,,,,,,,,,,,,,,,,,,,,,,,,,
"72493893231","2020-07-20T00:35:00","FM-15","7",,,,,,,,,,,,,,,,,,,,,,,,,,,,,,,,,,,,,,"30.02","55","61",,,,,"83",,"OVC:08 15","30.01","10.00","58","270",,"5",,,,,,,,,,,,,,,,,,,,,,,,,,,,,,,,,,,,,"MET07607/20/20 00:35:02 METAR KSQL 200835Z 27004KT 10SM OVC015 16/13 A3002 RMK AO2","FM-15","7",,,,,,,,,,,,,,,,,,,,,,,,,,,,
"72493893231","2020-07-20T00:40:00","FM-15","7",,,,,,,,,,,,,,,,,,,,,,,,,,,,,,,,,,,,,,"30.02","55","61",,,,,"83",,"OVC:08 15","30.01","10.00","58","290",,"5",,,,,,,,,,,,,,,,,,,,,,,,,,,,,,,,,,,,,"MET07607/20/20 00:40:02 METAR KSQL 200840Z 29004KT 10SM OVC015 16/13 A3002 RMK AO2","FM-15","7",,,,,,,,,,,,,,,,,,,,,,,,,,,,
"72493893231","2020-07-20T00:55:00","FM-15","7",,,,,,,,,,,,,,,,,,,,,,,,,,,,,,,,,,,,,,"30.02","55","61",,,,,"83",,"OVC:08 15","30.01","10.00","58","270",,"5",,,,,,,,,,,,,,,,,,,,,,,,,,,,,,,,,,,,,"MET07607/20/20 00:55:02 METAR KSQL 200855Z 27004KT 10SM OVC015 16/13 A3002 RMK AO2","FM-15","7",,,,,,,,,,,,,,,,,,,,,,,,,,,,
"72493893231","2020-07-20T01:00:00","FM-15","4",,,,,,,,,,,,,,,,,,,,,,,,,,,,,,,,,,,,,,"30.02","55","61",,,,,"83",,,,"10.00",,"270",,"6",,,,,,,,,,,,,,,,,,,,,,,,,,,,,,,,,,,,,"MET064METAR KSQL 200900Z AUTO 27005KT 10SM OVC015 16/13 A3002 RMK AO2=","FM-15","4",,,,,,,,,,,,,,,,,,,,,,,,,,,,
"72493893231","2020-07-20T01:15:00","FM-15","7",,,,,,,,,,,,,,,,,,,,,,,,,,,,,,,,,,,,,,"30.02","55","61",,,,,"83",,"OVC:08 15","30.01","10.00","58","270",,"5",,,,,,,,,,,,,,,,,,,,,,,,,,,,,,,,,,,,,"MET07607/20/20 01:15:02 METAR KSQL 200915Z 27004KT 10SM OVC015 16/13 A3002 RMK AO2","FM-15","7",,,,,,,,,,,,,,,,,,,,,,,,,,,,
"72493893231","2020-07-20T01:20:00","FM-15","7",,,,,,,,,,,,,,,,,,,,,,,,,,,,,,,,,,,,,,"30.02","55","61",,,,,"83",,"OVC:08 15","30.01","10.00","58","270",,"6",,,,,,,,,,,,,,,,,,,,,,,,,,,,,,,,,,,,,"MET07607/20/20 01:20:02 METAR KSQL 200920Z 27005KT 10SM OVC015 16/13 A3002 RMK AO2","FM-15","7",,,,,,,,,,,,,,,,,,,,,,,,,,,,
"72493893231","2020-07-20T01:35:00","FM-15","7",,,,,,,,,,,,,,,,,,,,,,,,,,,,,,,,,,,,,,"30.01","55","61",,,,,"83",,"OVC:08 15","30.00","10.00","58","290",,"3",,,,,,,,,,,,,,,,,,,,,,,,,,,,,,,,,,,,,"MET07607/20/20 01:35:02 METAR KSQL 200935Z 29003KT 10SM OVC015 16/13 A3001 RMK AO2","FM-15","7",,,,,,,,,,,,,,,,,,,,,,,,,,,,
"72493893231","2020-07-20T01:40:00","FM-15","7",,,,,,,,,,,,,,,,,,,,,,,,,,,,,,,,,,,,,,"30.01","55","61",,,,,"83",,"OVC:08 15","30.00","10.00","58","270",,"5",,,,,,,,,,,,,,,,,,,,,,,,,,,,,,,,,,,,,"MET07607/20/20 01:40:02 METAR KSQL 200940Z 27004KT 10SM OVC015 16/13 A3001 RMK AO2","FM-15","7",,,,,,,,,,,,,,,,,,,,,,,,,,,,
"72493893231","2020-07-20T01:55:00","FM-15","7",,,,,,,,,,,,,,,,,,,,,,,,,,,,,,,,,,,,,,"30.01","54","61",,,,,"77",,"OVC:08 15","30.00","10.00","57","270",,"5",,,,,,,,,,,,,,,,,,,,,,,,,,,,,,,,,,,,,"MET07607/20/20 01:55:02 METAR KSQL 200955Z 27004KT 10SM OVC015 16/12 A3001 RMK AO2","FM-15","7",,,,,,,,,,,,,,,,,,,,,,,,,,,,
"72493893231","2020-07-20T02:00:00","FM-15","4",,,,,,,,,,,,,,,,,,,,,,,,,,,,,,,,,,,,,,"30.01","54","61",,,,,"77",,,,"10.00",,"260",,"5",,,,,,,,,,,,,,,,,,,,,,,,,,,,,,,,,,,,,"MET064METAR KSQL 201000Z AUTO 26004KT 10SM OVC015 16/12 A3001 RMK AO2=","FM-15","4",,,,,,,,,,,,,,,,,,,,,,,,,,,,
"72493893231","2020-07-20T02:15:00","FM-15","7",,,,,,,,,,,,,,,,,,,,,,,,,,,,,,,,,,,,,,"30.01","54","61",,,,,"77",,"OVC:08 15","30.00","10.00","57","260",,"6",,,,,,,,,,,,,,,,,,,,,,,,,,,,,,,,,,,,,"MET07607/20/20 02:15:02 METAR KSQL 201015Z 26005KT 10SM OVC015 16/12 A3001 RMK AO2","FM-15","7",,,,,,,,,,,,,,,,,,,,,,,,,,,,
"72493893231","2020-07-20T02:20:00","FM-15","7",,,,,,,,,,,,,,,,,,,,,,,,,,,,,,,,,,,,,,"30.01","54","61",,,,,"77",,"OVC:08 15","30.00","10.00","57","270",,"5",,,,,,,,,,,,,,,,,,,,,,,,,,,,,,,,,,,,,"MET07607/20/20 02:20:02 METAR KSQL 201020Z 27004KT 10SM OVC015 16/12 A3001 RMK AO2","FM-15","7",,,,,,,,,,,,,,,,,,,,,,,,,,,,
"72493893231","2020-07-20T02:35:00","FM-15","7",,,,,,,,,,,,,,,,,,,,,,,,,,,,,,,,,,,,,,"30.00","54","61",,,,,"77",,"OVC:08 15","29.99","10.00","57","260",,"6",,,,,,,,,,,,,,,,,,,,,,,,,,,,,,,,,,,,,"MET07607/20/20 02:35:02 METAR KSQL 201035Z 26005KT 10SM OVC015 16/12 A3000 RMK AO2","FM-15","7",,,,,,,,,,,,,,,,,,,,,,,,,,,,
"72493893231","2020-07-20T02:40:00","FM-15","7",,,,,,,,,,,,,,,,,,,,,,,,,,,,,,,,,,,,,,"30.01","54","61",,,,,"77",,"OVC:08 15","30.00","10.00","57","260",,"6",,,,,,,,,,,,,,,,,,,,,,,,,,,,,,,,,,,,,"MET07607/20/20 02:40:02 METAR KSQL 201040Z 26005KT 10SM OVC015 16/12 A3001 RMK AO2","FM-15","7",,,,,,,,,,,,,,,,,,,,,,,,,,,,
"72493893231","2020-07-20T02:55:00","FM-15","7",,,,,,,,,,,,,,,,,,,,,,,,,,,,,,,,,,,,,,"30.01","54","61",,,,,"77",,"OVC:08 15","30.00","10.00","57","270",,"5",,,,,,,,,,,,,,,,,,,,,,,,,,,,,,,,,,,,,"MET07607/20/20 02:55:02 METAR KSQL 201055Z 27004KT 10SM OVC015 16/12 A3001 RMK AO2","FM-15","7",,,,,,,,,,,,,,,,,,,,,,,,,,,,
"72493893231","2020-07-20T03:00:00","FM-15","4",,,,,,,,,,,,,,,,,,,,,,,,,,,,,,,,,,,,,,"30.01","54","61",,,,,"77",,,,"10.00",,"280",,"5",,,,,,,,,,,,,,,,,,,,,,,,,,,,,,,,,,,,,"MET064METAR KSQL 201100Z AUTO 28004KT 10SM OVC015 16/12 A3001 RMK AO2=","FM-15","4",,,,,,,,,,,,,,,,,,,,,,,,,,,,
"72493893231","2020-07-20T03:15:00","FM-15","7",,,,,,,,,,,,,,,,,,,,,,,,,,,,,,,,,,,,,,"30.01","54","61",,,,,"77",,"OVC:08 15","30.00","10.00","57","290",,"6",,,,,,,,,,,,,,,,,,,,,,,,,,,,,,,,,,,,,"MET07607/20/20 03:15:02 METAR KSQL 201115Z 29005KT 10SM OVC015 16/12 A3001 RMK AO2","FM-15","7",,,,,,,,,,,,,,,,,,,,,,,,,,,,
"72493893231","2020-07-20T03:20:00","FM-15","7",,,,,,,,,,,,,,,,,,,,,,,,,,,,,,,,,,,,,,"30.01","54","59",,,,,"82",,"OVC:08 15","30.00","10.00","56","280",,"5",,,,,,,,,,,,,,,,,,,,,,,,,,,,,,,,,,,,,"MET07607/20/20 03:20:02 METAR KSQL 201120Z 28004KT 10SM OVC015 15/12 A3001 RMK AO2","FM-15","7",,,,,,,,,,,,,,,,,,,,,,,,,,,,
"72493893231","2020-07-20T03:35:00","FM-15","7",,,,,,,,,,,,,,,,,,,,,,,,,,,,,,,,,,,,,,"30.01","54","59",,,,,"82",,"OVC:08 15","30.00","10.00","56","280",,"6",,,,,,,,,,,,,,,,,,,,,,,,,,,,,,,,,,,,,"MET07607/20/20 03:35:02 METAR KSQL 201135Z 28005KT 10SM OVC015 15/12 A3001 RMK AO2","FM-15","7",,,,,,,,,,,,,,,,,,,,,,,,,,,,
"72493893231","2020-07-20T03:40:00","FM-15","7",,,,,,,,,,,,,,,,,,,,,,,,,,,,,,,,,,,,,,"30.01","54","59",,,,,"82",,"OVC:08 15","30.00","10.00","56","280",,"6",,,,,,,,,,,,,,,,,,,,,,,,,,,,,,,,,,,,,"MET07607/20/20 03:40:02 METAR KSQL 201140Z 28005KT 10SM OVC015 15/12 A3001 RMK AO2","FM-15","7",,,,,,,,,,,,,,,,,,,,,,,,,,,,
"72493893231","2020-07-20T03:55:00","FM-15","7",,,,,,,,,,,,,,,,,,,,,,,,,,,,,,,,,,,,,,"30.01","54","59",,,,,"82",,"OVC:08 15","30.00","10.00","56","290",,"6",,,,,,,,,,,,,,,,,,,,,,,,,,,,,,,,,,,,,"MET07607/20/20 03:55:02 METAR KSQL 201155Z 29005KT 10SM OVC015 15/12 A3001 RMK AO2","FM-15","7",,,,,,,,,,,,,,,,,,,,,,,,,,,,
"72493893231","2020-07-20T04:00:00","FM-15","7",,,,,,,,,,,,,,,,,,,,,,,,,,,,,,,,,,,,,,"30.01","54","59",,,,,"82",,"OVC:08 15","30.00","10.00","56","260",,"7",,,,,,,,,,,,,,,,,,,,,,,,,,,,,,,,,,,,,"MET07607/20/20 04:00:02 METAR KSQL 201200Z 26006KT 10SM OVC015 15/12 A3001 RMK AO2","FM-15","7",,,,,,,,,,,,,,,,,,,,,,,,,,,,
"72493893231","2020-07-20T05:35:00","FM-15","7",,,,,,,,,,,,,,,,,,,,,,,,,,,,,,,,,,,,,,"30.02","54","59",,,,,"82",,"OVC:08 17","30.01","10.00","56","270",,"6",,,,,,,,,,,,,,,,,,,,,,,,,,,,,,,,,,,,,"MET07607/20/20 05:35:02 METAR KSQL 201335Z 27005KT 10SM OVC017 15/12 A3002 RMK AO2","FM-15","7",,,,,,,,,,,,,,,,,,,,,,,,,,,,
"72493893231","2020-07-20T05:40:00","FM-15","7",,,,,,,,,,,,,,,,,,,,,,,,,,,,,,,,,,,,,,"30.02","54","59",,,,,"82",,"OVC:08 17","30.01","10.00","56","270",,"5",,,,,,,,,,,,,,,,,,,,,,,,,,,,,,,,,,,,,"MET07607/20/20 05:40:02 METAR KSQL 201340Z 27004KT 10SM OVC017 15/12 A3002 RMK AO2","FM-15","7",,,,,,,,,,,,,,,,,,,,,,,,,,,,
"72493893231","2020-07-20T05:47:00","FM-15","4",,,,,,,,,,,,,,,,,,,,,,,,,,,,,,,,,,,,,,"30.02","54","59",,,,,"82",,,,"10.00",,"260",,"3",,,,,,,,,,,,,,,,,,,,,,,,,,,,,,,,,,,,,"MET051METAR KSQL 201347Z 26003KT 10SM OVC017 15/12 A3002=","FM-15","4",,,,,,,,,,,,,,,,,,,,,,,,,,,,
"72493893231","2020-07-20T05:55:00","FM-15","7",,,,,,,,,,,,,,,,,,,,,,,,,,,,,,,,,,,,,,"30.02","54","59",,,,,"82",,"OVC:08 17","30.01","10.00","56","270",,"3",,,,,,,,,,,,,,,,,,,,,,,,,,,,,,,,,,,,,"MET07607/20/20 05:55:02 METAR KSQL 201355Z 27003KT 10SM OVC017 15/12 A3002 RMK AO2","FM-15","7",,,,,,,,,,,,,,,,,,,,,,,,,,,,
"72493893231","2020-07-20T06:00:00","FM-15","4",,,,,,,,,,,,,,,,,,,,,,,,,,,,,,,,,,,,,,"30.02","54","59",,,,,"82",,,,"10.00",,"290",,"5",,,,,,,,,,,,,,,,,,,,,,,,,,,,,,,,,,,,,"MET064METAR KSQL 201400Z AUTO 29004KT 10SM OVC017 15/12 A3002 RMK AO2=","FM-15","4",,,,,,,,,,,,,,,,,,,,,,,,,,,,
"72493893231","2020-07-20T06:47:00","FM-15","7",,,,,,,,,,,,,,,,,,,,,,,,,,,,,,,,,,,,,,"30.03","54","63",,,,,"73",,"OVC:08 17","30.02","10.00","58","290",,"6",,,,,,,,,,,,,,,,,,,,,,,,,,,,,,,,,,,,,"MET07207/20/20 06:47:02 METAR KSQL 201447Z 29005KT 10SM OVC017 17/12 A3003 RMK","FM-15","7",,,,,,,,,,,,,,,,,,,,,,,,,,,,
"72493893231","2020-07-20T07:47:00","FM-15","7",,,,,,,,,,,,,,,,,,,,,,,,,,,,,,,,,,,,,,"30.04","54","63",,,,,"73",,"BKN:07 19","30.03","10.00","58","340",,"3",,,,,,,,,,,,,,,,,,,,,,,,,,,,,,,,,,,,,"MET07207/20/20 07:47:02 METAR KSQL 201547Z 34003KT 10SM BKN019 17/12 A3004 RMK","FM-15","7",,,,,,,,,,,,,,,,,,,,,,,,,,,,
"72493893231","2020-07-20T08:47:00","FM-15","7",,,,,,,,,,,,,,,,,,,,,,,,,,,,,,,,,,,,,,"30.04","55","66",,,,,"68",,"SCT:04 21","30.03","10.00","60","310",,"6",,,,,,,,,,,,,,,,,,,,,,,,,,,,,,,,,,,,,"MET07207/20/20 08:47:02 METAR KSQL 201647Z 31005KT 10SM SCT021 19/13 A3004 RMK","FM-15","7",,,,,,,,,,,,,,,,,,,,,,,,,,,,
"72493893231","2020-07-20T09:47:00","FM-15","7",,,,,,,,,,,,,,,,,,,,,,,,,,,,,,,,,,,,,,"30.03","57","66",,,,,"73",,"FEW:02 21","30.02","10.00","61","360",,"9",,,,,,,,,,,,,,,,,,,,,,,,,,,,,,,,,,,,,"MET07207/20/20 09:47:02 METAR KSQL 201747Z 36008KT 10SM FEW021 19/14 A3003 RMK","FM-15","7",,,,,,,,,,,,,,,,,,,,,,,,,,,,
"72493893231","2020-07-20T10:47:00","FM-15","7",,,,,,,,,,,,,,,,,,,,,,,,,,,,,,,,,,,,,,"30.02","57","64",,,,,"78",,"FEW:02 18","30.01","10.00","60","360",,"21",,,,,,,,,,,,,,,,,,,,,,,,,,,,,,,,,,,,,"MET07207/20/20 10:47:02 METAR KSQL 201847Z 36018KT 10SM FEW018 18/14 A3002 RMK","FM-15","7",,,,,,,,,,,,,,,,,,,,,,,,,,,,
"72493893231","2020-07-20T11:47:00","FM-15","7",,,,,,,,,,,,,,,,,,,,,,,,,,,,,,,,,,,,,,"30.01","59","66",,,,,"78",,"FEW:02 18","30.00","10.00","62","030",,"14",,,,,,,,,,,,,,,,,,,,,,,,,,,,,,,,,,,,,"MET07207/20/20 11:47:02 METAR KSQL 201947Z 03012KT 10SM FEW018 19/15 A3001 RMK","FM-15","7",,,,,,,,,,,,,,,,,,,,,,,,,,,,
"72493893231","2020-07-20T12:47:00","FM-15","7",,,,,,,,,,,,,,,,,,,,,,,,,,,,,,,,,,,,,,"29.99","55","72",,,,,"57",,"FEW:02 18","29.98","10.00","62","270",,"11",,,,,,,,,,,,,,,,,,,,,,,,,,,,,,,,,,,,,"MET07207/20/20 12:47:02 METAR KSQL 202047Z 27010KT 10SM FEW018 22/13 A2999 RMK","FM-15","7",,,,,,,,,,,,,,,,,,,,,,,,,,,,
"72493893231","2020-07-20T13:47:00","FM-15","7",,,,,,,,,,,,,,,,,,,,,,,,,,,,,,,,,,,,,,"29.97","55","73",,,,,"53",,"FEW:02 10","29.96","10.00","62","300",,"10",,,,,,,,,,,,,,,,,,,,,,,,,,,,,,,,,,,,,"MET07207/20/20 13:47:02 METAR KSQL 202147Z 30009KT 10SM FEW010 23/13 A2997 RMK","FM-15","7",,,,,,,,,,,,,,,,,,,,,,,,,,,,
"72493893231","2020-07-20T14:47:00","FM-15","7",,,,,,,,,,,,,,,,,,,,,,,,,,,,,,,,,,,,,,"29.96","55","72",,,,,"57",,"FEW:02 10","29.95","10.00","62","250",,"13",,,,,,,,,,,,,,,,,,,,,,,,,,,,,,,,,,,,,"MET07207/20/20 14:47:02 METAR KSQL 202247Z 25011KT 10SM FEW010 22/13 A2996 RMK","FM-15","7",,,,,,,,,,,,,,,,,,,,,,,,,,,,
"72493893231","2020-07-20T15:47:00","FM-15","7",,,,,,,,,,,,,,,,,,,,,,,,,,,,,,,,,,,,,,"29.94","55","72",,,,,"57",,"FEW:02 10","29.93","10.00","62","270",,"17",,,,,,,,,,,,,,,,,,,,,,,,,,,,,,,,,,,,,"MET07207/20/20 15:47:02 METAR KSQL 202347Z 27015KT 10SM FEW010 22/13 A2994 RMK","FM-15","7",,,,,,,,,,,,,,,,,,,,,,,,,,,,
"72493893231","2020-07-20T16:47:00","FM-15","7",,,,,,,,,,,,,,,,,,,,,,,,,,,,,,,,,,,,,,"29.93","55","72",,,,,"57",,"*","29.92","10.00","62","310",,"14",,,,,,,,,,,,,,,,,,,,,,,,,,,,,,,,,,,,,"MET06907/20/20 16:47:01 METAR KSQL 210047Z 31012KT 10SM SKC 22/13 A2993 RMK","FM-15","7",,,,,,,,,,,,,,,,,,,,,,,,,,,,
"72493893231","2020-07-20T17:47:00","FM-15","7",,,,,,,,,,,,,,,,,,,,,,,,,,,,,,,,,,,,,,"29.93","55","68",,,,,"64",,"*","29.92","10.00","60","311",,"9",,,,,,,,,,,,,,,,,,,,,,,,,,,,,,,,,,,,,"MET06907/20/20 17:47:01 METAR KSQL 210147Z 31108KT 10SM SKC 20/13 A2993 RMK","FM-15","7",,,,,,,,,,,,,,,,,,,,,,,,,,,,
"72493893231","2020-07-20T18:47:00","FM-15","7",,,,,,,,,,,,,,,,,,,,,,,,,,,,,,,,,,,,,,"29.93","54","66",,,,,"64",,"*","29.92","10.00","59","300",,"6",,,,,,,,,,,,,,,,,,,,,,,,,,,,,,,,,,,,,"MET06907/20/20 18:47:01 METAR KSQL 210247Z 30005KT 10SM SKC 19/12 A2993 RMK","FM-15","7",,,,,,,,,,,,,,,,,,,,,,,,,,,,
"72493893231","2020-07-20T19:47:00","FM-15","7",,,,,,,,,,,,,,,,,,,,,,,,,,,,,,,,,,,,,,"29.92","54","64",,,,,"68",,"*","29.91","10.00","58","310",,"11",,,,,,,,,,,,,,,,,,,,,,,,,,,,,,,,,,,,,"MET07407/20/20 19:47:02 METAR KSQL 210347Z 31010KT 10SM SKC 18/12 A2992 RMK LAST","FM-15","7",,,,,,,,,,,,,,,,,,,,,,,,,,,,
"72493893231","2020-07-20T20:15:00","FM-15","7",,,,,,,,,,,,,,,,,,,,,,,,,,,,,,,,,,,,,,"29.93","54","61",,,,,"77",,"CLR:00","29.92","10.00","57","330",,"7",,,,,,,,,,,,,,,,,,,,,,,,,,,,,,,,,,,,,"MET07307/20/20 20:15:02 METAR KSQL 210415Z 33006KT 10SM CLR 16/12 A2993 RMK AO2","FM-15","7",,,,,,,,,,,,,,,,,,,,,,,,,,,,
"72493893231","2020-07-20T20:20:00","FM-15","7",,,,,,,,,,,,,,,,,,,,,,,,,,,,,,,,,,,,,,"29.93","54","61",,,,,"77",,"CLR:00","29.92","10.00","57","350",,"7",,,,,,,,,,,,,,,,,,,,,,,,,,,,,,,,,,,,,"MET07307/20/20 20:20:02 METAR KSQL 210420Z 35006KT 10SM CLR 16/12 A2993 RMK AO2","FM-15","7",,,,,,,,,,,,,,,,,,,,,,,,,,,,
"72493893231","2020-07-20T20:35:00","FM-15","7",,,,,,,,,,,,,,,,,,,,,,,,,,,,,,,,,,,,,,"29.93","54","59",,,,,"82",,"CLR:00","29.92","10.00","56","320",,"8",,,,,,,,,,,,,,,,,,,,,,,,,,,,,,,,,,,,,"MET07307/20/20 20:35:02 METAR KSQL 210435Z 32007KT 10SM CLR 15/12 A2993 RMK AO2","FM-15","7",,,,,,,,,,,,,,,,,,,,,,,,,,,,
"72493893231","2020-07-20T20:40:00","FM-15","7",,,,,,,,,,,,,,,,,,,,,,,,,,,,,,,,,,,,,,"29.93","54","59",,,,,"82",,"CLR:00","29.92","10.00","56","310",,"7",,,,,,,,,,,,,,,,,,,,,,,,,,,,,,,,,,,,,"MET07307/20/20 20:40:02 METAR KSQL 210440Z 31006KT 10SM CLR 15/12 A2993 RMK AO2","FM-15","7",,,,,,,,,,,,,,,,,,,,,,,,,,,,
"72493893231","2020-07-20T20:55:00","FM-15","7",,,,,,,,,,,,,,,,,,,,,,,,,,,,,,,,,,,,,,"29.94","54","59",,,,,"82",,"CLR:00","29.93","10.00","56","320",,"8",,,,,,,,,,,,,,,,,,,,,,,,,,,,,,,,,,,,,"MET07307/20/20 20:55:02 METAR KSQL 210455Z 32007KT 10SM CLR 15/12 A2994 RMK AO2","FM-15","7",,,,,,,,,,,,,,,,,,,,,,,,,,,,
"72493893231","2020-07-20T21:00:00","FM-15","4",,,,,,,,,,,,,,,,,,,,,,,,,,,,,,,,,,,,,,"29.94","54","59",,,,,"82",,,,"10.00",,"310",,"8",,,,,,,,,,,,,,,,,,,,,,,,,,,,,,,,,,,,,"MET061METAR KSQL 210500Z AUTO 31007KT 10SM CLR 15/12 A2994 RMK AO2=","FM-15","4",,,,,,,,,,,,,,,,,,,,,,,,,,,,
"72493893231","2020-07-20T21:15:00","FM-15","7",,,,,,,,,,,,,,,,,,,,,,,,,,,,,,,,,,,,,,"29.94","54","59",,,,,"82",,"CLR:00","29.93","10.00","56","300",,"5",,,,,,,,,,,,,,,,,,,,,,,,,,,,,,,,,,,,,"MET07307/20/20 21:15:02 METAR KSQL 210515Z 30004KT 10SM CLR 15/12 A2994 RMK AO2","FM-15","7",,,,,,,,,,,,,,,,,,,,,,,,,,,,
"72493893231","2020-07-20T21:20:00","FM-15","7",,,,,,,,,,,,,,,,,,,,,,,,,,,,,,,,,,,,,,"29.94","54","59",,,,,"82",,"CLR:00","29.93","10.00","56","320",,"6",,,,,,,,,,,,,,,,,,,,,,,,,,,,,,,,,,,,,"MET07307/20/20 21:20:02 METAR KSQL 210520Z 32005KT 10SM CLR 15/12 A2994 RMK AO2","FM-15","7",,,,,,,,,,,,,,,,,,,,,,,,,,,,
"72493893231","2020-07-20T21:35:00","FM-15","7",,,,,,,,,,,,,,,,,,,,,,,,,,,,,,,,,,,,,,"29.94","54","59",,,,,"82",,"SCT:04 14","29.93","10.00","56","310",,"6",,,,,,,,,,,,,,,,,,,,,,,,,,,,,,,,,,,,,"MET07607/20/20 21:35:02 METAR KSQL 210535Z 31005KT 10SM SCT014 15/12 A2994 RMK AO2","FM-15","7",,,,,,,,,,,,,,,,,,,,,,,,,,,,
"72493893231","2020-07-20T21:40:00","FM-15","7",,,,,,,,,,,,,,,,,,,,,,,,,,,,,,,,,,,,,,"29.94","54","59",,,,,"82",,"SCT:04 14","29.93","10.00","56","300",,"6",,,,,,,,,,,,,,,,,,,,,,,,,,,,,,,,,,,,,"MET07607/20/20 21:40:02 METAR KSQL 210540Z 30005KT 10SM SCT014 15/12 A2994 RMK AO2","FM-15","7",,,,,,,,,,,,,,,,,,,,,,,,,,,,
"72493893231","2020-07-20T21:55:00","FM-15","7",,,,,,,,,,,,,,,,,,,,,,,,,,,,,,,,,,,,,,"29.94","54","59",,,,,"82",,"BKN:07 14","29.93","10.00","56","310",,"6",,,,,,,,,,,,,,,,,,,,,,,,,,,,,,,,,,,,,"MET07607/20/20 21:55:02 METAR KSQL 210555Z 31005KT 10SM BKN014 15/12 A2994 RMK AO2","FM-15","7",,,,,,,,,,,,,,,,,,,,,,,,,,,,
"72493893231","2020-07-20T22:00:00","FM-15","4",,,,,,,,,,,,,,,,,,,,,,,,,,,,,,,,,,,,,,"29.94","54","59",,,,,"82",,,,"10.00",,"300",,"7",,,,,,,,,,,,,,,,,,,,,,,,,,,,,,,,,,,,,"MET064METAR KSQL 210600Z AUTO 30006KT 10SM OVC014 15/12 A2994 RMK AO2=","FM-15","4",,,,,,,,,,,,,,,,,,,,,,,,,,,,
"72493893231","2020-07-20T22:15:00","FM-15","7",,,,,,,,,,,,,,,,,,,,,,,,,,,,,,,,,,,,,,"29.95","54","59",,,,,"82",,"OVC:08 12","29.94","10.00","56","290",,"6",,,,,,,,,,,,,,,,,,,,,,,,,,,,,,,,,,,,,"MET07607/20/20 22:15:02 METAR KSQL 210615Z 29005KT 10SM OVC012 15/12 A2995 RMK AO2","FM-15","7",,,,,,,,,,,,,,,,,,,,,,,,,,,,
"72493893231","2020-07-20T22:20:00","FM-15","7",,,,,,,,,,,,,,,,,,,,,,,,,,,,,,,,,,,,,,"29.95","54","59",,,,,"82",,"OVC:08 12","29.94","10.00","56","280",,"5",,,,,,,,,,,,,,,,,,,,,,,,,,,,,,,,,,,,,"MET07607/20/20 22:20:02 METAR KSQL 210620Z 28004KT 10SM OVC012 15/12 A2995 RMK AO2","FM-15","7",,,,,,,,,,,,,,,,,,,,,,,,,,,,
"72493893231","2020-07-20T22:35:00","FM-15","7",,,,,,,,,,,,,,,,,,,,,,,,,,,,,,,,,,,,,,"29.95","54","59",,,,,"82",,"OVC:08 12","29.94","10.00","56","310",,"5",,,,,,,,,,,,,,,,,,,,,,,,,,,,,,,,,,,,,"MET07607/20/20 22:35:02 METAR KSQL 210635Z 31004KT 10SM OVC012 15/12 A2995 RMK AO2","FM-15","7",,,,,,,,,,,,,,,,,,,,,,,,,,,,
"72493893231","2020-07-20T22:40:00","FM-15","7",,,,,,,,,,,,,,,,,,,,,,,,,,,,,,,,,,,,,,"29.94","54","59",,,,,"82",,"BKN:07 12","29.93","10.00","56","300",,"6",,,,,,,,,,,,,,,,,,,,,,,,,,,,,,,,,,,,,"MET07607/20/20 22:40:02 METAR KSQL 210640Z 30005KT 10SM BKN012 15/12 A2994 RMK AO2","FM-15","7",,,,,,,,,,,,,,,,,,,,,,,,,,,,
"72493893231","2020-07-20T22:55:00","FM-15","7",,,,,,,,,,,,,,,,,,,,,,,,,,,,,,,,,,,,,,"29.94","55","59",,,,,"88",,"BKN:07 12","29.93","10.00","57","200",,"6",,,,,,,,,,,,,,,,,,,,,,,,,,,,,,,,,,,,,"MET07607/20/20 22:55:02 METAR KSQL 210655Z 20005KT 10SM BKN012 15/13 A2994 RMK AO2","FM-15","7",,,,,,,,,,,,,,,,,,,,,,,,,,,,
"72493893231","2020-07-20T23:00:00","FM-15","4",,,,,,,,,,,,,,,,,,,,,,,,,,,,,,,,,,,,,,"29.94","55","59",,,,,"88",,,,"10.00",,"190",,"5",,,,,,,,,,,,,,,,,,,,,,,,,,,,,,,,,,,,,"MET064METAR KSQL 210700Z AUTO 19004KT 10SM SCT012 15/13 A2994 RMK AO2=","FM-15","4",,,,,,,,,,,,,,,,,,,,,,,,,,,,
"72493893231","2020-07-20T23:15:00","FM-15","7",,,,,,,,,,,,,,,,,,,,,,,,,,,,,,,,,,,,,,"29.95","54","59",,,,,"82",,"SCT:04 10","29.94","10.00","56","310",,"6",,,,,,,,,,,,,,,,,,,,,,,,,,,,,,,,,,,,,"MET07607/20/20 23:15:02 METAR KSQL 210715Z 31005KT 10SM SCT010 15/12 A2995 RMK AO2","FM-15","7",,,,,,,,,,,,,,,,,,,,,,,,,,,,
"72493893231","2020-07-20T23:20:00","FM-15","7",,,,,,,,,,,,,,,,,,,,,,,,,,,,,,,,,,,,,,"29.95","54","59",,,,,"82",,"BKN:07 12","29.94","10.00","56","320",,"6",,,,,,,,,,,,,,,,,,,,,,,,,,,,,,,,,,,,,"MET07607/20/20 23:20:02 METAR KSQL 210720Z 32005KT 10SM BKN012 15/12 A2995 RMK AO2","FM-15","7",,,,,,,,,,,,,,,,,,,,,,,,,,,,
"72493893231","2020-07-20T23:35:00","FM-15","7",,,,,,,,,,,,,,,,,,,,,,,,,,,,,,,,,,,,,,"29.94","54","59",,,,,"82",,"OVC:08 12","29.93","10.00","56","290",,"6",,,,,,,,,,,,,,,,,,,,,,,,,,,,,,,,,,,,,"MET07607/20/20 23:35:02 METAR KSQL 210735Z 29005KT 10SM OVC012 15/12 A2994 RMK AO2","FM-15","7",,,,,,,,,,,,,,,,,,,,,,,,,,,,
"72493893231","2020-07-20T23:40:00","FM-15","7",,,,,,,,,,,,,,,,,,,,,,,,,,,,,,,,,,,,,,"29.94","54","59",,,,,"82",,"OVC:08 12","29.93","10.00","56","290",,"6",,,,,,,,,,,,,,,,,,,,,,,,,,,,,,,,,,,,,"MET07607/20/20 23:40:02 METAR KSQL 210740Z 29005KT 10SM OVC012 15/12 A2994 RMK AO2","FM-15","7",,,,,,,,,,,,,,,,,,,,,,,,,,,,
"72493893231","2020-07-20T23:55:00","FM-15","7",,,,,,,,,,,,,,,,,,,,,,,,,,,,,,,,,,,,,,"29.94","54","59",,,,,"82",,"OVC:08 12","29.93","10.00","56","280",,"6",,,,,,,,,,,,,,,,,,,,,,,,,,,,,,,,,,,,,"MET07607/20/20 23:55:02 METAR KSQL 210755Z 28005KT 10SM OVC012 15/12 A2994 RMK AO2","FM-15","7",,,,,,,,,,,,,,,,,,,,,,,,,,,,
"72493893231","2020-07-21T00:00:00","FM-15","4",,,,,,,,,,,,,,,,,,,,,,,,,,,,,,,,,,,,,,"29.94","54","57",,,,,"88",,,,"10.00",,"290",,"5",,,,,,,,,,,,,,,,,,,,,,,,,,,,,,,,,,,,,"MET064METAR KSQL 210800Z AUTO 29004KT 10SM OVC012 14/12 A2994 RMK AO2=","FM-15","4",,,,,,,,,,,,,,,,,,,,,,,,,,,,
"72493893231","2020-07-21T00:15:00","FM-15","7",,,,,,,,,,,,,,,,,,,,,,,,,,,,,,,,,,,,,,"29.94","54","59",,,,,"82",,"OVC:08 12","29.93","10.00","56","290",,"3",,,,,,,,,,,,,,,,,,,,,,,,,,,,,,,,,,,,,"MET07607/21/20 00:15:02 METAR KSQL 210815Z 29003KT 10SM OVC012 15/12 A2994 RMK AO2","FM-15","7",,,,,,,,,,,,,,,,,,,,,,,,,,,,
"72493893231","2020-07-21T00:20:00","FM-15","7",,,,,,,,,,,,,,,,,,,,,,,,,,,,,,,,,,,,,,"29.94","54","59",,,,,"82",,"OVC:08 12","29.93","10.00","56","300",,"3",,,,,,,,,,,,,,,,,,,,,,,,,,,,,,,,,,,,,"MET07607/21/20 00:20:02 METAR KSQL 210820Z 30003KT 10SM OVC012 15/12 A2994 RMK AO2","FM-15","7",,,,,,,,,,,,,,,,,,,,,,,,,,,,
"72493893231","2020-07-21T00:35:00","FM-15","7",,,,,,,,,,,,,,,,,,,,,,,,,,,,,,,,,,,,,,"29.94","54","59",,,,,"82",,"OVC:08 12","29.93","10.00","56","310",,"6",,,,,,,,,,,,,,,,,,,,,,,,,,,,,,,,,,,,,"MET07607/21/20 00:35:02 METAR KSQL 210835Z 31005KT 10SM OVC012 15/12 A2994 RMK AO2","FM-15","7",,,,,,,,,,,,,,,,,,,,,,,,,,,,
"72493893231","2020-07-21T00:40:00","FM-15","7",,,,,,,,,,,,,,,,,,,,,,,,,,,,,,,,,,,,,,"29.94","54","59",,,,,"82",,"OVC:08 12","29.93","10.00","56","310",,"6",,,,,,,,,,,,,,,,,,,,,,,,,,,,,,,,,,,,,"MET07607/21/20 00:40:02 METAR KSQL 210840Z 31005KT 10SM OVC012 15/12 A2994 RMK AO2","FM-15","7",,,,,,,,,,,,,,,,,,,,,,,,,,,,
"72493893231","2020-07-21T00:55:00","FM-15","7",,,,,,,,,,,,,,,,,,,,,,,,,,,,,,,,,,,,,,"29.93","54","59",,,,,"82",,"OVC:08 12","29.92","10.00","56","290",,"5",,,,,,,,,,,,,,,,,,,,,,,,,,,,,,,,,,,,,"MET07607/21/20 00:55:02 METAR KSQL 210855Z 29004KT 10SM OVC012 15/12 A2993 RMK AO2","FM-15","7",,,,,,,,,,,,,,,,,,,,,,,,,,,,
"72493893231","2020-07-21T01:00:00","FM-15","4",,,,,,,,,,,,,,,,,,,,,,,,,,,,,,,,,,,,,,"29.93","54","59",,,,,"82",,,,"10.00",,"000",,"0",,,,,,,,,,,,,,,,,,,,,,,,,,,,,,,,,,,,,"MET064METAR KSQL 210900Z AUTO 00000KT 10SM OVC012 15/12 A2993 RMK AO2=","FM-15","4",,,,,,,,,,,,,,,,,,,,,,,,,,,,
"72493893231","2020-07-21T01:15:00","FM-15","7",,,,,,,,,,,,,,,,,,,,,,,,,,,,,,,,,,,,,,"29.92","55","59",,,,,"88",,"OVC:08 12","29.91","10.00","57","200",,"3",,,,,,,,,,,,,,,,,,,,,,,,,,,,,,,,,,,,,"MET07607/21/20 01:15:02 METAR KSQL 210915Z 20003KT 10SM OVC012 15/13 A2992 RMK AO2","FM-15","7",,,,,,,,,,,,,,,,,,,,,,,,,,,,
"72493893231","2020-07-21T01:20:00","FM-15","7",,,,,,,,,,,,,,,,,,,,,,,,,,,,,,,,,,,,,,"29.92","55","59",,,,,"88",,"OVC:08 12","29.91","10.00","57","190",,"5",,,,,,,,,,,,,,,,,,,,,,,,,,,,,,,,,,,,,"MET07607/21/20 01:20:02 METAR KSQL 210920Z 19004KT 10SM OVC012 15/13 A2992 RMK AO2","FM-15","7",,,,,,,,,,,,,,,,,,,,,,,,,,,,
"72493893231","2020-07-21T01:35:00","FM-15","7",,,,,,,,,,,,,,,,,,,,,,,,,,,,,,,,,,,,,,"29.92","55","59",,,,,"88",,"OVC:08 12","29.91","10.00","57","180",,"6",,,,,,,,,,,,,,,,,,,,,,,,,,,,,,,,,,,,,"MET07607/21/20 01:35:02 METAR KSQL 210935Z 18005KT 10SM OVC012 15/13 A2992 RMK AO2","FM-15","7",,,,,,,,,,,,,,,,,,,,,,,,,,,,
"72493893231","2020-07-21T01:40:00","FM-15","7",,,,,,,,,,,,,,,,,,,,,,,,,,,,,,,,,,,,,,"29.92","55","59",,,,,"88",,"OVC:08 12","29.91","10.00","57","140",,"5",,,,,,,,,,,,,,,,,,,,,,,,,,,,,,,,,,,,,"MET07607/21/20 01:40:02 METAR KSQL 210940Z 14004KT 10SM OVC012 15/13 A2992 RMK AO2","FM-15","7",,,,,,,,,,,,,,,,,,,,,,,,,,,,
"72493893231","2020-07-21T01:55:00","FM-15","7",,,,,,,,,,,,,,,,,,,,,,,,,,,,,,,,,,,,,,"29.92","55","59",,,,,"88",,"OVC:08 12","29.91","10.00","57","140",,"3",,,,,,,,,,,,,,,,,,,,,,,,,,,,,,,,,,,,,"MET07607/21/20 01:55:02 METAR KSQL 210955Z 14003KT 10SM OVC012 15/13 A2992 RMK AO2","FM-15","7",,,,,,,,,,,,,,,,,,,,,,,,,,,,
"72493893231","2020-07-21T02:00:00","FM-15","4",,,,,,,,,,,,,,,,,,,,,,,,,,,,,,,,,,,,,,"29.92","55","59",,,,,"88",,,,"10.00",,"120",,"5",,,,,,,,,,,,,,,,,,,,,,,,,,,,,,,,,,,,,"MET064METAR KSQL 211000Z AUTO 12004KT 10SM OVC012 15/13 A2992 RMK AO2=","FM-15","4",,,,,,,,,,,,,,,,,,,,,,,,,,,,
"72493893231","2020-07-21T02:15:00","FM-15","7",,,,,,,,,,,,,,,,,,,,,,,,,,,,,,,,,,,,,,"29.92","55","59",,,,,"88",,"OVC:08 12","29.91","10.00","57","130",,"5",,,,,,,,,,,,,,,,,,,,,,,,,,,,,,,,,,,,,"MET07607/21/20 02:15:02 METAR KSQL 211015Z 13004KT 10SM OVC012 15/13 A2992 RMK AO2","FM-15","7",,,,,,,,,,,,,,,,,,,,,,,,,,,,
"72493893231","2020-07-21T02:20:00","FM-15","7",,,,,,,,,,,,,,,,,,,,,,,,,,,,,,,,,,,,,,"29.91","55","59",,,,,"88",,"OVC:08 12","29.90","10.00","57","140",,"6",,,,,,,,,,,,,,,,,,,,,,,,,,,,,,,,,,,,,"MET07607/21/20 02:20:02 METAR KSQL 211020Z 14005KT 10SM OVC012 15/13 A2991 RMK AO2","FM-15","7",,,,,,,,,,,,,,,,,,,,,,,,,,,,
"72493893231","2020-07-21T02:35:00","FM-15","7",,,,,,,,,,,,,,,,,,,,,,,,,,,,,,,,,,,,,,"29.91","55","59",,,,,"88",,"OVC:08 12","29.90","10.00","57","130",,"6",,,,,,,,,,,,,,,,,,,,,,,,,,,,,,,,,,,,,"MET07607/21/20 02:35:02 METAR KSQL 211035Z 13005KT 10SM OVC012 15/13 A2991 RMK AO2","FM-15","7",,,,,,,,,,,,,,,,,,,,,,,,,,,,
"72493893231","2020-07-21T02:40:00","FM-15","7",,,,,,,,,,,,,,,,,,,,,,,,,,,,,,,,,,,,,,"29.91","55","59",,,,,"88",,"OVC:08 12","29.90","10.00","57","150",,"6",,,,,,,,,,,,,,,,,,,,,,,,,,,,,,,,,,,,,"MET07607/21/20 02:40:02 METAR KSQL 211040Z 15005KT 10SM OVC012 15/13 A2991 RMK AO2","FM-15","7",,,,,,,,,,,,,,,,,,,,,,,,,,,,
"72493893231","2020-07-21T02:55:00","FM-15","7",,,,,,,,,,,,,,,,,,,,,,,,,,,,,,,,,,,,,,"29.92","55","59",,,,,"88",,"OVC:08 12","29.91","10.00","57","130",,"5",,,,,,,,,,,,,,,,,,,,,,,,,,,,,,,,,,,,,"MET07607/21/20 02:55:02 METAR KSQL 211055Z 13004KT 10SM OVC012 15/13 A2992 RMK AO2","FM-15","7",,,,,,,,,,,,,,,,,,,,,,,,,,,,
"72493893231","2020-07-21T03:00:00","FM-15","4",,,,,,,,,,,,,,,,,,,,,,,,,,,,,,,,,,,,,,"29.92","55","59",,,,,"88",,,,"10.00",,"120",,"5",,,,,,,,,,,,,,,,,,,,,,,,,,,,,,,,,,,,,"MET064METAR KSQL 211100Z AUTO 12004KT 10SM OVC012 15/13 A2992 RMK AO2=","FM-15","4",,,,,,,,,,,,,,,,,,,,,,,,,,,,
"72493893231","2020-07-21T03:15:00","FM-15","7",,,,,,,,,,,,,,,,,,,,,,,,,,,,,,,,,,,,,,"29.91","55","59",,,,,"88",,"OVC:08 12","29.90","10.00","57","110",,"3",,,,,,,,,,,,,,,,,,,,,,,,,,,,,,,,,,,,,"MET07607/21/20 03:15:02 METAR KSQL 211115Z 11003KT 10SM OVC012 15/13 A2991 RMK AO2","FM-15","7",,,,,,,,,,,,,,,,,,,,,,,,,,,,
"72493893231","2020-07-21T03:20:00","FM-15","7",,,,,,,,,,,,,,,,,,,,,,,,,,,,,,,,,,,,,,"29.91","55","59",,,,,"88",,"OVC:08 12","29.90","10.00","57","150",,"3",,,,,,,,,,,,,,,,,,,,,,,,,,,,,,,,,,,,,"MET07607/21/20 03:20:02 METAR KSQL 211120Z 15003KT 10SM OVC012 15/13 A2991 RMK AO2","FM-15","7",,,,,,,,,,,,,,,,,,,,,,,,,,,,
"72493893231","2020-07-21T03:35:00","FM-15","7",,,,,,,,,,,,,,,,,,,,,,,,,,,,,,,,,,,,,,"29.91","55","59",,,,,"88",,"OVC:08 12","29.90","10.00","57","110",,"3",,,,,,,,,,,,,,,,,,,,,,,,,,,,,,,,,,,,,"MET07607/21/20 03:35:02 METAR KSQL 211135Z 11003KT 10SM OVC012 15/13 A2991 RMK AO2","FM-15","7",,,,,,,,,,,,,,,,,,,,,,,,,,,,
"72493893231","2020-07-21T03:40:00","FM-15","7",,,,,,,,,,,,,,,,,,,,,,,,,,,,,,,,,,,,,,"29.91","55","59",,,,,"88",,"OVC:08 12","29.90","10.00","57","000",,"0",,,,,,,,,,,,,,,,,,,,,,,,,,,,,,,,,,,,,"MET07607/21/20 03:40:02 METAR KSQL 211140Z 00000KT 10SM OVC012 15/13 A2991 RMK AO2","FM-15","7",,,,,,,,,,,,,,,,,,,,,,,,,,,,
"72493893231","2020-07-21T03:55:00","FM-15","7",,,,,,,,,,,,,,,,,,,,,,,,,,,,,,,,,,,,,,"29.91","54","59",,,,,"82",,"OVC:08 12","29.90","10.00","56","310",,"6",,,,,,,,,,,,,,,,,,,,,,,,,,,,,,,,,,,,,"MET07607/21/20 03:55:02 METAR KSQL 211155Z 31005KT 10SM OVC012 15/12 A2991 RMK AO2","FM-15","7",,,,,,,,,,,,,,,,,,,,,,,,,,,,
"72493893231","2020-07-21T04:00:00","FM-15","4",,,,,,,,,,,,,,,,,,,,,,,,,,,,,,,,,,,,,,"29.91","54","59",,,,,"82",,,,"10.00",,"310",,"5",,,,,,,,,,,,,,,,,,,,,,,,,,,,,,,,,,,,,"MET064METAR KSQL 211200Z AUTO 31004KT 10SM OVC012 15/12 A2991 RMK AO2=","FM-15","4",,,,,,,,,,,,,,,,,,,,,,,,,,,,
"72493893231","2020-07-21T04:15:00","FM-15","7",,,,,,,,,,,,,,,,,,,,,,,,,,,,,,,,,,,,,,"29.91","54","59",,,,,"82",,"OVC:08 12","29.90","10.00","56","300",,"6",,,,,,,,,,,,,,,,,,,,,,,,,,,,,,,,,,,,,"MET07607/21/20 04:15:02 METAR KSQL 211215Z 30005KT 10SM OVC012 15/12 A2991 RMK AO2","FM-15","7",,,,,,,,,,,,,,,,,,,,,,,,,,,,
"72493893231","2020-07-21T04:20:00","FM-15","7",,,,,,,,,,,,,,,,,,,,,,,,,,,,,,,,,,,,,,"29.91","54","59",,,,,"82",,"OVC:08 12","29.90","10.00","56","310",,"6",,,,,,,,,,,,,,,,,,,,,,,,,,,,,,,,,,,,,"MET07607/21/20 04:20:02 METAR KSQL 211220Z 31005KT 10SM OVC012 15/12 A2991 RMK AO2","FM-15","7",,,,,,,,,,,,,,,,,,,,,,,,,,,,
"72493893231","2020-07-21T04:35:00","FM-15","7",,,,,,,,,,,,,,,,,,,,,,,,,,,,,,,,,,,,,,"29.91","54","57",,,,,"88",,"OVC:08 12","29.90","10.00","55","310",,"3",,,,,,,,,,,,,,,,,,,,,,,,,,,,,,,,,,,,,"MET07607/21/20 04:35:02 METAR KSQL 211235Z 31003KT 10SM OVC012 14/12 A2991 RMK AO2","FM-15","7",,,,,,,,,,,,,,,,,,,,,,,,,,,,
"72493893231","2020-07-21T04:40:00","FM-15","7",,,,,,,,,,,,,,,,,,,,,,,,,,,,,,,,,,,,,,"29.91","54","57",,,,,"88",,"OVC:08 12","29.90","10.00","55","320",,"5",,,,,,,,,,,,,,,,,,,,,,,,,,,,,,,,,,,,,"MET07607/21/20 04:40:02 METAR KSQL 211240Z 32004KT 10SM OVC012 14/12 A2991 RMK AO2","FM-15","7",,,,,,,,,,,,,,,,,,,,,,,,,,,,
"72493893231","2020-07-21T04:55:00","FM-15","7",,,,,,,,,,,,,,,,,,,,,,,,,,,,,,,,,,,,,,"29.91","54","59",,,,,"82",,"OVC:08 12","29.90","10.00","56","300",,"3",,,,,,,,,,,,,,,,,,,,,,,,,,,,,,,,,,,,,"MET07607/21/20 04:55:02 METAR KSQL 211255Z 30003KT 10SM OVC012 15/12 A2991 RMK AO2","FM-15","7",,,,,,,,,,,,,,,,,,,,,,,,,,,,
"72493893231","2020-07-21T05:15:00","FM-15","7",,,,,,,,,,,,,,,,,,,,,,,,,,,,,,,,,,,,,,"29.91","54","59",,,,,"82",,"OVC:08 14","29.90","10.00","56","310",,"3",,,,,,,,,,,,,,,,,,,,,,,,,,,,,,,,,,,,,"MET07607/21/20 05:15:02 METAR KSQL 211315Z 31003KT 10SM OVC014 15/12 A2991 RMK AO2","FM-15","7",,,,,,,,,,,,,,,,,,,,,,,,,,,,
"72493893231","2020-07-21T05:35:00","FM-15","7",,,,,,,,,,,,,,,,,,,,,,,,,,,,,,,,,,,,,,"29.92","54","59",,,,,"82",,"OVC:08 14","29.91","10.00","56","310",,"5",,,,,,,,,,,,,,,,,,,,,,,,,,,,,,,,,,,,,"MET07607/21/20 05:35:02 METAR KSQL 211335Z 31004KT 10SM OVC014 15/12 A2992 RMK AO2","FM-15","7",,,,,,,,,,,,,,,,,,,,,,,,,,,,
"72493893231","2020-07-21T05:47:00","FM-15","4",,,,,,,,,,,,,,,,,,,,,,,,,,,,,,,,,,,,,,"29.92","54","59",,,,,"82",,,,"10.00",,"300",,"3",,,,,,,,,,,,,,,,,,,,,,,,,,,,,,,,,,,,,"MET051METAR KSQL 211347Z 30003KT 10SM OVC014 15/12 A2992=","FM-15","4",,,,,,,,,,,,,,,,,,,,,,,,,,,,
"72493893231","2020-07-21T05:55:00","FM-15","7",,,,,,,,,,,,,,,,,,,,,,,,,,,,,,,,,,,,,,"29.92","54","59",,,,,"82",,"OVC:08 14","29.91","10.00","56","310",,"3",,,,,,,,,,,,,,,,,,,,,,,,,,,,,,,,,,,,,"MET07607/21/20 05:55:02 METAR KSQL 211355Z 31003KT 10SM OVC014 15/12 A2992 RMK AO2","FM-15","7",,,,,,,,,,,,,,,,,,,,,,,,,,,,
"72493893231","2020-07-21T06:47:00","FM-15","7",,,,,,,,,,,,,,,,,,,,,,,,,,,,,,,,,,,,,,"29.92","54","61",,,,,"77",,"OVC:08 14","29.91","10.00","57","310",,"3",,,,,,,,,,,,,,,,,,,,,,,,,,,,,,,,,,,,,"MET07207/21/20 06:47:02 METAR KSQL 211447Z 31003KT 10SM OVC014 16/12 A2992 RMK","FM-15","7",,,,,,,,,,,,,,,,,,,,,,,,,,,,
"72493893231","2020-07-21T07:47:00","FM-15","7",,,,,,,,,,,,,,,,,,,,,,,,,,,,,,,,,,,,,,"29.92","55","63",,,,,"77",,"BKN:07 16","29.91","10.00","58","000",,"0",,,,,,,,,,,,,,,,,,,,,,,,,,,,,,,,,,,,,"MET07207/21/20 07:47:02 METAR KSQL 211547Z 00000KT 10SM BKN016 17/13 A2992 RMK","FM-15","7",,,,,,,,,,,,,,,,,,,,,,,,,,,,
"72493893231","2020-07-21T08:47:00","FM-15","7",,,,,,,,,,,,,,,,,,,,,,,,,,,,,,,,,,,,,,"29.91","55","64",,,,,"73",,"SCT:04 18","29.90","10.00","59","300",,"6",,,,,,,,,,,,,,,,,,,,,,,,,,,,,,,,,,,,,"MET07207/21/20 08:47:02 METAR KSQL 211647Z 30005KT 10SM SCT018 18/13 A2991 RMK","FM-15","7",,,,,,,,,,,,,,,,,,,,,,,,,,,,
"72493893231","2020-07-21T09:47:00","FM-15","7",,,,,,,,,,,,,,,,,,,,,,,,,,,,,,,,,,,,,,"29.91","55","68",,,,,"64",,"BKN:07 200","29.90","10.00","60","360",,"6",,,,,,,,,,,,,,,,,,,,,,,,,,,,,,,,,,,,,"MET07207/21/20 09:47:02 METAR KSQL 211747Z 36005KT 10SM BKN200 20/13 A2991 RMK","FM-15","7",,,,,,,,,,,,,,,,,,,,,,,,,,,,
"72493893231","2020-07-21T10:47:00","FM-15","7",,,,,,,,,,,,,,,,,,,,,,,,,,,,,,,,,,,,,,"29.90","57","66",,,,,"73",,"BKN:07 200","29.89","10.00","61","360",,"17",,,,,,,,,,,,,,,,,,,,,,,,,,,,,,,,,,,,,"MET07207/21/20 10:47:02 METAR KSQL 211847Z 36015KT 10SM BKN200 19/14 A2990 RMK","FM-15","7",,,,,,,,,,,,,,,,,,,,,,,,,,,,
"72493893231","2020-07-21T11:47:00","FM-15","7",,,,,,,,,,,,,,,,,,,,,,,,,,,,,,,,,,,,,,"29.90","57","66",,,,,"73",,"*","29.89","10.00","61","360",,"17",,,,,,,,,,,,,,,,,,,,,,,,,,,,,,,,,,,,,"MET06907/21/20 11:47:02 METAR KSQL 211947Z 36015KT 10SM SKC 19/14 A2990 RMK","FM-15","7",,,,,,,,,,,,,,,,,,,,,,,,,,,,
"72493893231","2020-07-21T12:47:00","FM-15","7",,,,,,,,,,,,,,,,,,,,,,,,,,,,,,,,,,,,,,"29.88","57","68",,,,,"69",,"SCT:04 100","29.87","10.00","62","360",,"17",,,,,,,,,,,,,,,,,,,,,,,,,,,,,,,,,,,,,"MET07207/21/20 12:47:02 METAR KSQL 212047Z 36015KT 10SM SCT100 20/14 A2988 RMK","FM-15","7",,,,,,,,,,,,,,,,,,,,,,,,,,,,
"72493893231","2020-07-21T13:47:00","FM-15","7",,,,,,,,,,,,,,,,,,,,,,,,,,,,,,,,,,,,,,"29.86","57","72",,,,,"61",,"SCT:04 100","29.85","10.00","63","360",,"16",,,,,,,,,,,,,,,,,,,,,,,,,,,,,,,,,,,,,"MET07207/21/20 13:47:02 METAR KSQL 212147Z 36014KT 10SM SCT100 22/14 A2986 RMK","FM-15","7",,,,,,,,,,,,,,,,,,,,,,,,,,,,
"72493893231","2020-07-21T14:47:00","FM-15","7",,,,,,,,,,,,,,,,,,,,,,,,,,,,,,,,,,,,,,"29.83","59","68",,,,,"73",,"SCT:04 100","29.82","10.00","63","010",,"15",,,,,,,,,,,,,,,,,,,,,,,,,,,,,,,,,,,,,"MET07207/21/20 14:47:02 METAR KSQL 212247Z 01013KT 10SM SCT100 20/15 A2983 RMK","FM-15","7",,,,,,,,,,,,,,,,,,,,,,,,,,,,
"72493893231","2020-07-21T15:47:00","FM-15","7",,,,,,,,,,,,,,,,,,,,,,,,,,,,,,,,,,,,,,"29.83","55","73",,,,,"53",,"SCT:04 100","29.82","10.00","62","270",,"17",,,,,,,,,,,,,,,,,,,,,,,,,,,,,,,,,,,,,"MET07207/21/20 15:47:02 METAR KSQL 212347Z 27015KT 10SM SCT100 23/13 A2983 RMK","FM-15","7",,,,,,,,,,,,,,,,,,,,,,,,,,,,
"72493893231","2020-07-21T16:47:00","FM-15","7",,,,,,,,,,,,,,,,,,,,,,,,,,,,,,,,,,,,,,"29.81","55","73",,,,,"53",,"SCT:04 200","29.80","10.00","62","310",,"14",,,,,,,,,,,,,,,,,,,,,,,,,,,,,,,,,,,,,"MET07207/21/20 16:47:01 METAR KSQL 220047Z 31012KT 10SM SCT200 23/13 A2981 RMK","FM-15","7",,,,,,,,,,,,,,,,,,,,,,,,,,,,
"72493893231","2020-07-21T17:47:00","FM-15","7",,,,,,,,,,,,,,,,,,,,,,,,,,,,,,,,,,,,,,"29.81","55","66",,,,,"68",,"SCT:04 200","29.80","10.00","60","260",,"11",,,,,,,,,,,,,,,,,,,,,,,,,,,,,,,,,,,,,"MET07207/21/20 17:47:01 METAR KSQL 220147Z 26010KT 10SM SCT200 19/13 A2981 RMK","FM-15","7",,,,,,,,,,,,,,,,,,,,,,,,,,,,
"72493893231","2020-07-21T18:47:00","FM-15","7",,,,,,,,,,,,,,,,,,,,,,,,,,,,,,,,,,,,,,"29.82","54","64",,,,,"68",,"*","29.81","10.00","58","280",,"11",,,,,,,,,,,,,,,,,,,,,,,,,,,,,,,,,,,,,"MET06907/21/20 18:47:01 METAR KSQL 220247Z 28010KT 10SM SKC 18/12 A2982 RMK","FM-15","7",,,,,,,,,,,,,,,,,,,,,,,,,,,,
"72493893231","2020-07-21T19:47:00","FM-15","7",,,,,,,,,,,,,,,,,,,,,,,,,,,,,,,,,,,,,,"29.84","54","59",,,,,"82",,"BKN:07 15","29.83","10.00","56","280",,"9",,,,,,,,,,,,,,,,,,,,,,,,,,,,,,,,,,,,,"MET07707/21/20 19:47:02 METAR KSQL 220347Z 28008KT 10SM BKN015 15/12 A2984 RMK LAST","FM-15","7",,,,,,,,,,,,,,,,,,,,,,,,,,,,
"72493893231","2020-07-21T20:15:00","FM-15","7",,,,,,,,,,,,,,,,,,,,,,,,,,,,,,,,,,,,,,"29.85","54","59",,,,,"82",,"CLR:00","29.84","10.00","56","280",,"6",,,,,,,,,,,,,,,,,,,,,,,,,,,,,,,,,,,,,"MET07307/21/20 20:15:02 METAR KSQL 220415Z 28005KT 10SM CLR 15/12 A2985 RMK AO2","FM-15","7",,,,,,,,,,,,,,,,,,,,,,,,,,,,
"72493893231","2020-07-21T20:35:00","FM-15","7",,,,,,,,,,,,,,,,,,,,,,,,,,,,,,,,,,,,,,"29.86","54","59",,,,,"82",,"CLR:00","29.85","10.00","56","270",,"9",,,,,,,,,,,,,,,,,,,,,,,,,,,,,,,,,,,,,"MET07307/21/20 20:35:02 METAR KSQL 220435Z 27008KT 10SM CLR 15/12 A2986 RMK AO2","FM-15","7",,,,,,,,,,,,,,,,,,,,,,,,,,,,
"72493893231","2020-07-21T20:55:00","FM-15","7",,,,,,,,,,,,,,,,,,,,,,,,,,,,,,,,,,,,,,"29.86","54","59",,,,,"82",,"CLR:00","29.85","10.00","56","280",,"3",,,,,,,,,,,,,,,,,,,,,,,,,,,,,,,,,,,,,"MET07307/21/20 20:55:02 METAR KSQL 220455Z 28003KT 10SM CLR 15/12 A2986 RMK AO2","FM-15","7",,,,,,,,,,,,,,,,,,,,,,,,,,,,
"72493893231","2020-07-21T21:15:00","FM-15","7",,,,,,,,,,,,,,,,,,,,,,,,,,,,,,,,,,,,,,"29.87","54","59",,,,,"82",,"CLR:00","29.86","10.00","56","280",,"5",,,,,,,,,,,,,,,,,,,,,,,,,,,,,,,,,,,,,"MET07307/21/20 21:15:02 METAR KSQL 220515Z 28004KT 10SM CLR 15/12 A2987 RMK AO2","FM-15","7",,,,,,,,,,,,,,,,,,,,,,,,,,,,
"72493893231","2020-07-21T21:35:00","FM-15","7",,,,,,,,,,,,,,,,,,,,,,,,,,,,,,,,,,,,,,"29.87","54","59",,,,,"82",,"CLR:00","29.86","10.00","56","260",,"5",,,,,,,,,,,,,,,,,,,,,,,,,,,,,,,,,,,,,"MET07307/21/20 21:35:02 METAR KSQL 220535Z 26004KT 10SM CLR 15/12 A2987 RMK AO2","FM-15","7",,,,,,,,,,,,,,,,,,,,,,,,,,,,
"72493893231","2020-07-21T21:55:00","FM-15","7",,,,,,,,,,,,,,,,,,,,,,,,,,,,,,,,,,,,,,"29.86","54","59",,,,,"82",,"CLR:00","29.85","10.00","56","270",,"3",,,,,,,,,,,,,,,,,,,,,,,,,,,,,,,,,,,,,"MET07307/21/20 21:55:02 METAR KSQL 220555Z 27003KT 10SM CLR 15/12 A2986 RMK AO2","FM-15","7",,,,,,,,,,,,,,,,,,,,,,,,,,,,
"72493893231","2020-07-21T22:15:00","FM-15","7",,,,,,,,,,,,,,,,,,,,,,,,,,,,,,,,,,,,,,"29.86","54","59",,,,,"82",,"CLR:00","29.85","10.00","56","280",,"5",,,,,,,,,,,,,,,,,,,,,,,,,,,,,,,,,,,,,"MET07307/21/20 22:15:02 METAR KSQL 220615Z 28004KT 10SM CLR 15/12 A2986 RMK AO2","FM-15","7",,,,,,,,,,,,,,,,,,,,,,,,,,,,
"72493893231","2020-07-21T22:35:00","FM-15","7",,,,,,,,,,,,,,,,,,,,,,,,,,,,,,,,,,,,,,"29.86","54","59",,,,,"82",,"SCT:04 13","29.85","10.00","56","270",,"3",,,,,,,,,,,,,,,,,,,,,,,,,,,,,,,,,,,,,"MET07607/21/20 22:35:02 METAR KSQL 220635Z 27003KT 10SM SCT013 15/12 A2986 RMK AO2","FM-15","7",,,,,,,,,,,,,,,,,,,,,,,,,,,,
"72493893231","2020-07-21T22:55:00","FM-15","7",,,,,,,,,,,,,,,,,,,,,,,,,,,,,,,,,,,,,,"29.86","54","59",,,,,"82",,"OVC:08 13","29.85","10.00","56","290",,"5",,,,,,,,,,,,,,,,,,,,,,,,,,,,,,,,,,,,,"MET07607/21/20 22:55:02 METAR KSQL 220655Z 29004KT 10SM OVC013 15/12 A2986 RMK AO2","FM-15","7",,,,,,,,,,,,,,,,,,,,,,,,,,,,
"72493893231","2020-07-21T23:15:00","FM-15","7",,,,,,,,,,,,,,,,,,,,,,,,,,,,,,,,,,,,,,"29.85","54","59",,,,,"82",,"OVC:08 13","29.84","10.00","56","290",,"6",,,,,,,,,,,,,,,,,,,,,,,,,,,,,,,,,,,,,"MET07607/21/20 23:15:02 METAR KSQL 220715Z 29005KT 10SM OVC013 15/12 A2985 RMK AO2","FM-15","7",,,,,,,,,,,,,,,,,,,,,,,,,,,,
"72493893231","2020-07-21T23:35:00","FM-15","7",,,,,,,,,,,,,,,,,,,,,,,,,,,,,,,,,,,,,,"29.86","54","59",,,,,"82",,"OVC:08 13","29.85","10.00","56","280",,"5",,,,,,,,,,,,,,,,,,,,,,,,,,,,,,,,,,,,,"MET07607/21/20 23:35:02 METAR KSQL 220735Z 28004KT 10SM OVC013 15/12 A2986 RMK AO2","FM-15","7",,,,,,,,,,,,,,,,,,,,,,,,,,,,
"72493893231","2020-07-21T23:55:00","FM-15","7",,,,,,,,,,,,,,,,,,,,,,,,,,,,,,,,,,,,,,"29.85","54","59",,,,,"82",,"OVC:08 13","29.84","10.00","56","270",,"3",,,,,,,,,,,,,,,,,,,,,,,,,,,,,,,,,,,,,"MET07607/21/20 23:55:02 METAR KSQL 220755Z 27003KT 10SM OVC013 15/12 A2985 RMK AO2","FM-15","7",,,,,,,,,,,,,,,,,,,,,,,,,,,,
"72493893231","2020-07-22T00:15:00","FM-15","7",,,,,,,,,,,,,,,,,,,,,,,,,,,,,,,,,,,,,,"29.85","54","61",,,,,"77",,"OVC:08 13","29.84","10.00","57","280",,"3",,,,,,,,,,,,,,,,,,,,,,,,,,,,,,,,,,,,,"MET07607/22/20 00:15:02 METAR KSQL 220815Z 28003KT 10SM OVC013 16/12 A2985 RMK AO2","FM-15","7",,,,,,,,,,,,,,,,,,,,,,,,,,,,
"72493893231","2020-07-22T00:35:00","FM-15","7",,,,,,,,,,,,,,,,,,,,,,,,,,,,,,,,,,,,,,"29.85","54","61",,,,,"77",,"OVC:08 13","29.84","10.00","57","270",,"5",,,,,,,,,,,,,,,,,,,,,,,,,,,,,,,,,,,,,"MET07607/22/20 00:35:02 METAR KSQL 220835Z 27004KT 10SM OVC013 16/12 A2985 RMK AO2","FM-15","7",,,,,,,,,,,,,,,,,,,,,,,,,,,,
"72493893231","2020-07-22T00:55:00","FM-15","7",,,,,,,,,,,,,,,,,,,,,,,,,,,,,,,,,,,,,,"29.85","54","61",,,,,"77",,"OVC:08 15","29.84","10.00","57","150",,"5",,,,,,,,,,,,,,,,,,,,,,,,,,,,,,,,,,,,,"MET07607/22/20 00:55:02 METAR KSQL 220855Z 15004KT 10SM OVC015 16/12 A2985 RMK AO2","FM-15","7",,,,,,,,,,,,,,,,,,,,,,,,,,,,
"72493893231","2020-07-22T01:15:00","FM-15","7",,,,,,,,,,,,,,,,,,,,,,,,,,,,,,,,,,,,,,"29.84","54","61",,,,,"77",,"OVC:08 17","29.83","10.00","57","170",,"3",,,,,,,,,,,,,,,,,,,,,,,,,,,,,,,,,,,,,"MET07607/22/20 01:15:02 METAR KSQL 220915Z 17003KT 10SM OVC017 16/12 A2984 RMK AO2","FM-15","7",,,,,,,,,,,,,,,,,,,,,,,,,,,,
"72493893231","2020-07-22T01:35:00","FM-15","7",,,,,,,,,,,,,,,,,,,,,,,,,,,,,,,,,,,,,,"29.85","54","59",,,,,"82",,"OVC:08 17","29.84","10.00","56","190",,"5",,,,,,,,,,,,,,,,,,,,,,,,,,,,,,,,,,,,,"MET07607/22/20 01:35:02 METAR KSQL 220935Z 19004KT 10SM OVC017 15/12 A2985 RMK AO2","FM-15","7",,,,,,,,,,,,,,,,,,,,,,,,,,,,
"72493893231","2020-07-22T01:55:00","FM-15","7",,,,,,,,,,,,,,,,,,,,,,,,,,,,,,,,,,,,,,"29.84","54","59",,,,,"82",,"OVC:08 17","29.83","10.00","56","000",,"0",,,,,,,,,,,,,,,,,,,,,,,,,,,,,,,,,,,,,"MET07607/22/20 01:55:02 METAR KSQL 220955Z 00000KT 10SM OVC017 15/12 A2984 RMK AO2","FM-15","7",,,,,,,,,,,,,,,,,,,,,,,,,,,,
"72493893231","2020-07-22T02:15:00","FM-15","7",,,,,,,,,,,,,,,,,,,,,,,,,,,,,,,,,,,,,,"29.84","54","59",,,,,"82",,"OVC:08 17","29.83","10.00","56","000",,"0",,,,,,,,,,,,,,,,,,,,,,,,,,,,,,,,,,,,,"MET07607/22/20 02:15:02 METAR KSQL 221015Z 00000KT 10SM OVC017 15/12 A2984 RMK AO2","FM-15","7",,,,,,,,,,,,,,,,,,,,,,,,,,,,
"72493893231","2020-07-22T02:35:00","FM-15","7",,,,,,,,,,,,,,,,,,,,,,,,,,,,,,,,,,,,,,"29.84","54","59",,,,,"82",,"OVC:08 17","29.83","10.00","56","230",,"5",,,,,,,,,,,,,,,,,,,,,,,,,,,,,,,,,,,,,"MET07607/22/20 02:35:02 METAR KSQL 221035Z 23004KT 10SM OVC017 15/12 A2984 RMK AO2","FM-15","7",,,,,,,,,,,,,,,,,,,,,,,,,,,,
"72493893231","2020-07-22T02:55:00","FM-15","7",,,,,,,,,,,,,,,,,,,,,,,,,,,,,,,,,,,,,,"29.84","54","59",,,,,"82",,"BKN:07 19","29.83","10.00","56","250",,"3",,,,,,,,,,,,,,,,,,,,,,,,,,,,,,,,,,,,,"MET07607/22/20 02:55:02 METAR KSQL 221055Z 25003KT 10SM BKN019 15/12 A2984 RMK AO2","FM-15","7",,,,,,,,,,,,,,,,,,,,,,,,,,,,
"72493893231","2020-07-22T03:15:00","FM-15","7",,,,,,,,,,,,,,,,,,,,,,,,,,,,,,,,,,,,,,"29.84","54","59",,,,,"82",,"OVC:08 19","29.83","10.00","56","200",,"3",,,,,,,,,,,,,,,,,,,,,,,,,,,,,,,,,,,,,"MET07607/22/20 03:15:02 METAR KSQL 221115Z 20003KT 10SM OVC019 15/12 A2984 RMK AO2","FM-15","7",,,,,,,,,,,,,,,,,,,,,,,,,,,,
"72493893231","2020-07-22T03:35:00","FM-15","7",,,,,,,,,,,,,,,,,,,,,,,,,,,,,,,,,,,,,,"29.84","54","59",,,,,"82",,"OVC:08 19","29.83","10.00","56","190",,"3",,,,,,,,,,,,,,,,,,,,,,,,,,,,,,,,,,,,,"MET07607/22/20 03:35:02 METAR KSQL 221135Z 19003KT 10SM OVC019 15/12 A2984 RMK AO2","FM-15","7",,,,,,,,,,,,,,,,,,,,,,,,,,,,
"72493893231","2020-07-22T03:55:00","FM-15","7",,,,,,,,,,,,,,,,,,,,,,,,,,,,,,,,,,,,,,"29.84","54","59",,,,,"82",,"OVC:08 17","29.83","10.00","56","220",,"3",,,,,,,,,,,,,,,,,,,,,,,,,,,,,,,,,,,,,"MET07607/22/20 03:55:02 METAR KSQL 221155Z 22003KT 10SM OVC017 15/12 A2984 RMK AO2","FM-15","7",,,,,,,,,,,,,,,,,,,,,,,,,,,,
"72493893231","2020-07-22T04:15:00","FM-15","7",,,,,,,,,,,,,,,,,,,,,,,,,,,,,,,,,,,,,,"29.84","54","59",,,,,"82",,"OVC:08 17","29.83","10.00","56","000",,"0",,,,,,,,,,,,,,,,,,,,,,,,,,,,,,,,,,,,,"MET07607/22/20 04:15:02 METAR KSQL 221215Z 00000KT 10SM OVC017 15/12 A2984 RMK AO2","FM-15","7",,,,,,,,,,,,,,,,,,,,,,,,,,,,
"72493893231","2020-07-22T04:35:00","FM-15","7",,,,,,,,,,,,,,,,,,,,,,,,,,,,,,,,,,,,,,"29.84","52","59",,,,,"77",,"OVC:08 17","29.83","10.00","55","150",,"5",,,,,,,,,,,,,,,,,,,,,,,,,,,,,,,,,,,,,"MET07607/22/20 04:35:02 METAR KSQL 221235Z 15004KT 10SM OVC017 15/11 A2984 RMK AO2","FM-15","7",,,,,,,,,,,,,,,,,,,,,,,,,,,,
"72493893231","2020-07-22T04:55:00","FM-15","7",,,,,,,,,,,,,,,,,,,,,,,,,,,,,,,,,,,,,,"29.84","52","57",,,,,"82",,"OVC:08 17","29.83","10.00","54","180",,"5",,,,,,,,,,,,,,,,,,,,,,,,,,,,,,,,,,,,,"MET07607/22/20 04:55:02 METAR KSQL 221255Z 18004KT 10SM OVC017 14/11 A2984 RMK AO2","FM-15","7",,,,,,,,,,,,,,,,,,,,,,,,,,,,
"72493893231","2020-07-22T05:15:00","FM-15","7",,,,,,,,,,,,,,,,,,,,,,,,,,,,,,,,,,,,,,"29.84","52","57",,,,,"82",,"BKN:07 17","29.83","10.00","54","170",,"3",,,,,,,,,,,,,,,,,,,,,,,,,,,,,,,,,,,,,"MET07607/22/20 05:15:02 METAR KSQL 221315Z 17003KT 10SM BKN017 14/11 A2984 RMK AO2","FM-15","7",,,,,,,,,,,,,,,,,,,,,,,,,,,,
"72493893231","2020-07-22T05:35:00","FM-15","7",,,,,,,,,,,,,,,,,,,,,,,,,,,,,,,,,,,,,,"29.84","52","57",,,,,"82",,"BKN:07 17","29.83","10.00","54","150",,"5",,,,,,,,,,,,,,,,,,,,,,,,,,,,,,,,,,,,,"MET07607/22/20 05:35:02 METAR KSQL 221335Z 15004KT 10SM BKN017 14/11 A2984 RMK AO2","FM-15","7",,,,,,,,,,,,,,,,,,,,,,,,,,,,
"72493893231","2020-07-22T05:47:00","FM-15","4",,,,,,,,,,,,,,,,,,,,,,,,,,,,,,,,,,,,,,"29.84","52","57",,,,,"82",,,,"10.00",,"000",,"0",,,,,,,,,,,,,,,,,,,,,,,,,,,,,,,,,,,,,"MET051METAR KSQL 221347Z 00000KT 10SM BKN011 14/11 A2984=","FM-15","4",,,,,,,,,,,,,,,,,,,,,,,,,,,,
"72493893231","2020-07-22T05:55:00","FM-15","7",,,,,,,,,,,,,,,,,,,,,,,,,,,,,,,,,,,,,,"29.84","52","57",,,,,"82",,"CLR:00","29.83","10.00","54","000",,"0",,,,,,,,,,,,,,,,,,,,,,,,,,,,,,,,,,,,,"MET07307/22/20 05:55:02 METAR KSQL 221355Z 00000KT 10SM CLR 14/11 A2984 RMK AO2","FM-15","7",,,,,,,,,,,,,,,,,,,,,,,,,,,,
"72493893231","2020-07-22T06:47:00","FM-15","7",,,,,,,,,,,,,,,,,,,,,,,,,,,,,,,,,,,,,,"29.84","54","61",,,,,"77",,,"29.83","10.00","57","030",,"3",,,,,,,,,,,,,,,,,,,,,,,,,,,,,,,,,,,,,"MET07107/22/20 06:47:02 METAR KSQL 221447Z 03003KT 10SM BKN12 16/12 A2984 RMK","FM-15","7",,,,,,,,,,,,,,,,,,,,,,,,,,,,
"72493893231","2020-07-22T07:47:00","FM-15","7",,,,,,,,,,,,,,,,,,,,,,,,,,,,,,,,,,,,,,"29.86","55","64",,,,,"73",,"BKN:07 17","29.85","10.00","59","070",,"5",,,,,,,,,,,,,,,,,,,,,,,,,,,,,,,,,,,,,"MET07207/22/20 07:47:02 METAR KSQL 221547Z 07004KT 10SM BKN017 18/13 A2986 RMK","FM-15","7",,,,,,,,,,,,,,,,,,,,,,,,,,,,
"72493893231","2020-07-22T08:47:00","FM-15","7",,,,,,,,,,,,,,,,,,,,,,,,,,,,,,,,,,,,,,"29.87","55","64",,,,,"73",,"SCT:04 17","29.86","10.00","59","040",,"6",,,,,,,,,,,,,,,,,,,,,,,,,,,,,,,,,,,,,"MET07207/22/20 08:47:02 METAR KSQL 221647Z 04005KT 10SM SCT017 18/13 A2987 RMK","FM-15","7",,,,,,,,,,,,,,,,,,,,,,,,,,,,
"72493893231","2020-07-22T09:47:00","FM-15","7",,,,,,,,,,,,,,,,,,,,,,,,,,,,,,,,,,,,,,"29.87","57","66",,,,,"73",,"FEW:02 10","29.86","10.00","61","050",,"7",,,,,,,,,,,,,,,,,,,,,,,,,,,,,,,,,,,,,"MET07207/22/20 09:47:02 METAR KSQL 221747Z 05006KT 10SM FEW010 19/14 A2987 RMK","FM-15","7",,,,,,,,,,,,,,,,,,,,,,,,,,,,
"72493893231","2020-07-22T11:47:00","FM-15","7",,,,,,,,,,,,,,,,,,,,,,,,,,,,,,,,,,,,,,"29.86","57","68",,,,,"69",,"*","29.85","10.00","62","360",,"7",,,,,,,,,,,,,,,,,,,,,,,,,,,,,,,,,,,,,"MET06907/22/20 11:47:02 METAR KSQL 221947Z 36006KT 10SM SKC 20/14 A2986 RMK","FM-15","7",,,,,,,,,,,,,,,,,,,,,,,,,,,,
"72493893231","2020-07-22T12:47:00","FM-15","7",,,,,,,,,,,,,,,,,,,,,,,,,,,,,,,,,,,,,,"29.85","59","70",,,,,"69",,"*","29.84","10.00","63","020",,"10",,,,,,,,,,,,,,,,,,,,,,,,,,,,,,,,,,,,,"MET06907/22/20 12:47:02 METAR KSQL 222047Z 02009KT 10SM SKC 21/15 A2985 RMK","FM-15","7",,,,,,,,,,,,,,,,,,,,,,,,,,,,
"72493893231","2020-07-22T13:47:00","FM-15","7",,,,,,,,,,,,,,,,,,,,,,,,,,,,,,,,,,,,,,"29.83","55","73",,,,,"53",,"*","29.82","10.00","62","280",,"16",,,,,,,,,,,,,,,,,,,,,,,,,,,,,,,,,,,,,"MET06907/22/20 13:47:02 METAR KSQL 222147Z 28014KT 10SM SKC 23/13 A2983 RMK","FM-15","7",,,,,,,,,,,,,,,,,,,,,,,,,,,,
"72493893231","2020-07-22T14:47:00","FM-15","7",,,,,,,,,,,,,,,,,,,,,,,,,,,,,,,,,,,,,,"29.82","55","73",,,,,"53",,"*","29.81","10.00","62","260",,"14",,,,,,,,,,,,,,,,,,,,,,,,,,,,,,,,,,,,,"MET07207/22/20 14:47:02 METAR KSQL 222247Z 26012KT 10SM SKC 23/13 A2982 RMK DA","FM-15","7",,,,,,,,,,,,,,,,,,,,,,,,,,,,
"72493893231","2020-07-22T15:47:00","FM-15","7",,,,,,,,,,,,,,,,,,,,,,,,,,,,,,,,,,,,,,"29.81","55","72",,,,,"57",,"*","29.80","10.00","62","240",,"13",,,,,,,,,,,,,,,,,,,,,,,,,,,,,,,,,,,,,"MET06907/22/20 15:47:02 METAR KSQL 222347Z 24011KT 10SM SKC 22/13 A2981 RMK","FM-15","7",,,,,,,,,,,,,,,,,,,,,,,,,,,,
"72493893231","2020-07-22T16:47:00","FM-15","7",,,,,,,,,,,,,,,,,,,,,,,,,,,,,,,,,,,,,,"29.81","55","70",,,,,"60",,"*","29.80","10.00","61","240",,"14",,,,,,,,,,,,,,,,,,,,,,,,,,,,,,,,,,,,,"MET06907/22/20 16:47:01 METAR KSQL 230047Z 24012KT 10SM SKC 21/13 A2981 RMK","FM-15","7",,,,,,,,,,,,,,,,,,,,,,,,,,,,
"72493893231","2020-07-22T17:47:00","FM-15","7",,,,,,,,,,,,,,,,,,,,,,,,,,,,,,,,,,,,,,"29.82","55","66",,,,,"68",,"*","29.81","10.00","60","240",,"10",,,,,,,,,,,,,,,,,,,,,,,,,,,,,,,,,,,,,"MET06907/22/20 17:47:01 METAR KSQL 230147Z 24009KT 10SM SKC 19/13 A2982 RMK","FM-15","7",,,,,,,,,,,,,,,,,,,,,,,,,,,,
"72493893231","2020-07-22T18:47:00","FM-15","7",,,,,,,,,,,,,,,,,,,,,,,,,,,,,,,,,,,,,,"29.84","55","64",,,,,"73",,"*","29.83","10.00","59","250",,"8",,,,,,,,,,,,,,,,,,,,,,,,,,,,,,,,,,,,,"MET06907/22/20 18:47:01 METAR KSQL 230247Z 25007KT 10SM SKC 18/13 A2984 RMK","FM-15","7",,,,,,,,,,,,,,,,,,,,,,,,,,,,
"72493893231","2020-07-22T19:47:00","FM-15","7",,,,,,,,,,,,,,,,,,,,,,,,,,,,,,,,,,,,,,"29.84","55","63",,,,,"77",,"*","29.83","10.00","58","VRB",,"3",,,,,,,,,,,,,,,,,,,,,,,,,,,,,,,,,,,,,"MET07407/22/20 19:47:02 METAR KSQL 230347Z VRB03KT 10SM SKC 17/13 A2984 RMK LAST","FM-15","7",,,,,,,,,,,,,,,,,,,,,,,,,,,,
"72493893231","2020-07-22T20:15:00","FM-15","7",,,,,,,,,,,,,,,,,,,,,,,,,,,,,,,,,,,,,,"29.85","54","61",,,,,"77",,"CLR:00","29.84","10.00","57","260",,"6",,,,,,,,,,,,,,,,,,,,,,,,,,,,,,,,,,,,,"MET07307/22/20 20:15:02 METAR KSQL 230415Z 26005KT 10SM CLR 16/12 A2985 RMK AO2","FM-15","7",,,,,,,,,,,,,,,,,,,,,,,,,,,,
"72493893231","2020-07-22T20:35:00","FM-15","7",,,,,,,,,,,,,,,,,,,,,,,,,,,,,,,,,,,,,,"29.86","54","61",,,,,"77",,"CLR:00","29.85","10.00","57","260",,"6",,,,,,,,,,,,,,,,,,,,,,,,,,,,,,,,,,,,,"MET07307/22/20 20:35:02 METAR KSQL 230435Z 26005KT 10SM CLR 16/12 A2986 RMK AO2","FM-15","7",,,,,,,,,,,,,,,,,,,,,,,,,,,,
"72493893231","2020-07-22T20:55:00","FM-15","7",,,,,,,,,,,,,,,,,,,,,,,,,,,,,,,,,,,,,,"29.86","54","61",,,,,"77",,"CLR:00","29.85","10.00","57","310",,"5",,,,,,,,,,,,,,,,,,,,,,,,,,,,,,,,,,,,,"MET07307/22/20 20:55:02 METAR KSQL 230455Z 31004KT 10SM CLR 16/12 A2986 RMK AO2","FM-15","7",,,,,,,,,,,,,,,,,,,,,,,,,,,,
"72493893231","2020-07-22T21:15:00","FM-15","7",,,,,,,,,,,,,,,,,,,,,,,,,,,,,,,,,,,,,,"29.87","54","61",,,,,"77",,"CLR:00","29.86","10.00","57","280",,"3",,,,,,,,,,,,,,,,,,,,,,,,,,,,,,,,,,,,,"MET07307/22/20 21:15:02 METAR KSQL 230515Z 28003KT 10SM CLR 16/12 A2987 RMK AO2","FM-15","7",,,,,,,,,,,,,,,,,,,,,,,,,,,,
"72493893231","2020-07-22T21:35:00","FM-15","7",,,,,,,,,,,,,,,,,,,,,,,,,,,,,,,,,,,,,,"29.87","54","59",,,,,"82",,"CLR:00","29.86","10.00","56","270",,"6",,,,,,,,,,,,,,,,,,,,,,,,,,,,,,,,,,,,,"MET07307/22/20 21:35:02 METAR KSQL 230535Z 27005KT 10SM CLR 15/12 A2987 RMK AO2","FM-15","7",,,,,,,,,,,,,,,,,,,,,,,,,,,,
"72493893231","2020-07-22T21:55:00","FM-15","7",,,,,,,,,,,,,,,,,,,,,,,,,,,,,,,,,,,,,,"29.87","54","59",,,,,"82",,"CLR:00","29.86","10.00","56","280",,"3",,,,,,,,,,,,,,,,,,,,,,,,,,,,,,,,,,,,,"MET07307/22/20 21:55:02 METAR KSQL 230555Z 28003KT 10SM CLR 15/12 A2987 RMK AO2","FM-15","7",,,,,,,,,,,,,,,,,,,,,,,,,,,,
"72493893231","2020-07-22T22:15:00","FM-15","7",,,,,,,,,,,,,,,,,,,,,,,,,,,,,,,,,,,,,,"29.88","54","59",,,,,"82",,"CLR:00","29.87","10.00","56","260",,"3",,,,,,,,,,,,,,,,,,,,,,,,,,,,,,,,,,,,,"MET07307/22/20 22:15:02 METAR KSQL 230615Z 26003KT 10SM CLR 15/12 A2988 RMK AO2","FM-15","7",,,,,,,,,,,,,,,,,,,,,,,,,,,,
"72493893231","2020-07-22T22:35:00","FM-15","7",,,,,,,,,,,,,,,,,,,,,,,,,,,,,,,,,,,,,,"29.88","54","59",,,,,"82",,"CLR:00","29.87","10.00","56","000",,"0",,,,,,,,,,,,,,,,,,,,,,,,,,,,,,,,,,,,,"MET07307/22/20 22:35:02 METAR KSQL 230635Z 00000KT 10SM CLR 15/12 A2988 RMK AO2","FM-15","7",,,,,,,,,,,,,,,,,,,,,,,,,,,,
"72493893231","2020-07-22T22:55:00","FM-15","7",,,,,,,,,,,,,,,,,,,,,,,,,,,,,,,,,,,,,,"29.88","54","59",,,,,"82",,"FEW:02 20","29.87","10.00","56","000",,"0",,,,,,,,,,,,,,,,,,,,,,,,,,,,,,,,,,,,,"MET07607/22/20 22:55:02 METAR KSQL 230655Z 00000KT 10SM FEW020 15/12 A2988 RMK AO2","FM-15","7",,,,,,,,,,,,,,,,,,,,,,,,,,,,
"72493893231","2020-07-22T23:15:00","FM-15","7",,,,,,,,,,,,,,,,,,,,,,,,,,,,,,,,,,,,,,"29.88","55","61",,,,,"83",,"BKN:07 20","29.87","10.00","58","000",,"0",,,,,,,,,,,,,,,,,,,,,,,,,,,,,,,,,,,,,"MET07607/22/20 23:15:02 METAR KSQL 230715Z 00000KT 10SM BKN020 16/13 A2988 RMK AO2","FM-15","7",,,,,,,,,,,,,,,,,,,,,,,,,,,,
"72493893231","2020-07-22T23:35:00","FM-15","7",,,,,,,,,,,,,,,,,,,,,,,,,,,,,,,,,,,,,,"29.88","55","61",,,,,"83",,"OVC:08 18","29.87","10.00","58","000",,"0",,,,,,,,,,,,,,,,,,,,,,,,,,,,,,,,,,,,,"MET07607/22/20 23:35:02 METAR KSQL 230735Z 00000KT 10SM OVC018 16/13 A2988 RMK AO2","FM-15","7",,,,,,,,,,,,,,,,,,,,,,,,,,,,
"72493893231","2020-07-22T23:55:00","FM-15","7",,,,,,,,,,,,,,,,,,,,,,,,,,,,,,,,,,,,,,"29.88","55","61",,,,,"83",,"OVC:08 18","29.87","10.00","58","300",,"3",,,,,,,,,,,,,,,,,,,,,,,,,,,,,,,,,,,,,"MET07607/22/20 23:55:02 METAR KSQL 230755Z 30003KT 10SM OVC018 16/13 A2988 RMK AO2","FM-15","7",,,,,,,,,,,,,,,,,,,,,,,,,,,,
"72493893231","2020-07-23T00:15:00","FM-15","7",,,,,,,,,,,,,,,,,,,,,,,,,,,,,,,,,,,,,,"29.88","55","63",,,,,"77",,"OVC:08 18","29.87","10.00","58","300",,"3",,,,,,,,,,,,,,,,,,,,,,,,,,,,,,,,,,,,,"MET07607/23/20 00:15:02 METAR KSQL 230815Z 30003KT 10SM OVC018 17/13 A2988 RMK AO2","FM-15","7",,,,,,,,,,,,,,,,,,,,,,,,,,,,
"72493893231","2020-07-23T00:35:00","FM-15","7",,,,,,,,,,,,,,,,,,,,,,,,,,,,,,,,,,,,,,"29.88","55","63",,,,,"77",,"OVC:08 18","29.87","10.00","58","280",,"3",,,,,,,,,,,,,,,,,,,,,,,,,,,,,,,,,,,,,"MET07607/23/20 00:35:02 METAR KSQL 230835Z 28003KT 10SM OVC018 17/13 A2988 RMK AO2","FM-15","7",,,,,,,,,,,,,,,,,,,,,,,,,,,,
"72493893231","2020-07-23T00:55:00","FM-15","7",,,,,,,,,,,,,,,,,,,,,,,,,,,,,,,,,,,,,,"29.88","55","61",,,,,"83",,"OVC:08 16","29.87","10.00","58","260",,"6",,,,,,,,,,,,,,,,,,,,,,,,,,,,,,,,,,,,,"MET07607/23/20 00:55:02 METAR KSQL 230855Z 26005KT 10SM OVC016 16/13 A2988 RMK AO2","FM-15","7",,,,,,,,,,,,,,,,,,,,,,,,,,,,
"72493893231","2020-07-23T01:15:00","FM-15","7",,,,,,,,,,,,,,,,,,,,,,,,,,,,,,,,,,,,,,"29.88","55","61",,,,,"83",,"OVC:08 16","29.87","10.00","58","270",,"7",,,,,,,,,,,,,,,,,,,,,,,,,,,,,,,,,,,,,"MET07607/23/20 01:15:02 METAR KSQL 230915Z 27006KT 10SM OVC016 16/13 A2988 RMK AO2","FM-15","7",,,,,,,,,,,,,,,,,,,,,,,,,,,,
"72493893231","2020-07-23T01:35:00","FM-15","7",,,,,,,,,,,,,,,,,,,,,,,,,,,,,,,,,,,,,,"29.88","54","59",,,,,"82",,"OVC:08 16","29.87","10.00","56","260",,"7",,,,,,,,,,,,,,,,,,,,,,,,,,,,,,,,,,,,,"MET07607/23/20 01:35:02 METAR KSQL 230935Z 26006KT 10SM OVC016 15/12 A2988 RMK AO2","FM-15","7",,,,,,,,,,,,,,,,,,,,,,,,,,,,
"72493893231","2020-07-23T01:55:00","FM-15","7",,,,,,,,,,,,,,,,,,,,,,,,,,,,,,,,,,,,,,"29.87","54","59",,,,,"82",,"OVC:08 16","29.86","10.00","56","260",,"7",,,,,,,,,,,,,,,,,,,,,,,,,,,,,,,,,,,,,"MET07607/23/20 01:55:02 METAR KSQL 230955Z 26006KT 10SM OVC016 15/12 A2987 RMK AO2","FM-15","7",,,,,,,,,,,,,,,,,,,,,,,,,,,,
"72493893231","2020-07-23T02:15:00","FM-15","7",,,,,,,,,,,,,,,,,,,,,,,,,,,,,,,,,,,,,,"29.88","54","59",,,,,"82",,"OVC:08 16","29.87","10.00","56","260",,"6",,,,,,,,,,,,,,,,,,,,,,,,,,,,,,,,,,,,,"MET07607/23/20 02:15:02 METAR KSQL 231015Z 26005KT 10SM OVC016 15/12 A2988 RMK AO2","FM-15","7",,,,,,,,,,,,,,,,,,,,,,,,,,,,
"72493893231","2020-07-23T02:35:00","FM-15","7",,,,,,,,,,,,,,,,,,,,,,,,,,,,,,,,,,,,,,"29.87","54","59",,,,,"82",,"OVC:08 16","29.86","10.00","56","260",,"5",,,,,,,,,,,,,,,,,,,,,,,,,,,,,,,,,,,,,"MET07607/23/20 02:35:02 METAR KSQL 231035Z 26004KT 10SM OVC016 15/12 A2987 RMK AO2","FM-15","7",,,,,,,,,,,,,,,,,,,,,,,,,,,,
"72493893231","2020-07-23T02:55:00","FM-15","7",,,,,,,,,,,,,,,,,,,,,,,,,,,,,,,,,,,,,,"29.88","54","59",,,,,"82",,"OVC:08 16","29.87","10.00","56","270",,"6",,,,,,,,,,,,,,,,,,,,,,,,,,,,,,,,,,,,,"MET07607/23/20 02:55:02 METAR KSQL 231055Z 27005KT 10SM OVC016 15/12 A2988 RMK AO2","FM-15","7",,,,,,,,,,,,,,,,,,,,,,,,,,,,
"72493893231","2020-07-23T03:15:00","FM-15","7",,,,,,,,,,,,,,,,,,,,,,,,,,,,,,,,,,,,,,"29.88","54","59",,,,,"82",,"OVC:08 16","29.87","10.00","56","290",,"6",,,,,,,,,,,,,,,,,,,,,,,,,,,,,,,,,,,,,"MET07607/23/20 03:15:02 METAR KSQL 231115Z 29005KT 10SM OVC016 15/12 A2988 RMK AO2","FM-15","7",,,,,,,,,,,,,,,,,,,,,,,,,,,,
"72493893231","2020-07-23T03:35:00","FM-15","7",,,,,,,,,,,,,,,,,,,,,,,,,,,,,,,,,,,,,,"29.88","54","59",,,,,"82",,"OVC:08 16","29.87","10.00","56","270",,"6",,,,,,,,,,,,,,,,,,,,,,,,,,,,,,,,,,,,,"MET07607/23/20 03:35:02 METAR KSQL 231135Z 27005KT 10SM OVC016 15/12 A2988 RMK AO2","FM-15","7",,,,,,,,,,,,,,,,,,,,,,,,,,,,
"72493893231","2020-07-23T03:55:00","FM-15","7",,,,,,,,,,,,,,,,,,,,,,,,,,,,,,,,,,,,,,"29.88","54","59",,,,,"82",,"OVC:08 16","29.87","10.00","56","290",,"6",,,,,,,,,,,,,,,,,,,,,,,,,,,,,,,,,,,,,"MET07607/23/20 03:55:02 METAR KSQL 231155Z 29005KT 10SM OVC016 15/12 A2988 RMK AO2","FM-15","7",,,,,,,,,,,,,,,,,,,,,,,,,,,,
"72493893231","2020-07-23T04:15:00","FM-15","7",,,,,,,,,,,,,,,,,,,,,,,,,,,,,,,,,,,,,,"29.88","54","59",,,,,"82",,"OVC:08 16","29.87","10.00","56","270",,"3",,,,,,,,,,,,,,,,,,,,,,,,,,,,,,,,,,,,,"MET07607/23/20 04:15:02 METAR KSQL 231215Z 27003KT 10SM OVC016 15/12 A2988 RMK AO2","FM-15","7",,,,,,,,,,,,,,,,,,,,,,,,,,,,
"72493893231","2020-07-23T04:35:00","FM-15","7",,,,,,,,,,,,,,,,,,,,,,,,,,,,,,,,,,,,,,"29.89","54","59",,,,,"82",,"OVC:08 16","29.88","10.00","56","250",,"6",,,,,,,,,,,,,,,,,,,,,,,,,,,,,,,,,,,,,"MET07607/23/20 04:35:02 METAR KSQL 231235Z 25005KT 10SM OVC016 15/12 A2989 RMK AO2","FM-15","7",,,,,,,,,,,,,,,,,,,,,,,,,,,,
"72493893231","2020-07-23T04:55:00","FM-15","7",,,,,,,,,,,,,,,,,,,,,,,,,,,,,,,,,,,,,,"29.89","54","59",,,,,"82",,"OVC:08 16","29.88","10.00","56","260",,"5",,,,,,,,,,,,,,,,,,,,,,,,,,,,,,,,,,,,,"MET07607/23/20 04:55:02 METAR KSQL 231255Z 26004KT 10SM OVC016 15/12 A2989 RMK AO2","FM-15","7",,,,,,,,,,,,,,,,,,,,,,,,,,,,
"72493893231","2020-07-23T05:15:00","FM-15","7",,,,,,,,,,,,,,,,,,,,,,,,,,,,,,,,,,,,,,"29.89","54","59",,,,,"82",,"OVC:08 14","29.88","10.00","56","260",,"6",,,,,,,,,,,,,,,,,,,,,,,,,,,,,,,,,,,,,"MET07607/23/20 05:15:02 METAR KSQL 231315Z 26005KT 10SM OVC014 15/12 A2989 RMK AO2","FM-15","7",,,,,,,,,,,,,,,,,,,,,,,,,,,,
"72493893231","2020-07-23T05:35:00","FM-15","7",,,,,,,,,,,,,,,,,,,,,,,,,,,,,,,,,,,,,,"29.90","54","59",,,,,"82",,"OVC:08 14","29.89","10.00","56","260",,"5",,,,,,,,,,,,,,,,,,,,,,,,,,,,,,,,,,,,,"MET07607/23/20 05:35:02 METAR KSQL 231335Z 26004KT 10SM OVC014 15/12 A2990 RMK AO2","FM-15","7",,,,,,,,,,,,,,,,,,,,,,,,,,,,
"72493893231","2020-07-23T05:55:00","FM-15","7",,,,,,,,,,,,,,,,,,,,,,,,,,,,,,,,,,,,,,"29.90","54","59",,,,,"82",,"OVC:08 14","29.89","10.00","56","270",,"5",,,,,,,,,,,,,,,,,,,,,,,,,,,,,,,,,,,,,"MET07607/23/20 05:55:02 METAR KSQL 231355Z 27004KT 10SM OVC014 15/12 A2990 RMK AO2","FM-15","7",,,,,,,,,,,,,,,,,,,,,,,,,,,,
"72493893231","2020-07-23T06:00:00","FM-15","4",,,,,,,,,,,,,,,,,,,,,,,,,,,,,,,,,,,,,,"29.90","54","59",,,,,"82",,,,"10.00",,"250",,"6",,,,,,,,,,,,,,,,,,,,,,,,,,,,,,,,,,,,,"MET051METAR KSQL 231400Z 25005KT 10SM OVC015 15/12 A2990=","FM-15","4",,,,,,,,,,,,,,,,,,,,,,,,,,,,
"72493893231","2020-07-23T06:47:00","FM-15","7",,,,,,,,,,,,,,,,,,,,,,,,,,,,,,,,,,,,,,"29.91","54","59",,,,,"82",,"OVC:08 15","29.90","10.00","56","VRB",,"3",,,,,,,,,,,,,,,,,,,,,,,,,,,,,,,,,,,,,"MET07207/23/20 06:47:02 METAR KSQL 231447Z VRB03KT 10SM OVC015 15/12 A2991 RMK","FM-15","7",,,,,,,,,,,,,,,,,,,,,,,,,,,,
"72493893231","2020-07-23T07:47:00","FM-15","7",,,,,,,,,,,,,,,,,,,,,,,,,,,,,,,,,,,,,,"29.92","54","63",,,,,"73",,"OVC:08 18","29.91","10.00","58","VRB",,"3",,,,,,,,,,,,,,,,,,,,,,,,,,,,,,,,,,,,,"MET07207/23/20 07:47:02 METAR KSQL 231547Z VRB03KT 10SM OVC018 17/12 A2992 RMK","FM-15","7",,,,,,,,,,,,,,,,,,,,,,,,,,,,
"72493893231","2020-07-23T08:47:00","FM-15","7",,,,,,,,,,,,,,,,,,,,,,,,,,,,,,,,,,,,,,"29.92","55","64",,,,,"73",,"SCT:04 17","29.91","10.00","59","VRB",,"3",,,,,,,,,,,,,,,,,,,,,,,,,,,,,,,,,,,,,"MET07207/23/20 08:47:02 METAR KSQL 231647Z VRB03KT 10SM SCT017 18/13 A2992 RMK","FM-15","7",,,,,,,,,,,,,,,,,,,,,,,,,,,,
"72493893231","2020-07-23T09:47:00","FM-15","7",,,,,,,,,,,,,,,,,,,,,,,,,,,,,,,,,,,,,,"29.93","55","66",,,,,"68",,"SCT:04 20","29.92","10.00","60","VRB",,"3",,,,,,,,,,,,,,,,,,,,,,,,,,,,,,,,,,,,,"MET07207/23/20 09:47:02 METAR KSQL 231747Z VRB03KT 10SM SCT020 19/13 A2993 RMK","FM-15","7",,,,,,,,,,,,,,,,,,,,,,,,,,,,
"72493893231","2020-07-23T10:47:00","FM-15","7",,,,,,,,,,,,,,,,,,,,,,,,,,,,,,,,,,,,,,"29.93","55","68",,,,,"64",,"SCT:04 20","29.92","10.00","60","320",,"14",,,,,,,,,,,,,,,,,,,,,,,,,,,,,,,,,,,,,"MET07207/23/20 10:47:02 METAR KSQL 231847Z 32012KT 10SM SCT020 20/13 A2993 RMK","FM-15","7",,,,,,,,,,,,,,,,,,,,,,,,,,,,
"72493893231","2020-07-23T11:47:00","FM-15","7",,,,,,,,,,,,,,,,,,,,,,,,,,,,,,,,,,,,,,"29.93","55","70",,,,,"60",,"*","29.92","10.00","61","320",,"14",,,,,,,,,,,,,,,,,,,,,,,,,,,,,,,,,,,,,"MET06907/23/20 11:47:02 METAR KSQL 231947Z 32012KT 10SM SKC 21/13 A2993 RMK","FM-15","7",,,,,,,,,,,,,,,,,,,,,,,,,,,,
"72493893231","2020-07-23T12:47:00","FM-15","7",,,,,,,,,,,,,,,,,,,,,,,,,,,,,,,,,,,,,,"29.92","59","70",,,,,"69",,"*","29.91","10.00","63","360",,"11",,,,,,,,,,,,,,,,,,,,,,,,,,,,,,,,,,,,,"MET06907/23/20 12:47:02 METAR KSQL 232047Z 36010KT 10SM SKC 21/15 A2992 RMK","FM-15","7",,,,,,,,,,,,,,,,,,,,,,,,,,,,
"72493893231","2020-07-23T13:47:00","FM-15","7",,,,,,,,,,,,,,,,,,,,,,,,,,,,,,,,,,,,,,"29.91","55","73",,,,,"53",,"*","29.90","10.00","62","270",,"9",,,,,,,,,,,,,,,,,,,,,,,,,,,,,,,,,,,,,"MET06907/23/20 13:47:02 METAR KSQL 232147Z 27008KT 10SM SKC 23/13 A2991 RMK","FM-15","7",,,,,,,,,,,,,,,,,,,,,,,,,,,,
"72493893231","2020-07-23T14:47:00","FM-15","7",,,,,,,,,,,,,,,,,,,,,,,,,,,,,,,,,,,,,,"29.89","55","72",,,,,"57",,"*","29.88","10.00","62","250",,"13",,,,,,,,,,,,,,,,,,,,,,,,,,,,,,,,,,,,,"MET06907/23/20 14:47:02 METAR KSQL 232247Z 25011KT 10SM SKC 22/13 A2989 RMK","FM-15","7",,,,,,,,,,,,,,,,,,,,,,,,,,,,
"72493893231","2020-07-23T15:47:00","FM-15","7",,,,,,,,,,,,,,,,,,,,,,,,,,,,,,,,,,,,,,"29.88","54","73",,,,,"50",,"*","29.87","10.00","62","300",,"17",,,,,,,,,,,,,,,,,,,,,,,,,,,,,,,,,,,,,"MET06907/23/20 15:47:02 METAR KSQL 232347Z 30015KT 10SM SKC 23/12 A2988 RMK","FM-15","7",,,,,,,,,,,,,,,,,,,,,,,,,,,,
"72493893231","2020-07-23T16:47:00","FM-15","7",,,,,,,,,,,,,,,,,,,,,,,,,,,,,,,,,,,,,,"29.87","55","72",,,,,"57",,"*","29.86","10.00","62","310",,"17",,,,,,,,,,,,,,,,,,,,,,,,,,,,,,,,,,,,,"MET06907/23/20 16:47:01 METAR KSQL 240047Z 31015KT 10SM SKC 22/13 A2987 RMK","FM-15","7",,,,,,,,,,,,,,,,,,,,,,,,,,,,
"72493893231","2020-07-23T17:47:00","FM-15","7",,,,,,,,,,,,,,,,,,,,,,,,,,,,,,,,,,,,,,"29.86","55","72",,,,,"57",,"*","29.85","10.00","62","300",,"11",,,,,,,,,,,,,,,,,,,,,,,,,,,,,,,,,,,,,"MET06907/23/20 17:47:01 METAR KSQL 240147Z 30010KT 10SM SKC 22/13 A2986 RMK","FM-15","7",,,,,,,,,,,,,,,,,,,,,,,,,,,,
"72493893231","2020-07-23T19:47:00","FM-15","7",,,,,,,,,,,,,,,,,,,,,,,,,,,,,,,,,,,,,,"29.87","54","64",,,,,"68",,"*","29.86","10.00","58","300",,"7",,,,,,,,,,,,,,,,,,,,,,,,,,,,,,,,,,,,,"MET07407/23/20 19:47:02 METAR KSQL 240347Z 30006KT 10SM SKC 18/12 A2987 RMK LAST","FM-15","7",,,,,,,,,,,,,,,,,,,,,,,,,,,,
"72493893231","2020-07-23T20:15:00","FM-15","7",,,,,,,,,,,,,,,,,,,,,,,,,,,,,,,,,,,,,,"29.88","54","63",,,,,"73",,"CLR:00","29.87","10.00","58","310",,"8",,,,,,,,,,,,,,,,,,,,,,,,,,,,,,,,,,,,,"MET07307/23/20 20:15:02 METAR KSQL 240415Z 31007KT 10SM CLR 17/12 A2988 RMK AO2","FM-15","7",,,,,,,,,,,,,,,,,,,,,,,,,,,,
"72493893231","2020-07-23T20:35:00","FM-15","7",,,,,,,,,,,,,,,,,,,,,,,,,,,,,,,,,,,,,,"29.89","54","63",,,,,"73",,"CLR:00","29.88","10.00","58","310",,"8",,,,,,,,,,,,,,,,,,,,,,,,,,,,,,,,,,,,,"MET07307/23/20 20:35:02 METAR KSQL 240435Z 31007KT 10SM CLR 17/12 A2989 RMK AO2","FM-15","7",,,,,,,,,,,,,,,,,,,,,,,,,,,,
"72493893231","2020-07-23T20:55:00","FM-15","7",,,,,,,,,,,,,,,,,,,,,,,,,,,,,,,,,,,,,,"29.89","54","63",,,,,"73",,"CLR:00","29.88","10.00","58","300",,"10",,,,,,,,,,,,,,,,,,,,,,,,,,,,,,,,,,,,,"MET07307/23/20 20:55:02 METAR KSQL 240455Z 30009KT 10SM CLR 17/12 A2989 RMK AO2","FM-15","7",,,,,,,,,,,,,,,,,,,,,,,,,,,,
"72493893231","2020-07-23T21:15:00","FM-15","7",,,,,,,,,,,,,,,,,,,,,,,,,,,,,,,,,,,,,,"29.90","54","61",,,,,"77",,"CLR:00","29.89","10.00","57","300",,"8",,,,,,,,,,,,,,,,,,,,,,,,,,,,,,,,,,,,,"MET07307/23/20 21:15:02 METAR KSQL 240515Z 30007KT 10SM CLR 16/12 A2990 RMK AO2","FM-15","7",,,,,,,,,,,,,,,,,,,,,,,,,,,,
"72493893231","2020-07-23T21:35:00","FM-15","7",,,,,,,,,,,,,,,,,,,,,,,,,,,,,,,,,,,,,,"29.90","54","61",,,,,"77",,"CLR:00","29.89","10.00","57","300",,"7",,,,,,,,,,,,,,,,,,,,,,,,,,,,,,,,,,,,,"MET07307/23/20 21:35:02 METAR KSQL 240535Z 30006KT 10SM CLR 16/12 A2990 RMK AO2","FM-15","7",,,,,,,,,,,,,,,,,,,,,,,,,,,,
"72493893231","2020-07-23T21:55:00","FM-15","7",,,,,,,,,,,,,,,,,,,,,,,,,,,,,,,,,,,,,,"29.90","54","63",,,,,"73",,"CLR:00","29.89","10.00","58","260",,"8",,,,,,,,,,,,,,,,,,,,,,,,,,,,,,,,,,,,,"MET07307/23/20 21:55:02 METAR KSQL 240555Z 26007KT 10SM CLR 17/12 A2990 RMK AO2","FM-15","7",,,,,,,,,,,,,,,,,,,,,,,,,,,,
"72493893231","2020-07-23T22:15:00","FM-15","7",,,,,,,,,,,,,,,,,,,,,,,,,,,,,,,,,,,,,,"29.91","52","61",,,,,"72",,"CLR:00","29.90","10.00","56","280",,"8",,,,,,,,,,,,,,,,,,,,,,,,,,,,,,,,,,,,,"MET07307/23/20 22:15:02 METAR KSQL 240615Z 28007KT 10SM CLR 16/11 A2991 RMK AO2","FM-15","7",,,,,,,,,,,,,,,,,,,,,,,,,,,,
"72493893231","2020-07-23T22:35:00","FM-15","7",,,,,,,,,,,,,,,,,,,,,,,,,,,,,,,,,,,,,,"29.91","52","61",,,,,"72",,"CLR:00","29.90","10.00","56","250",,"6",,,,,,,,,,,,,,,,,,,,,,,,,,,,,,,,,,,,,"MET07307/23/20 22:35:02 METAR KSQL 240635Z 25005KT 10SM CLR 16/11 A2991 RMK AO2","FM-15","7",,,,,,,,,,,,,,,,,,,,,,,,,,,,
"72493893231","2020-07-23T22:55:00","FM-15","7",,,,,,,,,,,,,,,,,,,,,,,,,,,,,,,,,,,,,,"29.91","52","59",,,,,"77",,"CLR:00","29.90","10.00","55","260",,"8",,,,,,,,,,,,,,,,,,,,,,,,,,,,,,,,,,,,,"MET07307/23/20 22:55:02 METAR KSQL 240655Z 26007KT 10SM CLR 15/11 A2991 RMK AO2","FM-15","7",,,,,,,,,,,,,,,,,,,,,,,,,,,,
"72493893231","2020-07-23T23:15:00","FM-15","7",,,,,,,,,,,,,,,,,,,,,,,,,,,,,,,,,,,,,,"29.91","52","61",,,,,"72",,"CLR:00","29.90","10.00","56","270",,"5",,,,,,,,,,,,,,,,,,,,,,,,,,,,,,,,,,,,,"MET07307/23/20 23:15:02 METAR KSQL 240715Z 27004KT 10SM CLR 16/11 A2991 RMK AO2","FM-15","7",,,,,,,,,,,,,,,,,,,,,,,,,,,,
"72493893231","2020-07-23T23:35:00","FM-15","7",,,,,,,,,,,,,,,,,,,,,,,,,,,,,,,,,,,,,,"29.91","54","61",,,,,"77",,"CLR:00","29.90","10.00","57","260",,"3",,,,,,,,,,,,,,,,,,,,,,,,,,,,,,,,,,,,,"MET07307/23/20 23:35:02 METAR KSQL 240735Z 26003KT 10SM CLR 16/12 A2991 RMK AO2","FM-15","7",,,,,,,,,,,,,,,,,,,,,,,,,,,,
"72493893231","2020-07-23T23:55:00","FM-15","7",,,,,,,,,,,,,,,,,,,,,,,,,,,,,,,,,,,,,,"29.90","54","61",,,,,"77",,"CLR:00","29.89","10.00","57","260",,"5",,,,,,,,,,,,,,,,,,,,,,,,,,,,,,,,,,,,,"MET07307/23/20 23:55:02 METAR KSQL 240755Z 26004KT 10SM CLR 16/12 A2990 RMK AO2","FM-15","7",,,,,,,,,,,,,,,,,,,,,,,,,,,,
"72493893231","2020-07-24T00:15:00","FM-15","7",,,,,,,,,,,,,,,,,,,,,,,,,,,,,,,,,,,,,,"29.90","54","61",,,,,"77",,"CLR:00","29.89","10.00","57","260",,"5",,,,,,,,,,,,,,,,,,,,,,,,,,,,,,,,,,,,,"MET07307/24/20 00:15:02 METAR KSQL 240815Z 26004KT 10SM CLR 16/12 A2990 RMK AO2","FM-15","7",,,,,,,,,,,,,,,,,,,,,,,,,,,,
"72493893231","2020-07-24T00:35:00","FM-15","7",,,,,,,,,,,,,,,,,,,,,,,,,,,,,,,,,,,,,,"29.90","55","61",,,,,"83",,"CLR:00","29.89","10.00","58","250",,"5",,,,,,,,,,,,,,,,,,,,,,,,,,,,,,,,,,,,,"MET07307/24/20 00:35:02 METAR KSQL 240835Z 25004KT 10SM CLR 16/13 A2990 RMK AO2","FM-15","7",,,,,,,,,,,,,,,,,,,,,,,,,,,,
"72493893231","2020-07-24T00:55:00","FM-15","7",,,,,,,,,,,,,,,,,,,,,,,,,,,,,,,,,,,,,,"29.90","55","61",,,,,"83",,"CLR:00","29.89","10.00","58","000",,"0",,,,,,,,,,,,,,,,,,,,,,,,,,,,,,,,,,,,,"MET07307/24/20 00:55:02 METAR KSQL 240855Z 00000KT 10SM CLR 16/13 A2990 RMK AO2","FM-15","7",,,,,,,,,,,,,,,,,,,,,,,,,,,,
"72493893231","2020-07-24T01:15:00","FM-15","7",,,,,,,,,,,,,,,,,,,,,,,,,,,,,,,,,,,,,,"29.89","55","61",,,,,"83",,"CLR:00","29.88","10.00","58","210",,"3",,,,,,,,,,,,,,,,,,,,,,,,,,,,,,,,,,,,,"MET07307/24/20 01:15:02 METAR KSQL 240915Z 21003KT 10SM CLR 16/13 A2989 RMK AO2","FM-15","7",,,,,,,,,,,,,,,,,,,,,,,,,,,,
"72493893231","2020-07-24T01:35:00","FM-15","7",,,,,,,,,,,,,,,,,,,,,,,,,,,,,,,,,,,,,,"29.89","55","61",,,,,"83",,"CLR:00","29.88","10.00","58","220",,"3",,,,,,,,,,,,,,,,,,,,,,,,,,,,,,,,,,,,,"MET07307/24/20 01:35:02 METAR KSQL 240935Z 22003KT 10SM CLR 16/13 A2989 RMK AO2","FM-15","7",,,,,,,,,,,,,,,,,,,,,,,,,,,,
"72493893231","2020-07-24T01:55:00","FM-15","7",,,,,,,,,,,,,,,,,,,,,,,,,,,,,,,,,,,,,,"29.89","55","61",,,,,"83",,"CLR:00","29.88","10.00","58","210",,"3",,,,,,,,,,,,,,,,,,,,,,,,,,,,,,,,,,,,,"MET07307/24/20 01:55:02 METAR KSQL 240955Z 21003KT 10SM CLR 16/13 A2989 RMK AO2","FM-15","7",,,,,,,,,,,,,,,,,,,,,,,,,,,,
"72493893231","2020-07-24T02:15:00","FM-15","7",,,,,,,,,,,,,,,,,,,,,,,,,,,,,,,,,,,,,,"29.89","55","61",,,,,"83",,"CLR:00","29.88","10.00","58","200",,"3",,,,,,,,,,,,,,,,,,,,,,,,,,,,,,,,,,,,,"MET07307/24/20 02:15:02 METAR KSQL 241015Z 20003KT 10SM CLR 16/13 A2989 RMK AO2","FM-15","7",,,,,,,,,,,,,,,,,,,,,,,,,,,,
"72493893231","2020-07-24T02:35:00","FM-15","7",,,,,,,,,,,,,,,,,,,,,,,,,,,,,,,,,,,,,,"29.89","55","59",,,,,"88",,"FEW:02 14","29.88","10.00","57","260",,"3",,,,,,,,,,,,,,,,,,,,,,,,,,,,,,,,,,,,,"MET07607/24/20 02:35:02 METAR KSQL 241035Z 26003KT 10SM FEW014 15/13 A2989 RMK AO2","FM-15","7",,,,,,,,,,,,,,,,,,,,,,,,,,,,
"72493893231","2020-07-24T02:55:00","FM-15","7",,,,,,,,,,,,,,,,,,,,,,,,,,,,,,,,,,,,,,"29.89","54","59",,,,,"82",,"FEW:02 14","29.88","10.00","56","260",,"3",,,,,,,,,,,,,,,,,,,,,,,,,,,,,,,,,,,,,"MET07607/24/20 02:55:02 METAR KSQL 241055Z 26003KT 10SM FEW014 15/12 A2989 RMK AO2","FM-15","7",,,,,,,,,,,,,,,,,,,,,,,,,,,,
"72493893231","2020-07-24T03:15:00","FM-15","7",,,,,,,,,,,,,,,,,,,,,,,,,,,,,,,,,,,,,,"29.89","54","59",,,,,"82",,"CLR:00","29.88","10.00","56","000",,"0",,,,,,,,,,,,,,,,,,,,,,,,,,,,,,,,,,,,,"MET07307/24/20 03:15:02 METAR KSQL 241115Z 00000KT 10SM CLR 15/12 A2989 RMK AO2","FM-15","7",,,,,,,,,,,,,,,,,,,,,,,,,,,,
"72493893231","2020-07-24T03:35:00","FM-15","7",,,,,,,,,,,,,,,,,,,,,,,,,,,,,,,,,,,,,,"29.90","54","59",,,,,"82",,"CLR:00","29.89","10.00","56","300",,"5",,,,,,,,,,,,,,,,,,,,,,,,,,,,,,,,,,,,,"MET07307/24/20 03:35:02 METAR KSQL 241135Z 30004KT 10SM CLR 15/12 A2990 RMK AO2","FM-15","7",,,,,,,,,,,,,,,,,,,,,,,,,,,,
"72493893231","2020-07-24T03:55:00","FM-15","7",,,,,,,,,,,,,,,,,,,,,,,,,,,,,,,,,,,,,,"29.90","54","59",,,,,"82",,"CLR:00","29.89","10.00","56","290",,"5",,,,,,,,,,,,,,,,,,,,,,,,,,,,,,,,,,,,,"MET07307/24/20 03:55:02 METAR KSQL 241155Z 29004KT 10SM CLR 15/12 A2990 RMK AO2","FM-15","7",,,,,,,,,,,,,,,,,,,,,,,,,,,,
"72493893231","2020-07-24T04:15:00","FM-15","7",,,,,,,,,,,,,,,,,,,,,,,,,,,,,,,,,,,,,,"29.90","54","59",,,,,"82",,"CLR:00","29.89","10.00","56","290",,"5",,,,,,,,,,,,,,,,,,,,,,,,,,,,,,,,,,,,,"MET07307/24/20 04:15:02 METAR KSQL 241215Z 29004KT 10SM CLR 15/12 A2990 RMK AO2","FM-15","7",,,,,,,,,,,,,,,,,,,,,,,,,,,,
"72493893231","2020-07-24T04:35:00","FM-15","7",,,,,,,,,,,,,,,,,,,,,,,,,,,,,,,,,,,,,,"29.91","54","59",,,,,"82",,"CLR:00","29.90","10.00","56","000",,"0",,,,,,,,,,,,,,,,,,,,,,,,,,,,,,,,,,,,,"MET07307/24/20 04:35:02 METAR KSQL 241235Z 00000KT 10SM CLR 15/12 A2991 RMK AO2","FM-15","7",,,,,,,,,,,,,,,,,,,,,,,,,,,,
"72493893231","2020-07-24T04:55:00","FM-15","7",,,,,,,,,,,,,,,,,,,,,,,,,,,,,,,,,,,,,,"29.91","54","59",,,,,"82",,"CLR:00","29.90","10.00","56","290",,"5",,,,,,,,,,,,,,,,,,,,,,,,,,,,,,,,,,,,,"MET07307/24/20 04:55:02 METAR KSQL 241255Z 29004KT 10SM CLR 15/12 A2991 RMK AO2","FM-15","7",,,,,,,,,,,,,,,,,,,,,,,,,,,,
"72493893231","2020-07-24T05:15:00","FM-15","7",,,,,,,,,,,,,,,,,,,,,,,,,,,,,,,,,,,,,,"29.92","52","57",,,,,"82",,"FEW:02 12","29.91","10.00","54","290",,"5",,,,,,,,,,,,,,,,,,,,,,,,,,,,,,,,,,,,,"MET07607/24/20 05:15:02 METAR KSQL 241315Z 29004KT 10SM FEW012 14/11 A2992 RMK AO2","FM-15","7",,,,,,,,,,,,,,,,,,,,,,,,,,,,
"72493893231","2020-07-24T05:35:00","FM-15","7",,,,,,,,,,,,,,,,,,,,,,,,,,,,,,,,,,,,,,"29.92","52","59",,,,,"77",,"CLR:00","29.91","10.00","55","240",,"3",,,,,,,,,,,,,,,,,,,,,,,,,,,,,,,,,,,,,"MET07307/24/20 05:35:02 METAR KSQL 241335Z 24003KT 10SM CLR 15/11 A2992 RMK AO2","FM-15","7",,,,,,,,,,,,,,,,,,,,,,,,,,,,
"72493893231","2020-07-24T05:55:00","FM-15","7",,,,,,,,,,,,,,,,,,,,,,,,,,,,,,,,,,,,,,"29.92","52","59",,,,,"77",,"CLR:00","29.91","10.00","55","270",,"6",,,,,,,,,,,,,,,,,,,,,,,,,,,,,,,,,,,,,"MET07307/24/20 05:55:02 METAR KSQL 241355Z 27005KT 10SM CLR 15/11 A2992 RMK AO2","FM-15","7",,,,,,,,,,,,,,,,,,,,,,,,,,,,
"72493893231","2020-07-24T06:00:00","FM-15","4",,,,,,,,,,,,,,,,,,,,,,,,,,,,,,,,,,,,,,"29.92","52","59",,,,,"77",,,,"10.00",,"260",,"6",,,,,,,,,,,,,,,,,,,,,,,,,,,,,,,,,,,,,"MET051METAR KSQL 241400Z 26005KT 10SM FEW010 15/11 A2992=","FM-15","4",,,,,,,,,,,,,,,,,,,,,,,,,,,,
"72493893231","2020-07-24T06:47:00","FM-15","7",,,,,,,,,,,,,,,,,,,,,,,,,,,,,,,,,,,,,,"29.93","54","61",,,,,"77",,"OVC:08 12","29.92","10.00","57","VRB",,"3",,,,,,,,,,,,,,,,,,,,,,,,,,,,,,,,,,,,,"MET07207/24/20 06:47:02 METAR KSQL 241447Z VRB03KT 10SM OVC012 16/12 A2993 RMK","FM-15","7",,,,,,,,,,,,,,,,,,,,,,,,,,,,
"72493893231","2020-07-24T07:47:00","FM-15","7",,,,,,,,,,,,,,,,,,,,,,,,,,,,,,,,,,,,,,"29.95","52","64",,,,,"64",,"FEW:02 11","29.94","10.00","57","290",,"9",,,,,,,,,,,,,,,,,,,,,,,,,,,,,,,,,,,,,"MET07207/24/20 07:47:02 METAR KSQL 241547Z 29008KT 10SM FEW011 18/11 A2995 RMK","FM-15","7",,,,,,,,,,,,,,,,,,,,,,,,,,,,
"72493893231","2020-07-24T08:47:00","FM-15","7",,,,,,,,,,,,,,,,,,,,,,,,,,,,,,,,,,,,,,"29.95","52","64",,,,,"64",,"FEW:02 11","29.94","10.00","57","270",,"11",,,,,,,,,,,,,,,,,,,,,,,,,,,,,,,,,,,,,"MET07207/24/20 08:47:02 METAR KSQL 241647Z 27010KT 10SM FEW011 18/11 A2995 RMK","FM-15","7",,,,,,,,,,,,,,,,,,,,,,,,,,,,
"72493893231","2020-07-24T09:47:00","FM-15","7",,,,,,,,,,,,,,,,,,,,,,,,,,,,,,,,,,,,,,"29.95","52","66",,,,,"60",,"*","29.94","10.00","58","250",,"9",,,,,,,,,,,,,,,,,,,,,,,,,,,,,,,,,,,,,"MET06907/24/20 09:47:02 METAR KSQL 241747Z 25008KT 10SM SKC 19/11 A2995 RMK","FM-15","7",,,,,,,,,,,,,,,,,,,,,,,,,,,,
"72493893231","2020-07-24T10:47:00","FM-15","7",,,,,,,,,,,,,,,,,,,,,,,,,,,,,,,,,,,,,,"29.95","54","72",,,,,"53",,"*","29.94","10.00","62","290",,"14",,,,,,,,,,,,,,,,,,,,,,,,,,,,,,,,,,,,,"MET06907/24/20 10:47:02 METAR KSQL 241847Z 29012KT 10SM SKC 22/12 A2995 RMK","FM-15","7",,,,,,,,,,,,,,,,,,,,,,,,,,,,
"72493893231","2020-07-24T11:47:00","FM-15","7",,,,,,,,,,,,,,,,,,,,,,,,,,,,,,,,,,,,,,"29.94","54","72",,,,,"53",,"*","29.93","10.00","62","280",,"11",,,,,,,,,,,,,,,,,,,,,,,,,,,,,,,,,,,,,"MET06907/24/20 11:47:02 METAR KSQL 241947Z 28010KT 10SM SKC 22/12 A2994 RMK","FM-15","7",,,,,,,,,,,,,,,,,,,,,,,,,,,,
"72493893231","2020-07-24T12:47:00","FM-15","7",,,,,,,,,,,,,,,,,,,,,,,,,,,,,,,,,,,,,,"29.93","54","72",,,,,"53",,"*","29.92","10.00","62","280",,"11",,,,,,,,,,,,,,,,,,,,,,,,,,,,,,,,,,,,,"MET06907/24/20 12:47:02 METAR KSQL 242047Z 28010KT 10SM SKC 22/12 A2993 RMK","FM-15","7",,,,,,,,,,,,,,,,,,,,,,,,,,,,
"72493893231","2020-07-24T13:47:00","FM-15","7",,,,,,,,,,,,,,,,,,,,,,,,,,,,,,,,,,,,,,"29.91","54","75",,,,,"47",,"*","29.90","10.00","63","280",,"14",,,,,,,,,,,,,,,,,,,,,,,,,,,,,,,,,,,,,"MET06907/24/20 13:47:02 METAR KSQL 242147Z 28012KT 10SM SKC 24/12 A2991 RMK","FM-15","7",,,,,,,,,,,,,,,,,,,,,,,,,,,,
"72493893231","2020-07-24T14:53:00","FM-15","7",,,,,,,,,,,,,,,,,,,,,,,,,,,,,,,,,,,,,,"29.90","54","72",,,,,"53",,"*","29.89","10.00","62","280",,"15",,,,,,,,,,,,,,,,,,,,,,,,,,,,,,,,,,,,,"MET06907/24/20 14:53:02 METAR KSQL 242253Z 28013KT 10SM SKC 22/12 A2990 RMK","FM-15","7",,,,,,,,,,,,,,,,,,,,,,,,,,,,
"72493893231","2020-07-24T16:47:00","FM-15","7",,,,,,,,,,,,,,,,,,,,,,,,,,,,,,,,,,,,,,"29.90","54","66",,,,,"64",,"*","29.89","10.00","59","260","23","17",,,,,,,,,,,,,,,,,,,,,,,,,,,,,,,,,,,,,"MET07207/24/20 16:47:01 METAR KSQL 250047Z 26015G20KT 10SM SKC 19/12 A2990 RMK","FM-15","7",,,,,,,,,,,,,,,,,,,,,,,,,,,,
"72493893231","2020-07-24T17:47:00","FM-15","7",,,,,,,,,,,,,,,,,,,,,,,,,,,,,,,,,,,,,,"29.91","52","64",,,,,"64",,"*","29.90","10.00","57","270","23","16",,,,,,,,,,,,,,,,,,,,,,,,,,,,,,,,,,,,,"MET07207/24/20 17:47:01 METAR KSQL 250147Z 27014G20KT 10SM SKC 18/11 A2991 RMK","FM-15","7",,,,,,,,,,,,,,,,,,,,,,,,,,,,
"72493893231","2020-07-24T18:47:00","FM-15","7",,,,,,,,,,,,,,,,,,,,,,,,,,,,,,,,,,,,,,"29.91","52","63",,,,,"68",,"*","29.90","10.00","57","280","18","16",,,,,,,,,,,,,,,,,,,,,,,,,,,,,,,,,,,,,"MET07207/24/20 18:47:01 METAR KSQL 250247Z 28014G16KT 10SM SKC 17/11 A2991 RMK","FM-15","7",,,,,,,,,,,,,,,,,,,,,,,,,,,,
"72493893231","2020-07-24T19:47:00","FM-15","7",,,,,,,,,,,,,,,,,,,,,,,,,,,,,,,,,,,,,,"29.92","52","59",,,,,"77",,"*","29.91","10.00","55","270",,"11",,,,,,,,,,,,,,,,,,,,,,,,,,,,,,,,,,,,,"MET07407/24/20 19:47:02 METAR KSQL 250347Z 27010KT 10SM SKC 15/11 A2992 RMK LAST","FM-15","7",,,,,,,,,,,,,,,,,,,,,,,,,,,,
"72493893231","2020-07-24T20:15:00","FM-15","7",,,,,,,,,,,,,,,,,,,,,,,,,,,,,,,,,,,,,,"29.93","52","59",,,,,"77",,"CLR:00","29.92","10.00","55","270",,"9",,,,,,,,,,,,,,,,,,,,,,,,,,,,,,,,,,,,,"MET07307/24/20 20:15:02 METAR KSQL 250415Z 27008KT 10SM CLR 15/11 A2993 RMK AO2","FM-15","7",,,,,,,,,,,,,,,,,,,,,,,,,,,,
"72493893231","2020-07-24T20:35:00","FM-15","7",,,,,,,,,,,,,,,,,,,,,,,,,,,,,,,,,,,,,,"29.93","54","59",,,,,"82",,"CLR:00","29.92","10.00","56","260",,"9",,,,,,,,,,,,,,,,,,,,,,,,,,,,,,,,,,,,,"MET07307/24/20 20:35:02 METAR KSQL 250435Z 26008KT 10SM CLR 15/12 A2993 RMK AO2","FM-15","7",,,,,,,,,,,,,,,,,,,,,,,,,,,,
"72493893231","2020-07-24T20:55:00","FM-15","7",,,,,,,,,,,,,,,,,,,,,,,,,,,,,,,,,,,,,,"29.94","54","59",,,,,"82",,"CLR:00","29.93","10.00","56","280",,"10",,,,,,,,,,,,,,,,,,,,,,,,,,,,,,,,,,,,,"MET07307/24/20 20:55:02 METAR KSQL 250455Z 28009KT 10SM CLR 15/12 A2994 RMK AO2","FM-15","7",,,,,,,,,,,,,,,,,,,,,,,,,,,,
"72493893231","2020-07-24T21:15:00","FM-15","7",,,,,,,,,,,,,,,,,,,,,,,,,,,,,,,,,,,,,,"29.94","54","59",,,,,"82",,"CLR:00","29.93","10.00","56","270",,"10",,,,,,,,,,,,,,,,,,,,,,,,,,,,,,,,,,,,,"MET07307/24/20 21:15:02 METAR KSQL 250515Z 27009KT 10SM CLR 15/12 A2994 RMK AO2","FM-15","7",,,,,,,,,,,,,,,,,,,,,,,,,,,,
"72493893231","2020-07-24T21:35:00","FM-15","7",,,,,,,,,,,,,,,,,,,,,,,,,,,,,,,,,,,,,,"29.94","54","59",,,,,"82",,"CLR:00","29.93","10.00","56","280",,"7",,,,,,,,,,,,,,,,,,,,,,,,,,,,,,,,,,,,,"MET07307/24/20 21:35:02 METAR KSQL 250535Z 28006KT 10SM CLR 15/12 A2994 RMK AO2","FM-15","7",,,,,,,,,,,,,,,,,,,,,,,,,,,,
"72493893231","2020-07-24T21:55:00","FM-15","7",,,,,,,,,,,,,,,,,,,,,,,,,,,,,,,,,,,,,,"29.94","52","59",,,,,"77",,"CLR:00","29.93","10.00","55","270",,"8",,,,,,,,,,,,,,,,,,,,,,,,,,,,,,,,,,,,,"MET07307/24/20 21:55:02 METAR KSQL 250555Z 27007KT 10SM CLR 15/11 A2994 RMK AO2","FM-15","7",,,,,,,,,,,,,,,,,,,,,,,,,,,,
"72493893231","2020-07-24T22:15:00","FM-15","7",,,,,,,,,,,,,,,,,,,,,,,,,,,,,,,,,,,,,,"29.93","52","59",,,,,"77",,"CLR:00","29.92","10.00","55","260",,"9",,,,,,,,,,,,,,,,,,,,,,,,,,,,,,,,,,,,,"MET07307/24/20 22:15:02 METAR KSQL 250615Z 26008KT 10SM CLR 15/11 A2993 RMK AO2","FM-15","7",,,,,,,,,,,,,,,,,,,,,,,,,,,,
"72493893231","2020-07-24T22:35:00","FM-15","7",,,,,,,,,,,,,,,,,,,,,,,,,,,,,,,,,,,,,,"29.94","52","59",,,,,"77",,"CLR:00","29.93","10.00","55","270",,"7",,,,,,,,,,,,,,,,,,,,,,,,,,,,,,,,,,,,,"MET07307/24/20 22:35:02 METAR KSQL 250635Z 27006KT 10SM CLR 15/11 A2994 RMK AO2","FM-15","7",,,,,,,,,,,,,,,,,,,,,,,,,,,,
"72493893231","2020-07-24T22:55:00","FM-15","7",,,,,,,,,,,,,,,,,,,,,,,,,,,,,,,,,,,,,,"29.94","52","59",,,,,"77",,"CLR:00","29.93","10.00","55","270",,"6",,,,,,,,,,,,,,,,,,,,,,,,,,,,,,,,,,,,,"MET07307/24/20 22:55:02 METAR KSQL 250655Z 27005KT 10SM CLR 15/11 A2994 RMK AO2","FM-15","7",,,,,,,,,,,,,,,,,,,,,,,,,,,,
"72493893231","2020-07-24T23:15:00","FM-15","7",,,,,,,,,,,,,,,,,,,,,,,,,,,,,,,,,,,,,,"29.94","52","59",,,,,"77",,"CLR:00","29.93","10.00","55","250",,"5",,,,,,,,,,,,,,,,,,,,,,,,,,,,,,,,,,,,,"MET07307/24/20 23:15:02 METAR KSQL 250715Z 25004KT 10SM CLR 15/11 A2994 RMK AO2","FM-15","7",,,,,,,,,,,,,,,,,,,,,,,,,,,,
"72493893231","2020-07-24T23:35:00","FM-15","7",,,,,,,,,,,,,,,,,,,,,,,,,,,,,,,,,,,,,,"29.94","52","59",,,,,"77",,"CLR:00","29.93","10.00","55","280",,"3",,,,,,,,,,,,,,,,,,,,,,,,,,,,,,,,,,,,,"MET07307/24/20 23:35:02 METAR KSQL 250735Z 28003KT 10SM CLR 15/11 A2994 RMK AO2","FM-15","7",,,,,,,,,,,,,,,,,,,,,,,,,,,,
"72493893231","2020-07-24T23:55:00","FM-15","7",,,,,,,,,,,,,,,,,,,,,,,,,,,,,,,,,,,,,,"29.93","54","57",,,,,"88",,"BKN:07 15","29.92","10.00","55","250",,"5",,,,,,,,,,,,,,,,,,,,,,,,,,,,,,,,,,,,,"MET07607/24/20 23:55:02 METAR KSQL 250755Z 25004KT 10SM BKN015 14/12 A2993 RMK AO2","FM-15","7",,,,,,,,,,,,,,,,,,,,,,,,,,,,
"72493893231","2020-07-25T00:15:00","FM-15","7",,,,,,,,,,,,,,,,,,,,,,,,,,,,,,,,,,,,,,"29.93","54","57",,,,,"88",,"OVC:08 15","29.92","10.00","55","260",,"5",,,,,,,,,,,,,,,,,,,,,,,,,,,,,,,,,,,,,"MET07607/25/20 00:15:02 METAR KSQL 250815Z 26004KT 10SM OVC015 14/12 A2993 RMK AO2","FM-15","7",,,,,,,,,,,,,,,,,,,,,,,,,,,,
"72493893231","2020-07-25T00:35:00","FM-15","7",,,,,,,,,,,,,,,,,,,,,,,,,,,,,,,,,,,,,,"29.93","52","57",,,,,"82",,"SCT:04 15 BKN:07 20","29.92","10.00","54","260",,"5",,,,,,,,,,,,,,,,,,,,,,,,,,,,,,,,,,,,,"MET08307/25/20 00:35:02 METAR KSQL 250835Z 26004KT 10SM SCT015 BKN020 14/11 A2993 RMK AO2","FM-15","7",,,,,,,,,,,,,,,,,,,,,,,,,,,,
"72493893231","2020-07-25T00:55:00","FM-15","7",,,,,,,,,,,,,,,,,,,,,,,,,,,,,,,,,,,,,,"29.93","52","57",,,,,"82",,"FEW:02 20","29.92","10.00","54","250",,"3",,,,,,,,,,,,,,,,,,,,,,,,,,,,,,,,,,,,,"MET07607/25/20 00:55:02 METAR KSQL 250855Z 25003KT 10SM FEW020 14/11 A2993 RMK AO2","FM-15","7",,,,,,,,,,,,,,,,,,,,,,,,,,,,
"72493893231","2020-07-25T01:15:00","FM-15","7",,,,,,,,,,,,,,,,,,,,,,,,,,,,,,,,,,,,,,"29.92","52","57",,,,,"82",,"FEW:02 14","29.91","10.00","54","000",,"0",,,,,,,,,,,,,,,,,,,,,,,,,,,,,,,,,,,,,"MET07607/25/20 01:15:02 METAR KSQL 250915Z 00000KT 10SM FEW014 14/11 A2992 RMK AO2","FM-15","7",,,,,,,,,,,,,,,,,,,,,,,,,,,,
"72493893231","2020-07-25T01:35:00","FM-15","7",,,,,,,,,,,,,,,,,,,,,,,,,,,,,,,,,,,,,,"29.92","54","59",,,,,"82",,"BKN:07 14","29.91","10.00","56","220",,"5",,,,,,,,,,,,,,,,,,,,,,,,,,,,,,,,,,,,,"MET07607/25/20 01:35:02 METAR KSQL 250935Z 22004KT 10SM BKN014 15/12 A2992 RMK AO2","FM-15","7",,,,,,,,,,,,,,,,,,,,,,,,,,,,
"72493893231","2020-07-25T01:55:00","FM-15","7",,,,,,,,,,,,,,,,,,,,,,,,,,,,,,,,,,,,,,"29.92","54","59",,,,,"82",,"OVC:08 14","29.91","10.00","56","220",,"5",,,,,,,,,,,,,,,,,,,,,,,,,,,,,,,,,,,,,"MET07607/25/20 01:55:02 METAR KSQL 250955Z 22004KT 10SM OVC014 15/12 A2992 RMK AO2","FM-15","7",,,,,,,,,,,,,,,,,,,,,,,,,,,,
"72493893231","2020-07-25T02:15:00","FM-15","7",,,,,,,,,,,,,,,,,,,,,,,,,,,,,,,,,,,,,,"29.91","54","59",,,,,"82",,"OVC:08 14","29.90","10.00","56","260",,"5",,,,,,,,,,,,,,,,,,,,,,,,,,,,,,,,,,,,,"MET07607/25/20 02:15:02 METAR KSQL 251015Z 26004KT 10SM OVC014 15/12 A2991 RMK AO2","FM-15","7",,,,,,,,,,,,,,,,,,,,,,,,,,,,
"72493893231","2020-07-25T02:35:00","FM-15","7",,,,,,,,,,,,,,,,,,,,,,,,,,,,,,,,,,,,,,"29.91","54","59",,,,,"82",,"OVC:08 14","29.90","10.00","56","240",,"3",,,,,,,,,,,,,,,,,,,,,,,,,,,,,,,,,,,,,"MET07607/25/20 02:35:02 METAR KSQL 251035Z 24003KT 10SM OVC014 15/12 A2991 RMK AO2","FM-15","7",,,,,,,,,,,,,,,,,,,,,,,,,,,,
"72493893231","2020-07-25T02:55:00","FM-15","7",,,,,,,,,,,,,,,,,,,,,,,,,,,,,,,,,,,,,,"29.91","54","57",,,,,"88",,"OVC:08 14","29.90","10.00","55","320",,"5",,,,,,,,,,,,,,,,,,,,,,,,,,,,,,,,,,,,,"MET07607/25/20 02:55:02 METAR KSQL 251055Z 32004KT 10SM OVC014 14/12 A2991 RMK AO2","FM-15","7",,,,,,,,,,,,,,,,,,,,,,,,,,,,
"72493893231","2020-07-25T03:15:00","FM-15","7",,,,,,,,,,,,,,,,,,,,,,,,,,,,,,,,,,,,,,"29.91","52","57",,,,,"82",,"SCT:04 14","29.90","10.00","54","310",,"3",,,,,,,,,,,,,,,,,,,,,,,,,,,,,,,,,,,,,"MET07607/25/20 03:15:02 METAR KSQL 251115Z 31003KT 10SM SCT014 14/11 A2991 RMK AO2","FM-15","7",,,,,,,,,,,,,,,,,,,,,,,,,,,,
"72493893231","2020-07-25T03:35:00","FM-15","7",,,,,,,,,,,,,,,,,,,,,,,,,,,,,,,,,,,,,,"29.91","54","57",,,,,"88",,"BKN:07 14","29.90","10.00","55","310",,"5",,,,,,,,,,,,,,,,,,,,,,,,,,,,,,,,,,,,,"MET07607/25/20 03:35:02 METAR KSQL 251135Z 31004KT 10SM BKN014 14/12 A2991 RMK AO2","FM-15","7",,,,,,,,,,,,,,,,,,,,,,,,,,,,
"72493893231","2020-07-25T03:55:00","FM-15","7",,,,,,,,,,,,,,,,,,,,,,,,,,,,,,,,,,,,,,"29.91","54","57",,,,,"88",,"BKN:07 14","29.90","10.00","55","240",,"3",,,,,,,,,,,,,,,,,,,,,,,,,,,,,,,,,,,,,"MET07607/25/20 03:55:02 METAR KSQL 251155Z 24003KT 10SM BKN014 14/12 A2991 RMK AO2","FM-15","7",,,,,,,,,,,,,,,,,,,,,,,,,,,,
"72493893231","2020-07-25T04:15:00","FM-15","7",,,,,,,,,,,,,,,,,,,,,,,,,,,,,,,,,,,,,,"29.91","54","57",,,,,"88",,"BKN:07 14","29.90","10.00","55","000",,"0",,,,,,,,,,,,,,,,,,,,,,,,,,,,,,,,,,,,,"MET07607/25/20 04:15:02 METAR KSQL 251215Z 00000KT 10SM BKN014 14/12 A2991 RMK AO2","FM-15","7",,,,,,,,,,,,,,,,,,,,,,,,,,,,
"72493893231","2020-07-25T04:35:00","FM-15","7",,,,,,,,,,,,,,,,,,,,,,,,,,,,,,,,,,,,,,"29.91","54","57",,,,,"88",,"OVC:08 14","29.90","10.00","55","290",,"3",,,,,,,,,,,,,,,,,,,,,,,,,,,,,,,,,,,,,"MET07607/25/20 04:35:02 METAR KSQL 251235Z 29003KT 10SM OVC014 14/12 A2991 RMK AO2","FM-15","7",,,,,,,,,,,,,,,,,,,,,,,,,,,,
"72493893231","2020-07-25T04:55:00","FM-15","7",,,,,,,,,,,,,,,,,,,,,,,,,,,,,,,,,,,,,,"29.91","54","59",,,,,"82",,"OVC:08 14","29.90","10.00","56","000",,"0",,,,,,,,,,,,,,,,,,,,,,,,,,,,,,,,,,,,,"MET07607/25/20 04:55:02 METAR KSQL 251255Z 00000KT 10SM OVC014 15/12 A2991 RMK AO2","FM-15","7",,,,,,,,,,,,,,,,,,,,,,,,,,,,
"72493893231","2020-07-25T05:15:00","FM-15","7",,,,,,,,,,,,,,,,,,,,,,,,,,,,,,,,,,,,,,"29.91","54","59",,,,,"82",,"OVC:08 14","29.90","10.00","56","300",,"3",,,,,,,,,,,,,,,,,,,,,,,,,,,,,,,,,,,,,"MET07607/25/20 05:15:02 METAR KSQL 251315Z 30003KT 10SM OVC014 15/12 A2991 RMK AO2","FM-15","7",,,,,,,,,,,,,,,,,,,,,,,,,,,,
"72493893231","2020-07-25T05:35:00","FM-15","7",,,,,,,,,,,,,,,,,,,,,,,,,,,,,,,,,,,,,,"29.92","54","59",,,,,"82",,"OVC:08 14","29.91","10.00","56","000",,"0",,,,,,,,,,,,,,,,,,,,,,,,,,,,,,,,,,,,,"MET07607/25/20 05:35:02 METAR KSQL 251335Z 00000KT 10SM OVC014 15/12 A2992 RMK AO2","FM-15","7",,,,,,,,,,,,,,,,,,,,,,,,,,,,
"72493893231","2020-07-25T05:47:00","FM-15","4",,,,,,,,,,,,,,,,,,,,,,,,,,,,,,,,,,,,,,"29.92","54","59",,,,,"82",,,,"10.00",,"000",,"0",,,,,,,,,,,,,,,,,,,,,,,,,,,,,,,,,,,,,"MET051METAR KSQL 251347Z 00000KT 10SM SCT014 15/12 A2992=","FM-15","4",,,,,,,,,,,,,,,,,,,,,,,,,,,,
"72493893231","2020-07-25T05:55:00","FM-15","7",,,,,,,,,,,,,,,,,,,,,,,,,,,,,,,,,,,,,,"29.92","54","59",,,,,"82",,"BKN:07 14","29.91","10.00","56","000",,"0",,,,,,,,,,,,,,,,,,,,,,,,,,,,,,,,,,,,,"MET07607/25/20 05:55:02 METAR KSQL 251355Z 00000KT 10SM BKN014 15/12 A2992 RMK AO2","FM-15","7",,,,,,,,,,,,,,,,,,,,,,,,,,,,
"72493893231","2020-07-25T06:47:00","FM-15","7",,,,,,,,,,,,,,,,,,,,,,,,,,,,,,,,,,,,,,"29.93","55","61",,,,,"83",,"SCT:04 14","29.92","10.00","58","000",,"0",,,,,,,,,,,,,,,,,,,,,,,,,,,,,,,,,,,,,"MET07207/25/20 06:47:02 METAR KSQL 251447Z 00000KT 10SM SCT014 16/13 A2993 RMK","FM-15","7",,,,,,,,,,,,,,,,,,,,,,,,,,,,
"72493893231","2020-07-25T08:47:00","FM-15","7",,,,,,,,,,,,,,,,,,,,,,,,,,,,,,,,,,,,,,"29.93","57","64",,,,,"78",,"FEW:02 14","29.92","10.00","60","360",,"9",,,,,,,,,,,,,,,,,,,,,,,,,,,,,,,,,,,,,"MET07207/25/20 08:47:02 METAR KSQL 251647Z 36008KT 10SM FEW014 18/14 A2993 RMK","FM-15","7",,,,,,,,,,,,,,,,,,,,,,,,,,,,
"72493893231","2020-07-25T09:47:00","FM-15","7",,,,,,,,,,,,,,,,,,,,,,,,,,,,,,,,,,,,,,"29.93","55","68",,,,,"64",,"*","29.92","10.00","60","360",,"6",,,,,,,,,,,,,,,,,,,,,,,,,,,,,,,,,,,,,"MET06907/25/20 09:47:02 METAR KSQL 251747Z 36005KT 10SM SKC 20/13 A2993 RMK","FM-15","7",,,,,,,,,,,,,,,,,,,,,,,,,,,,
"72493893231","2020-07-25T10:47:00","FM-15","7",,,,,,,,,,,,,,,,,,,,,,,,,,,,,,,,,,,,,,"29.93","59","70",,,,,"69",,"*","29.92","10.00","63","010",,"9",,,,,,,,,,,,,,,,,,,,,,,,,,,,,,,,,,,,,"MET06907/25/20 10:47:02 METAR KSQL 251847Z 01008KT 10SM SKC 21/15 A2993 RMK","FM-15","7",,,,,,,,,,,,,,,,,,,,,,,,,,,,
"72493893231","2020-07-25T11:47:00","FM-15","7",,,,,,,,,,,,,,,,,,,,,,,,,,,,,,,,,,,,,,"29.92","55","73",,,,,"53",,"*","29.91","10.00","62","290",,"9",,,,,,,,,,,,,,,,,,,,,,,,,,,,,,,,,,,,,"MET06907/25/20 11:47:02 METAR KSQL 251947Z 29008KT 10SM SKC 23/13 A2992 RMK","FM-15","7",,,,,,,,,,,,,,,,,,,,,,,,,,,,
"72493893231","2020-07-25T12:47:00","FM-15","7",,,,,,,,,,,,,,,,,,,,,,,,,,,,,,,,,,,,,,"29.91","55","73",,,,,"53",,"*","29.90","10.00","62","290",,"14",,,,,,,,,,,,,,,,,,,,,,,,,,,,,,,,,,,,,"MET06907/25/20 12:47:02 METAR KSQL 252047Z 29012KT 10SM SKC 23/13 A2991 RMK","FM-15","7",,,,,,,,,,,,,,,,,,,,,,,,,,,,
"72493893231","2020-07-25T13:47:00","FM-15","7",,,,,,,,,,,,,,,,,,,,,,,,,,,,,,,,,,,,,,"29.90","55","73",,,,,"53",,"*","29.89","10.00","62","290",,"17",,,,,,,,,,,,,,,,,,,,,,,,,,,,,,,,,,,,,"MET06907/25/20 13:47:02 METAR KSQL 252147Z 29015KT 10SM SKC 23/13 A2990 RMK","FM-15","7",,,,,,,,,,,,,,,,,,,,,,,,,,,,
"72493893231","2020-07-25T14:47:00","FM-15","7",,,,,,,,,,,,,,,,,,,,,,,,,,,,,,,,,,,,,,"29.89","55","73",,,,,"53",,"*","29.88","10.00","62","320",,"14",,,,,,,,,,,,,,,,,,,,,,,,,,,,,,,,,,,,,"MET06907/25/20 14:47:02 METAR KSQL 252247Z 32012KT 10SM SKC 23/13 A2989 RMK","FM-15","7",,,,,,,,,,,,,,,,,,,,,,,,,,,,
"72493893231","2020-07-25T15:47:00","FM-15","7",,,,,,,,,,,,,,,,,,,,,,,,,,,,,,,,,,,,,,"29.88","55","73",,,,,"53",,"*","29.87","10.00","62","290",,"13",,,,,,,,,,,,,,,,,,,,,,,,,,,,,,,,,,,,,"MET06907/25/20 15:47:02 METAR KSQL 252347Z 29011KT 10SM SKC 23/13 A2988 RMK","FM-15","7",,,,,,,,,,,,,,,,,,,,,,,,,,,,
"72493893231","2020-07-25T16:47:00","FM-15","7",,,,,,,,,,,,,,,,,,,,,,,,,,,,,,,,,,,,,,"29.87","55","73",,,,,"53",,"*","29.86","10.00","62","260",,"9",,,,,,,,,,,,,,,,,,,,,,,,,,,,,,,,,,,,,"MET06907/25/20 16:47:01 METAR KSQL 260047Z 26008KT 10SM SKC 23/13 A2987 RMK","FM-15","7",,,,,,,,,,,,,,,,,,,,,,,,,,,,
"72493893231","2020-07-25T17:49:00","FM-15","7",,,,,,,,,,,,,,,,,,,,,,,,,,,,,,,,,,,,,,"29.87","55","70",,,,,"60",,"*","29.86","10.00","61","290",,"11",,,,,,,,,,,,,,,,,,,,,,,,,,,,,,,,,,,,,"MET06907/25/20 17:49:01 METAR KSQL 260149Z 29010KT 10SM SKC 21/13 A2987 RMK","FM-15","7",,,,,,,,,,,,,,,,,,,,,,,,,,,,
"72493893231","2020-07-25T18:47:00","FM-15","7",,,,,,,,,,,,,,,,,,,,,,,,,,,,,,,,,,,,,,"29.89","55","66",,,,,"68",,"*","29.88","10.00","60","300",,"9",,,,,,,,,,,,,,,,,,,,,,,,,,,,,,,,,,,,,"MET06907/25/20 18:47:01 METAR KSQL 260247Z 30008KT 10SM SKC 19/13 A2989 RMK","FM-15","7",,,,,,,,,,,,,,,,,,,,,,,,,,,,
"72493893231","2020-07-25T20:00:00","FM-15","4",,,,,,,,,,,,,,,,,,,,,,,,,,,,,,,,,,,,,,"29.90","55","64",,,,,"73",,,,"10.00",,"290",,"7",,,,,,,,,,,,,,,,,,,,,,,,,,,,,,,,,,,,,"MET057METAR KSQL 260400Z 29006KT 10SM SKC 18/13 A2990 RMK LAST=","FM-15","4",,,,,,,,,,,,,,,,,,,,,,,,,,,,
"72493893231","2020-07-25T20:15:00","FM-15","7",,,,,,,,,,,,,,,,,,,,,,,,,,,,,,,,,,,,,,"29.90","55","63",,,,,"77",,"CLR:00","29.89","10.00","58","310",,"5",,,,,,,,,,,,,,,,,,,,,,,,,,,,,,,,,,,,,"MET07307/25/20 20:15:01 METAR KSQL 260415Z 31004KT 10SM CLR 17/13 A2990 RMK AO2","FM-15","7",,,,,,,,,,,,,,,,,,,,,,,,,,,,
"72493893231","2020-07-25T20:35:00","FM-15","7",,,,,,,,,,,,,,,,,,,,,,,,,,,,,,,,,,,,,,"29.90","54","63",,,,,"73",,"CLR:00","29.89","10.00","58","310",,"5",,,,,,,,,,,,,,,,,,,,,,,,,,,,,,,,,,,,,"MET07307/25/20 20:35:01 METAR KSQL 260435Z 31004KT 10SM CLR 17/12 A2990 RMK AO2","FM-15","7",,,,,,,,,,,,,,,,,,,,,,,,,,,,
"72493893231","2020-07-25T20:55:00","FM-15","7",,,,,,,,,,,,,,,,,,,,,,,,,,,,,,,,,,,,,,"29.91","54","63",,,,,"73",,"CLR:00","29.90","10.00","58","300",,"6",,,,,,,,,,,,,,,,,,,,,,,,,,,,,,,,,,,,,"MET07307/25/20 20:55:01 METAR KSQL 260455Z 30005KT 10SM CLR 17/12 A2991 RMK AO2","FM-15","7",,,,,,,,,,,,,,,,,,,,,,,,,,,,
"72493893231","2020-07-25T21:15:00","FM-15","7",,,,,,,,,,,,,,,,,,,,,,,,,,,,,,,,,,,,,,"29.92","54","63",,,,,"73",,"CLR:00","29.91","10.00","58","310",,"5",,,,,,,,,,,,,,,,,,,,,,,,,,,,,,,,,,,,,"MET07307/25/20 21:15:01 METAR KSQL 260515Z 31004KT 10SM CLR 17/12 A2992 RMK AO2","FM-15","7",,,,,,,,,,,,,,,,,,,,,,,,,,,,
"72493893231","2020-07-25T21:35:00","FM-15","7",,,,,,,,,,,,,,,,,,,,,,,,,,,,,,,,,,,,,,"29.92","54","63",,,,,"73",,"CLR:00","29.91","10.00","58","330",,"6",,,,,,,,,,,,,,,,,,,,,,,,,,,,,,,,,,,,,"MET07307/25/20 21:35:01 METAR KSQL 260535Z 33005KT 10SM CLR 17/12 A2992 RMK AO2","FM-15","7",,,,,,,,,,,,,,,,,,,,,,,,,,,,
"72493893231","2020-07-25T21:55:00","FM-15","7",,,,,,,,,,,,,,,,,,,,,,,,,,,,,,,,,,,,,,"29.92","54","61",,,,,"77",,"CLR:00","29.91","10.00","57","320",,"7",,,,,,,,,,,,,,,,,,,,,,,,,,,,,,,,,,,,,"MET07307/25/20 21:55:01 METAR KSQL 260555Z 32006KT 10SM CLR 16/12 A2992 RMK AO2","FM-15","7",,,,,,,,,,,,,,,,,,,,,,,,,,,,
"72493893231","2020-07-25T22:15:00","FM-15","7",,,,,,,,,,,,,,,,,,,,,,,,,,,,,,,,,,,,,,"29.92","54","61",,,,,"77",,"CLR:00","29.91","10.00","57","320",,"6",,,,,,,,,,,,,,,,,,,,,,,,,,,,,,,,,,,,,"MET07307/25/20 22:15:01 METAR KSQL 260615Z 32005KT 10SM CLR 16/12 A2992 RMK AO2","FM-15","7",,,,,,,,,,,,,,,,,,,,,,,,,,,,
"72493893231","2020-07-25T22:35:00","FM-15","7",,,,,,,,,,,,,,,,,,,,,,,,,,,,,,,,,,,,,,"29.92","54","61",,,,,"77",,"CLR:00","29.91","10.00","57","310",,"6",,,,,,,,,,,,,,,,,,,,,,,,,,,,,,,,,,,,,"MET07307/25/20 22:35:01 METAR KSQL 260635Z 31005KT 10SM CLR 16/12 A2992 RMK AO2","FM-15","7",,,,,,,,,,,,,,,,,,,,,,,,,,,,
"72493893231","2020-07-25T22:55:00","FM-15","7",,,,,,,,,,,,,,,,,,,,,,,,,,,,,,,,,,,,,,"29.93","54","59",,,,,"82",,"CLR:00","29.92","10.00","56","320",,"3",,,,,,,,,,,,,,,,,,,,,,,,,,,,,,,,,,,,,"MET07307/25/20 22:55:01 METAR KSQL 260655Z 32003KT 10SM CLR 15/12 A2993 RMK AO2","FM-15","7",,,,,,,,,,,,,,,,,,,,,,,,,,,,
"72493893231","2020-07-25T23:15:00","FM-15","7",,,,,,,,,,,,,,,,,,,,,,,,,,,,,,,,,,,,,,"29.94","54","59",,,,,"82",,"CLR:00","29.93","10.00","56","000",,"0",,,,,,,,,,,,,,,,,,,,,,,,,,,,,,,,,,,,,"MET07307/25/20 23:15:01 METAR KSQL 260715Z 00000KT 10SM CLR 15/12 A2994 RMK AO2","FM-15","7",,,,,,,,,,,,,,,,,,,,,,,,,,,,
"72493893231","2020-07-25T23:35:00","FM-15","7",,,,,,,,,,,,,,,,,,,,,,,,,,,,,,,,,,,,,,"29.94","54","61",,,,,"77",,"CLR:00","29.93","10.00","57","000",,"0",,,,,,,,,,,,,,,,,,,,,,,,,,,,,,,,,,,,,"MET07307/25/20 23:35:01 METAR KSQL 260735Z 00000KT 10SM CLR 16/12 A2994 RMK AO2","FM-15","7",,,,,,,,,,,,,,,,,,,,,,,,,,,,
"72493893231","2020-07-25T23:55:00","FM-15","7",,,,,,,,,,,,,,,,,,,,,,,,,,,,,,,,,,,,,,"29.93","54","61",,,,,"77",,"CLR:00","29.92","10.00","57","200",,"3",,,,,,,,,,,,,,,,,,,,,,,,,,,,,,,,,,,,,"MET07307/25/20 23:55:01 METAR KSQL 260755Z 20003KT 10SM CLR 16/12 A2993 RMK AO2","FM-15","7",,,,,,,,,,,,,,,,,,,,,,,,,,,,
"72493893231","2020-07-26T00:15:00","FM-15","7",,,,,,,,,,,,,,,,,,,,,,,,,,,,,,,,,,,,,,"29.93","55","61",,,,,"83",,"CLR:00","29.92","10.00","58","160",,"5",,,,,,,,,,,,,,,,,,,,,,,,,,,,,,,,,,,,,"MET07307/26/20 00:15:01 METAR KSQL 260815Z 16004KT 10SM CLR 16/13 A2993 RMK AO2","FM-15","7",,,,,,,,,,,,,,,,,,,,,,,,,,,,
"72493893231","2020-07-26T00:35:00","FM-15","7",,,,,,,,,,,,,,,,,,,,,,,,,,,,,,,,,,,,,,"29.93","55","61",,,,,"83",,"CLR:00","29.92","10.00","58","170",,"5",,,,,,,,,,,,,,,,,,,,,,,,,,,,,,,,,,,,,"MET07307/26/20 00:35:01 METAR KSQL 260835Z 17004KT 10SM CLR 16/13 A2993 RMK AO2","FM-15","7",,,,,,,,,,,,,,,,,,,,,,,,,,,,
"72493893231","2020-07-26T00:55:00","FM-15","7",,,,,,,,,,,,,,,,,,,,,,,,,,,,,,,,,,,,,,"29.93","55","61",,,,,"83",,"SCT:04 14","29.92","10.00","58","200",,"3",,,,,,,,,,,,,,,,,,,,,,,,,,,,,,,,,,,,,"MET07607/26/20 00:55:01 METAR KSQL 260855Z 20003KT 10SM SCT014 16/13 A2993 RMK AO2","FM-15","7",,,,,,,,,,,,,,,,,,,,,,,,,,,,
"72493893231","2020-07-26T01:15:00","FM-15","7",,,,,,,,,,,,,,,,,,,,,,,,,,,,,,,,,,,,,,"29.93","55","63",,,,,"77",,"OVC:08 14","29.92","10.00","58","200",,"3",,,,,,,,,,,,,,,,,,,,,,,,,,,,,,,,,,,,,"MET07607/26/20 01:15:01 METAR KSQL 260915Z 20003KT 10SM OVC014 17/13 A2993 RMK AO2","FM-15","7",,,,,,,,,,,,,,,,,,,,,,,,,,,,
"72493893231","2020-07-26T01:35:00","FM-15","7",,,,,,,,,,,,,,,,,,,,,,,,,,,,,,,,,,,,,,"29.93","57","63",,,,,"83",,"OVC:08 12","29.92","10.00","60","000",,"0",,,,,,,,,,,,,,,,,,,,,,,,,,,,,,,,,,,,,"MET07607/26/20 01:35:01 METAR KSQL 260935Z 00000KT 10SM OVC012 17/14 A2993 RMK AO2","FM-15","7",,,,,,,,,,,,,,,,,,,,,,,,,,,,
"72493893231","2020-07-26T01:55:00","FM-15","7",,,,,,,,,,,,,,,,,,,,,,,,,,,,,,,,,,,,,,"29.93","57","63",,,,,"83",,"OVC:08 12","29.92","10.00","60","000",,"0",,,,,,,,,,,,,,,,,,,,,,,,,,,,,,,,,,,,,"MET07607/26/20 01:55:01 METAR KSQL 260955Z 00000KT 10SM OVC012 17/14 A2993 RMK AO2","FM-15","7",,,,,,,,,,,,,,,,,,,,,,,,,,,,
"72493893231","2020-07-26T02:15:00","FM-15","7",,,,,,,,,,,,,,,,,,,,,,,,,,,,,,,,,,,,,,"29.93","57","63",,,,,"83",,"OVC:08 12","29.92","10.00","60","000",,"0",,,,,,,,,,,,,,,,,,,,,,,,,,,,,,,,,,,,,"MET07607/26/20 02:15:01 METAR KSQL 261015Z 00000KT 10SM OVC012 17/14 A2993 RMK AO2","FM-15","7",,,,,,,,,,,,,,,,,,,,,,,,,,,,
"72493893231","2020-07-26T02:35:00","FM-15","7",,,,,,,,,,,,,,,,,,,,,,,,,,,,,,,,,,,,,,"29.93","57","63",,,,,"83",,"OVC:08 12","29.92","10.00","60","000",,"0",,,,,,,,,,,,,,,,,,,,,,,,,,,,,,,,,,,,,"MET07607/26/20 02:35:01 METAR KSQL 261035Z 00000KT 10SM OVC012 17/14 A2993 RMK AO2","FM-15","7",,,,,,,,,,,,,,,,,,,,,,,,,,,,
"72493893231","2020-07-26T02:55:00","FM-15","7",,,,,,,,,,,,,,,,,,,,,,,,,,,,,,,,,,,,,,"29.93","57","63",,,,,"83",,"OVC:08 12","29.92","10.00","60","350",,"5",,,,,,,,,,,,,,,,,,,,,,,,,,,,,,,,,,,,,"MET07607/26/20 02:55:01 METAR KSQL 261055Z 35004KT 10SM OVC012 17/14 A2993 RMK AO2","FM-15","7",,,,,,,,,,,,,,,,,,,,,,,,,,,,
"72493893231","2020-07-26T03:15:00","FM-15","7",,,,,,,,,,,,,,,,,,,,,,,,,,,,,,,,,,,,,,"29.93","55","63",,,,,"77",,"OVC:08 12","29.92","10.00","58","320",,"3",,,,,,,,,,,,,,,,,,,,,,,,,,,,,,,,,,,,,"MET07607/26/20 03:15:01 METAR KSQL 261115Z 32003KT 10SM OVC012 17/13 A2993 RMK AO2","FM-15","7",,,,,,,,,,,,,,,,,,,,,,,,,,,,
"72493893231","2020-07-26T03:35:00","FM-15","7",,,,,,,,,,,,,,,,,,,,,,,,,,,,,,,,,,,,,,"29.93","55","63",,,,,"77",,"OVC:08 12","29.92","10.00","58","000",,"0",,,,,,,,,,,,,,,,,,,,,,,,,,,,,,,,,,,,,"MET07607/26/20 03:35:01 METAR KSQL 261135Z 00000KT 10SM OVC012 17/13 A2993 RMK AO2","FM-15","7",,,,,,,,,,,,,,,,,,,,,,,,,,,,
"72493893231","2020-07-26T03:55:00","FM-15","7",,,,,,,,,,,,,,,,,,,,,,,,,,,,,,,,,,,,,,"29.93","55","63",,,,,"77",,"OVC:08 12","29.92","10.00","58","000",,"0",,,,,,,,,,,,,,,,,,,,,,,,,,,,,,,,,,,,,"MET07607/26/20 03:55:01 METAR KSQL 261155Z 00000KT 10SM OVC012 17/13 A2993 RMK AO2","FM-15","7",,,,,,,,,,,,,,,,,,,,,,,,,,,,
"72493893231","2020-07-26T04:15:00","FM-15","7",,,,,,,,,,,,,,,,,,,,,,,,,,,,,,,,,,,,,,"29.93","55","61",,,,,"83",,"OVC:08 12","29.92","10.00","58","330",,"5",,,,,,,,,,,,,,,,,,,,,,,,,,,,,,,,,,,,,"MET07607/26/20 04:15:02 METAR KSQL 261215Z 33004KT 10SM OVC012 16/13 A2993 RMK AO2","FM-15","7",,,,,,,,,,,,,,,,,,,,,,,,,,,,
"72493893231","2020-07-26T04:35:00","FM-15","7",,,,,,,,,,,,,,,,,,,,,,,,,,,,,,,,,,,,,,"29.93","55","61",,,,,"83",,"OVC:08 12","29.92","10.00","58","340",,"3",,,,,,,,,,,,,,,,,,,,,,,,,,,,,,,,,,,,,"MET07607/26/20 04:35:02 METAR KSQL 261235Z 34003KT 10SM OVC012 16/13 A2993 RMK AO2","FM-15","7",,,,,,,,,,,,,,,,,,,,,,,,,,,,
"72493893231","2020-07-26T04:55:00","FM-15","7",,,,,,,,,,,,,,,,,,,,,,,,,,,,,,,,,,,,,,"29.93","55","61",,,,,"83",,"OVC:08 12","29.92","10.00","58","320",,"5",,,,,,,,,,,,,,,,,,,,,,,,,,,,,,,,,,,,,"MET07607/26/20 04:55:02 METAR KSQL 261255Z 32004KT 10SM OVC012 16/13 A2993 RMK AO2","FM-15","7",,,,,,,,,,,,,,,,,,,,,,,,,,,,
"72493893231","2020-07-26T05:15:00","FM-15","7",,,,,,,,,,,,,,,,,,,,,,,,,,,,,,,,,,,,,,"29.94","55","61",,,,,"83",,"OVC:08 12","29.93","10.00","58","320",,"5",,,,,,,,,,,,,,,,,,,,,,,,,,,,,,,,,,,,,"MET07607/26/20 05:15:02 METAR KSQL 261315Z 32004KT 10SM OVC012 16/13 A2994 RMK AO2","FM-15","7",,,,,,,,,,,,,,,,,,,,,,,,,,,,
"72493893231","2020-07-26T05:35:00","FM-15","7",,,,,,,,,,,,,,,,,,,,,,,,,,,,,,,,,,,,,,"29.94","55","59",,,,,"88",,"OVC:08 12","29.93","10.00","57","320",,"5",,,,,,,,,,,,,,,,,,,,,,,,,,,,,,,,,,,,,"MET07607/26/20 05:35:02 METAR KSQL 261335Z 32004KT 10SM OVC012 15/13 A2994 RMK AO2","FM-15","7",,,,,,,,,,,,,,,,,,,,,,,,,,,,
"72493893231","2020-07-26T05:55:00","FM-15","7",,,,,,,,,,,,,,,,,,,,,,,,,,,,,,,,,,,,,,"29.95","55","59",,,,,"88",,"OVC:08 12","29.94","10.00","57","310",,"3",,,,,,,,,,,,,,,,,,,,,,,,,,,,,,,,,,,,,"MET07607/26/20 05:55:02 METAR KSQL 261355Z 31003KT 10SM OVC012 15/13 A2995 RMK AO2","FM-15","7",,,,,,,,,,,,,,,,,,,,,,,,,,,,
"72493893231","2020-07-26T06:47:00","FM-15","7",,,,,,,,,,,,,,,,,,,,,,,,,,,,,,,,,,,,,,"29.96","57","61",,,,,"88",,"OVC:08 12","29.95","10.00","59","000",,"0",,,,,,,,,,,,,,,,,,,,,,,,,,,,,,,,,,,,,"MET07207/26/20 06:47:02 METAR KSQL 261447Z 00000KT 10SM OVC012 16/14 A2996 RMK","FM-15","7",,,,,,,,,,,,,,,,,,,,,,,,,,,,
"72493893231","2020-07-26T07:47:00","FM-15","7",,,,,,,,,,,,,,,,,,,,,,,,,,,,,,,,,,,,,,"29.96","57","63",,,,,"83",,"OVC:08 12","29.95","10.00","60","000",,"0",,,,,,,,,,,,,,,,,,,,,,,,,,,,,,,,,,,,,"MET07207/26/20 07:47:02 METAR KSQL 261547Z 00000KT 10SM OVC012 17/14 A2996 RMK","FM-15","7",,,,,,,,,,,,,,,,,,,,,,,,,,,,
"72493893231","2020-07-26T08:47:00","FM-15","7",,,,,,,,,,,,,,,,,,,,,,,,,,,,,,,,,,,,,,"29.96","59","64",,,,,"83",,"*","29.95","10.00","61","VRB",,"3",,,,,,,,,,,,,,,,,,,,,,,,,,,,,,,,,,,,,"MET06907/26/20 08:47:02 METAR KSQL 261647Z VRB03KT 10SM SKC 18/15 A2996 RMK","FM-15","7",,,,,,,,,,,,,,,,,,,,,,,,,,,,
"72493893231","2020-07-26T09:47:00","FM-15","7",,,,,,,,,,,,,,,,,,,,,,,,,,,,,,,,,,,,,,"29.96","59","64",,,,,"83",,"SCT:04 14","29.95","10.00","61","030",,"6",,,,,,,,,,,,,,,,,,,,,,,,,,,,,,,,,,,,,"MET07207/26/20 09:47:02 METAR KSQL 261747Z 03005KT 10SM SCT014 18/15 A2996 RMK","FM-15","7",,,,,,,,,,,,,,,,,,,,,,,,,,,,
"72493893231","2020-07-26T10:47:00","FM-15","7",,,,,,,,,,,,,,,,,,,,,,,,,,,,,,,,,,,,,,"29.97","59","66",,,,,"78",,"SCT:04 14","29.96","10.00","62","030",,"6",,,,,,,,,,,,,,,,,,,,,,,,,,,,,,,,,,,,,"MET07207/26/20 10:47:02 METAR KSQL 261847Z 03005KT 10SM SCT014 19/15 A2997 RMK","FM-15","7",,,,,,,,,,,,,,,,,,,,,,,,,,,,
"72493893231","2020-07-26T11:47:00","FM-15","7",,,,,,,,,,,,,,,,,,,,,,,,,,,,,,,,,,,,,,"29.96","59","68",,,,,"73",,"*","29.95","10.00","63","360",,"11",,,,,,,,,,,,,,,,,,,,,,,,,,,,,,,,,,,,,"MET06907/26/20 11:47:02 METAR KSQL 261947Z 36010KT 10SM SKC 20/15 A2996 RMK","FM-15","7",,,,,,,,,,,,,,,,,,,,,,,,,,,,
"72493893231","2020-07-26T12:47:00","FM-15","7",,,,,,,,,,,,,,,,,,,,,,,,,,,,,,,,,,,,,,"29.95","59","72",,,,,"65",,"*","29.94","10.00","64","350",,"9",,,,,,,,,,,,,,,,,,,,,,,,,,,,,,,,,,,,,"MET06907/26/20 12:47:02 METAR KSQL 262047Z 35008KT 10SM SKC 22/15 A2995 RMK","FM-15","7",,,,,,,,,,,,,,,,,,,,,,,,,,,,
"72493893231","2020-07-26T13:47:00","FM-15","7",,,,,,,,,,,,,,,,,,,,,,,,,,,,,,,,,,,,,,"29.93","59","73",,,,,"61",,"*","29.92","10.00","64","340",,"10",,,,,,,,,,,,,,,,,,,,,,,,,,,,,,,,,,,,,"MET06907/26/20 13:47:02 METAR KSQL 262147Z 34009KT 10SM SKC 23/15 A2993 RMK","FM-15","7",,,,,,,,,,,,,,,,,,,,,,,,,,,,
"72493893231","2020-07-26T14:47:00","FM-15","7",,,,,,,,,,,,,,,,,,,,,,,,,,,,,,,,,,,,,,"29.92","55","77",,,,,"47",,"*","29.91","10.00","64","310",,"10",,,,,,,,,,,,,,,,,,,,,,,,,,,,,,,,,,,,,"MET06907/26/20 14:47:02 METAR KSQL 262247Z 31009KT 10SM SKC 25/13 A2992 RMK","FM-15","7",,,,,,,,,,,,,,,,,,,,,,,,,,,,
"72493893231","2020-07-26T15:47:00","FM-15","7",,,,,,,,,,,,,,,,,,,,,,,,,,,,,,,,,,,,,,"29.90","55","75",,,,,"50",,"*","29.89","10.00","63","310",,"13",,,,,,,,,,,,,,,,,,,,,,,,,,,,,,,,,,,,,"MET06907/26/20 15:47:02 METAR KSQL 262347Z 31011KT 10SM SKC 24/13 A2990 RMK","FM-15","7",,,,,,,,,,,,,,,,,,,,,,,,,,,,
"72493893231","2020-07-26T16:47:00","FM-15","7",,,,,,,,,,,,,,,,,,,,,,,,,,,,,,,,,,,,,,"29.88","55","77",,,,,"47",,"*","29.87","10.00","64","330",,"9",,,,,,,,,,,,,,,,,,,,,,,,,,,,,,,,,,,,,"MET07207/26/20 16:47:01 METAR KSQL 270047Z 33000KT 10SM SKC 25/13 A2988 RMK DA","FM-15","7",,,,,,,,,,,,,,,,,,,,,,,,,,,,
"72493893231","2020-07-26T17:47:00","FM-15","7",,,,,,,,,,,,,,,,,,,,,,,,,,,,,,,,,,,,,,"29.91","54","72",,,,,"53",,"*","29.90","10.00","62","320",,"11",,,,,,,,,,,,,,,,,,,,,,,,,,,,,,,,,,,,,"MET06907/26/20 17:47:01 METAR KSQL 270147Z 32010KT 10SM SKC 22/12 A2991 RMK","FM-15","7",,,,,,,,,,,,,,,,,,,,,,,,,,,,
"72493893231","2020-07-26T18:47:00","FM-15","7",,,,,,,,,,,,,,,,,,,,,,,,,,,,,,,,,,,,,,"29.93","55","68",,,,,"64",,"*","29.92","10.00","60","300",,"9",,,,,,,,,,,,,,,,,,,,,,,,,,,,,,,,,,,,,"MET06907/26/20 18:47:01 METAR KSQL 270247Z 30008KT 10SM SKC 20/13 A2993 RMK","FM-15","7",,,,,,,,,,,,,,,,,,,,,,,,,,,,
"72493893231","2020-07-26T19:47:00","FM-15","7",,,,,,,,,,,,,,,,,,,,,,,,,,,,,,,,,,,,,,"29.93","55","64",,,,,"73",,"*","29.92","10.00","59","320",,"6",,,,,,,,,,,,,,,,,,,,,,,,,,,,,,,,,,,,,"MET07707/26/20 19:47:01 METAR KSQL 270347Z 32005KT 10SM SKC 18/13 A2993 RMK LAST QT","FM-15","7",,,,,,,,,,,,,,,,,,,,,,,,,,,,
"72493893231","2020-07-26T20:15:00","FM-15","7",,,,,,,,,,,,,,,,,,,,,,,,,,,,,,,,,,,,,,"29.94","55","64",,,,,"73",,"CLR:00","29.93","10.00","59","320",,"8",,,,,,,,,,,,,,,,,,,,,,,,,,,,,,,,,,,,,"MET07307/26/20 20:15:01 METAR KSQL 270415Z 32007KT 10SM CLR 18/13 A2994 RMK AO2","FM-15","7",,,,,,,,,,,,,,,,,,,,,,,,,,,,
"72493893231","2020-07-26T20:35:00","FM-15","7",,,,,,,,,,,,,,,,,,,,,,,,,,,,,,,,,,,,,,"29.94","55","64",,,,,"73",,"CLR:00","29.93","10.00","59","010",,"5",,,,,,,,,,,,,,,,,,,,,,,,,,,,,,,,,,,,,"MET07307/26/20 20:35:01 METAR KSQL 270435Z 01004KT 10SM CLR 18/13 A2994 RMK AO2","FM-15","7",,,,,,,,,,,,,,,,,,,,,,,,,,,,
"72493893231","2020-07-26T20:55:00","FM-15","7",,,,,,,,,,,,,,,,,,,,,,,,,,,,,,,,,,,,,,"29.94","55","63",,,,,"77",,"CLR:00","29.93","10.00","58","330",,"5",,,,,,,,,,,,,,,,,,,,,,,,,,,,,,,,,,,,,"MET07307/26/20 20:55:01 METAR KSQL 270455Z 33004KT 10SM CLR 17/13 A2994 RMK AO2","FM-15","7",,,,,,,,,,,,,,,,,,,,,,,,,,,,
"72493893231","2020-07-26T21:15:00","FM-15","7",,,,,,,,,,,,,,,,,,,,,,,,,,,,,,,,,,,,,,"29.94","55","63",,,,,"77",,"CLR:00","29.93","10.00","58","340",,"3",,,,,,,,,,,,,,,,,,,,,,,,,,,,,,,,,,,,,"MET07307/26/20 21:15:01 METAR KSQL 270515Z 34003KT 10SM CLR 17/13 A2994 RMK AO2","FM-15","7",,,,,,,,,,,,,,,,,,,,,,,,,,,,
"72493893231","2020-07-26T21:35:00","FM-15","7",,,,,,,,,,,,,,,,,,,,,,,,,,,,,,,,,,,,,,"29.94","55","63",,,,,"77",,"CLR:00","29.93","10.00","58","300",,"3",,,,,,,,,,,,,,,,,,,,,,,,,,,,,,,,,,,,,"MET07307/26/20 21:35:01 METAR KSQL 270535Z 30003KT 10SM CLR 17/13 A2994 RMK AO2","FM-15","7",,,,,,,,,,,,,,,,,,,,,,,,,,,,
"72493893231","2020-07-26T21:55:00","FM-15","7",,,,,,,,,,,,,,,,,,,,,,,,,,,,,,,,,,,,,,"29.93","57","63",,,,,"83",,"CLR:00","29.92","10.00","60","010",,"6",,,,,,,,,,,,,,,,,,,,,,,,,,,,,,,,,,,,,"MET07307/26/20 21:55:01 METAR KSQL 270555Z 01005KT 10SM CLR 17/14 A2993 RMK AO2","FM-15","7",,,,,,,,,,,,,,,,,,,,,,,,,,,,
"72493893231","2020-07-26T22:15:00","FM-15","7",,,,,,,,,,,,,,,,,,,,,,,,,,,,,,,,,,,,,,"29.94","55","63",,,,,"77",,"CLR:00","29.93","10.00","58","320",,"5",,,,,,,,,,,,,,,,,,,,,,,,,,,,,,,,,,,,,"MET07307/26/20 22:15:01 METAR KSQL 270615Z 32004KT 10SM CLR 17/13 A2994 RMK AO2","FM-15","7",,,,,,,,,,,,,,,,,,,,,,,,,,,,
"72493893231","2020-07-26T22:35:00","FM-15","7",,,,,,,,,,,,,,,,,,,,,,,,,,,,,,,,,,,,,,"29.94","55","63",,,,,"77",,"CLR:00","29.93","10.00","58","310",,"6",,,,,,,,,,,,,,,,,,,,,,,,,,,,,,,,,,,,,"MET07307/26/20 22:35:01 METAR KSQL 270635Z 31005KT 10SM CLR 17/13 A2994 RMK AO2","FM-15","7",,,,,,,,,,,,,,,,,,,,,,,,,,,,
"72493893231","2020-07-26T22:55:00","FM-15","7",,,,,,,,,,,,,,,,,,,,,,,,,,,,,,,,,,,,,,"29.94","55","61",,,,,"83",,"CLR:00","29.93","10.00","58","330",,"5",,,,,,,,,,,,,,,,,,,,,,,,,,,,,,,,,,,,,"MET07307/26/20 22:55:01 METAR KSQL 270655Z 33004KT 10SM CLR 16/13 A2994 RMK AO2","FM-15","7",,,,,,,,,,,,,,,,,,,,,,,,,,,,
"72493893231","2020-07-26T23:15:00","FM-15","7",,,,,,,,,,,,,,,,,,,,,,,,,,,,,,,,,,,,,,"29.94","55","61",,,,,"83",,"CLR:00","29.93","10.00","58","330",,"5",,,,,,,,,,,,,,,,,,,,,,,,,,,,,,,,,,,,,"MET07307/26/20 23:15:01 METAR KSQL 270715Z 33004KT 10SM CLR 16/13 A2994 RMK AO2","FM-15","7",,,,,,,,,,,,,,,,,,,,,,,,,,,,
"72493893231","2020-07-26T23:35:00","FM-15","7",,,,,,,,,,,,,,,,,,,,,,,,,,,,,,,,,,,,,,"29.95","55","59",,,,,"88",,"CLR:00","29.94","10.00","57","320",,"5",,,,,,,,,,,,,,,,,,,,,,,,,,,,,,,,,,,,,"MET07307/26/20 23:35:01 METAR KSQL 270735Z 32004KT 10SM CLR 15/13 A2995 RMK AO2","FM-15","7",,,,,,,,,,,,,,,,,,,,,,,,,,,,
"72493893231","2020-07-26T23:55:00","FM-15","7",,,,,,,,,,,,,,,,,,,,,,,,,,,,,,,,,,,,,,"29.95","55","59",,,,,"88",,"CLR:00","29.94","10.00","57","320",,"6",,,,,,,,,,,,,,,,,,,,,,,,,,,,,,,,,,,,,"MET07307/26/20 23:55:01 METAR KSQL 270755Z 32005KT 10SM CLR 15/13 A2995 RMK AO2","FM-15","7",,,,,,,,,,,,,,,,,,,,,,,,,,,,
"72493893231","2020-07-27T00:15:00","FM-15","7",,,,,,,,,,,,,,,,,,,,,,,,,,,,,,,,,,,,,,"29.94","55","59",,,,,"88",,"CLR:00","29.93","10.00","57","000",,"0",,,,,,,,,,,,,,,,,,,,,,,,,,,,,,,,,,,,,"MET07307/27/20 00:15:01 METAR KSQL 270815Z 00000KT 10SM CLR 15/13 A2994 RMK AO2","FM-15","7",,,,,,,,,,,,,,,,,,,,,,,,,,,,
"72493893231","2020-07-27T00:35:00","FM-15","7",,,,,,,,,,,,,,,,,,,,,,,,,,,,,,,,,,,,,,"29.95","55","59",,,,,"88",,"CLR:00","29.94","10.00","57","320",,"5",,,,,,,,,,,,,,,,,,,,,,,,,,,,,,,,,,,,,"MET07307/27/20 00:35:01 METAR KSQL 270835Z 32004KT 10SM CLR 15/13 A2995 RMK AO2","FM-15","7",,,,,,,,,,,,,,,,,,,,,,,,,,,,
"72493893231","2020-07-27T00:55:00","FM-15","7",,,,,,,,,,,,,,,,,,,,,,,,,,,,,,,,,,,,,,"29.94","55","59",,,,,"88",,"CLR:00","29.93","10.00","57","310",,"5",,,,,,,,,,,,,,,,,,,,,,,,,,,,,,,,,,,,,"MET07307/27/20 00:55:01 METAR KSQL 270855Z 31004KT 10SM CLR 15/13 A2994 RMK AO2","FM-15","7",,,,,,,,,,,,,,,,,,,,,,,,,,,,
"72493893231","2020-07-27T01:15:00","FM-15","7",,,,,,,,,,,,,,,,,,,,,,,,,,,,,,,,,,,,,,"29.94","55","59",,,,,"88",,"CLR:00","29.93","10.00","57","320",,"5",,,,,,,,,,,,,,,,,,,,,,,,,,,,,,,,,,,,,"MET07307/27/20 01:15:01 METAR KSQL 270915Z 32004KT 10SM CLR 15/13 A2994 RMK AO2","FM-15","7",,,,,,,,,,,,,,,,,,,,,,,,,,,,
"72493893231","2020-07-27T01:35:00","FM-15","7",,,,,,,,,,,,,,,,,,,,,,,,,,,,,,,,,,,,,,"29.94","55","59",,,,,"88",,"CLR:00","29.93","10.00","57","310",,"3",,,,,,,,,,,,,,,,,,,,,,,,,,,,,,,,,,,,,"MET07307/27/20 01:35:01 METAR KSQL 270935Z 31003KT 10SM CLR 15/13 A2994 RMK AO2","FM-15","7",,,,,,,,,,,,,,,,,,,,,,,,,,,,
"72493893231","2020-07-27T01:55:00","FM-15","7",,,,,,,,,,,,,,,,,,,,,,,,,,,,,,,,,,,,,,"29.94","55","59",,,,,"88",,"CLR:00","29.93","10.00","57","000",,"0",,,,,,,,,,,,,,,,,,,,,,,,,,,,,,,,,,,,,"MET07307/27/20 01:55:01 METAR KSQL 270955Z 00000KT 10SM CLR 15/13 A2994 RMK AO2","FM-15","7",,,,,,,,,,,,,,,,,,,,,,,,,,,,
"72493893231","2020-07-27T02:15:00","FM-15","7",,,,,,,,,,,,,,,,,,,,,,,,,,,,,,,,,,,,,,"29.93","55","59",,,,,"88",,"CLR:00","29.92","10.00","57","320",,"3",,,,,,,,,,,,,,,,,,,,,,,,,,,,,,,,,,,,,"MET07307/27/20 02:15:01 METAR KSQL 271015Z 32003KT 10SM CLR 15/13 A2993 RMK AO2","FM-15","7",,,,,,,,,,,,,,,,,,,,,,,,,,,,
"72493893231","2020-07-27T02:35:00","FM-15","7",,,,,,,,,,,,,,,,,,,,,,,,,,,,,,,,,,,,,,"29.93","55","59",,,,,"88",,"CLR:00","29.92","10.00","57","000",,"0",,,,,,,,,,,,,,,,,,,,,,,,,,,,,,,,,,,,,"MET07307/27/20 02:35:01 METAR KSQL 271035Z 00000KT 10SM CLR 15/13 A2993 RMK AO2","FM-15","7",,,,,,,,,,,,,,,,,,,,,,,,,,,,
"72493893231","2020-07-27T02:55:00","FM-15","7",,,,,,,,,,,,,,,,,,,,,,,,,,,,,,,,,,,,,,"29.93","55","59",,,,,"88",,"CLR:00","29.92","10.00","57","310",,"5",,,,,,,,,,,,,,,,,,,,,,,,,,,,,,,,,,,,,"MET07307/27/20 02:55:01 METAR KSQL 271055Z 31004KT 10SM CLR 15/13 A2993 RMK AO2","FM-15","7",,,,,,,,,,,,,,,,,,,,,,,,,,,,
"72493893231","2020-07-27T03:15:00","FM-15","7",,,,,,,,,,,,,,,,,,,,,,,,,,,,,,,,,,,,,,"29.93","55","59",,,,,"88",,"CLR:00","29.92","10.00","57","300",,"3",,,,,,,,,,,,,,,,,,,,,,,,,,,,,,,,,,,,,"MET07307/27/20 03:15:01 METAR KSQL 271115Z 30003KT 10SM CLR 15/13 A2993 RMK AO2","FM-15","7",,,,,,,,,,,,,,,,,,,,,,,,,,,,
"72493893231","2020-07-27T03:35:00","FM-15","7",,,,,,,,,,,,,,,,,,,,,,,,,,,,,,,,,,,,,,"29.94","55","59",,,,,"88",,"SCT:04 14","29.93","10.00","57","310",,"5",,,,,,,,,,,,,,,,,,,,,,,,,,,,,,,,,,,,,"MET07607/27/20 03:35:01 METAR KSQL 271135Z 31004KT 10SM SCT014 15/13 A2994 RMK AO2","FM-15","7",,,,,,,,,,,,,,,,,,,,,,,,,,,,
"72493893231","2020-07-27T03:55:00","FM-15","7",,,,,,,,,,,,,,,,,,,,,,,,,,,,,,,,,,,,,,"29.93","55","59",,,,,"88",,"OVC:08 12","29.92","10.00","57","320",,"3",,,,,,,,,,,,,,,,,,,,,,,,,,,,,,,,,,,,,"MET07607/27/20 03:55:01 METAR KSQL 271155Z 32003KT 10SM OVC012 15/13 A2993 RMK AO2","FM-15","7",,,,,,,,,,,,,,,,,,,,,,,,,,,,
"72493893231","2020-07-27T04:15:00","FM-15","7",,,,,,,,,,,,,,,,,,,,,,,,,,,,,,,,,,,,,,"29.93","55","59",,,,,"88",,"OVC:08 10","29.92","10.00","57","000",,"0",,,,,,,,,,,,,,,,,,,,,,,,,,,,,,,,,,,,,"MET07607/27/20 04:15:02 METAR KSQL 271215Z 00000KT 10SM OVC010 15/13 A2993 RMK AO2","FM-15","7",,,,,,,,,,,,,,,,,,,,,,,,,,,,
"72493893231","2020-07-27T04:35:00","FM-15","7",,,,,,,,,,,,,,,,,,,,,,,,,,,,,,,,,,,,,,"29.94","55","59",,,,,"88",,"OVC:08 10","29.93","10.00","57","000",,"0",,,,,,,,,,,,,,,,,,,,,,,,,,,,,,,,,,,,,"MET07607/27/20 04:35:02 METAR KSQL 271235Z 00000KT 10SM OVC010 15/13 A2994 RMK AO2","FM-15","7",,,,,,,,,,,,,,,,,,,,,,,,,,,,
"72493893231","2020-07-27T04:55:00","FM-15","7",,,,,,,,,,,,,,,,,,,,,,,,,,,,,,,,,,,,,,"29.94","57","59",,,,,"94",,"OVC:08 10","29.93","10.00","58","110",,"3",,,,,,,,,,,,,,,,,,,,,,,,,,,,,,,,,,,,,"MET07607/27/20 04:55:02 METAR KSQL 271255Z 11003KT 10SM OVC010 15/14 A2994 RMK AO2","FM-15","7",,,,,,,,,,,,,,,,,,,,,,,,,,,,
"72493893231","2020-07-27T05:15:00","FM-15","7",,,,,,,,,,,,,,,,,,,,,,,,,,,,,,,,,,,,,,"29.94","57","59",,,,,"94",,"OVC:08 10","29.93","10.00","58","050",,"5",,,,,,,,,,,,,,,,,,,,,,,,,,,,,,,,,,,,,"MET07607/27/20 05:15:02 METAR KSQL 271315Z 05004KT 10SM OVC010 15/14 A2994 RMK AO2","FM-15","7",,,,,,,,,,,,,,,,,,,,,,,,,,,,
"72493893231","2020-07-27T05:35:00","FM-15","6",,,,,,,,,,,,,,,,,,,,,,,,,,,,,,,,,,,,,,"29.95","57","59",,,,,"94",,"OVC:08 10","29.94","10.00","58","060",,"3",,,,,,,,,,,,,,,,,,,,,,,,,,,,,,,,,,,,,"MET07607/27/20 05:35:02 METAR KSQL 271335Z 06003KT 10SM OVC010 15/14 A2995 RMK AO2","FM-15","6",,,,,,,,,,,,,,,,,,,,,,,,,,,,
"72493893231","2020-07-27T05:55:00","FM-15","6",,,,,,,,,,,,,,,,,,,,,,,,,,,,,,,,,,,,,,"29.96","57","61",,,,,"88",,"OVC:08 10","29.95","10.00","59","000",,"0",,,,,,,,,,,,,,,,,,,,,,,,,,,,,,,,,,,,,"MET07607/27/20 05:55:02 METAR KSQL 271355Z 00000KT 10SM OVC010 16/14 A2996 RMK AO2","FM-15","6",,,,,,,,,,,,,,,,,,,,,,,,,,,,
"72493893231","2020-07-27T06:47:00","FM-15","6",,,,,,,,,,,,,,,,,,,,,,,,,,,,,,,,,,,,,,"29.96","55","61",,,,,"83",,"OVC:08 11","29.95","10.00","58","VRB",,"3",,,,,,,,,,,,,,,,,,,,,,,,,,,,,,,,,,,,,"MET07207/27/20 06:47:02 METAR KSQL 271447Z VRB03KT 10SM OVC011 16/13 A2996 RMK","FM-15","6",,,,,,,,,,,,,,,,,,,,,,,,,,,,
"72493893231","2020-07-27T07:47:00","FM-15","7",,,,,,,,,,,,,,,,,,,,,,,,,,,,,,,,,,,,,,"29.96","57","63",,,,,"83",,"OVC:08 12","29.95","10.00","60","VRB",,"3",,,,,,,,,,,,,,,,,,,,,,,,,,,,,,,,,,,,,"MET07207/27/20 07:47:02 METAR KSQL 271547Z VRB03KT 10SM OVC012 17/14 A2996 RMK","FM-15","7",,,,,,,,,,,,,,,,,,,,,,,,,,,,
"72493893231","2020-07-27T08:47:00","FM-15","7",,,,,,,,,,,,,,,,,,,,,,,,,,,,,,,,,,,,,,"29.96","57","63",,,,,"83",,"OVC:08 14","29.95","10.00","60","VRB",,"3",,,,,,,,,,,,,,,,,,,,,,,,,,,,,,,,,,,,,"MET07207/27/20 08:47:02 METAR KSQL 271647Z VRB03KT 10SM OVC014 17/14 A2996 RMK","FM-15","7",,,,,,,,,,,,,,,,,,,,,,,,,,,,
"72493893231","2020-07-27T09:47:00","FM-15","7",,,,,,,,,,,,,,,,,,,,,,,,,,,,,,,,,,,,,,"29.96","57","66",,,,,"73",,"FEW:02 14","29.95","10.00","61","000",,"0",,,,,,,,,,,,,,,,,,,,,,,,,,,,,,,,,,,,,"MET07207/27/20 09:47:02 METAR KSQL 271747Z 00000KT 10SM FEW014 19/14 A2996 RMK","FM-15","7",,,,,,,,,,,,,,,,,,,,,,,,,,,,
"72493893231","2020-07-27T10:47:00","FM-15","7",,,,,,,,,,,,,,,,,,,,,,,,,,,,,,,,,,,,,,"29.95","59","66",,,,,"78",,"*","29.94","10.00","62","010",,"10",,,,,,,,,,,,,,,,,,,,,,,,,,,,,,,,,,,,,"MET06907/27/20 10:47:02 METAR KSQL 271847Z 01009KT 10SM SKC 19/15 A2995 RMK","FM-15","7",,,,,,,,,,,,,,,,,,,,,,,,,,,,
"72493893231","2020-07-27T11:47:00","FM-15","7",,,,,,,,,,,,,,,,,,,,,,,,,,,,,,,,,,,,,,"29.94","59","70",,,,,"69",,"*","29.93","10.00","63","360",,"10",,,,,,,,,,,,,,,,,,,,,,,,,,,,,,,,,,,,,"MET06907/27/20 11:47:02 METAR KSQL 271947Z 36009KT 10SM SKC 21/15 A2994 RMK","FM-15","7",,,,,,,,,,,,,,,,,,,,,,,,,,,,
"72493893231","2020-07-27T12:47:00","FM-15","7",,,,,,,,,,,,,,,,,,,,,,,,,,,,,,,,,,,,,,"29.93","55","72",,,,,"57",,"*","29.92","10.00","62","350",,"14",,,,,,,,,,,,,,,,,,,,,,,,,,,,,,,,,,,,,"MET06907/27/20 12:47:02 METAR KSQL 272047Z 35012KT 10SM SKC 22/13 A2993 RMK","FM-15","7",,,,,,,,,,,,,,,,,,,,,,,,,,,,
"72493893231","2020-07-27T13:47:00","FM-15","7",,,,,,,,,,,,,,,,,,,,,,,,,,,,,,,,,,,,,,"29.91","59","73",,,,,"61",,"*","29.90","10.00","64","360",,"17",,,,,,,,,,,,,,,,,,,,,,,,,,,,,,,,,,,,,"MET06907/27/20 13:47:02 METAR KSQL 272147Z 36015KT 10SM SKC 23/15 A2991 RMK","FM-15","7",,,,,,,,,,,,,,,,,,,,,,,,,,,,
"72493893231","2020-07-27T14:47:00","FM-15","7",,,,,,,,,,,,,,,,,,,,,,,,,,,,,,,,,,,,,,"29.89","61","72",,,,,"69",,,"29.88","10.00","65","360",,"17",,,,,,,,,,,,,,,,,,,,,,,,,,,,,,,,,,,,,"MET06507/27/20 14:47:02 METAR KSQL 272247Z 36015KT 10SM 22/16 A2989 RMK","FM-15","7",,,,,,,,,,,,,,,,,,,,,,,,,,,,
"72493893231","2020-07-27T16:47:00","FM-15","7",,,,,,,,,,,,,,,,,,,,,,,,,,,,,,,,,,,,,,"29.88","54","75",,,,,"47",,"*","29.87","10.00","63","290",,"10",,,,,,,,,,,,,,,,,,,,,,,,,,,,,,,,,,,,,"MET07207/27/20 16:47:01 METAR KSQL 280047Z 29009KT 10SM SKC 24/12 A2988 RMK DA","FM-15","7",,,,,,,,,,,,,,,,,,,,,,,,,,,,
"72493893231","2020-07-27T17:47:00","FM-15","7",,,,,,,,,,,,,,,,,,,,,,,,,,,,,,,,,,,,,,"29.89","54","68",,,,,"60",,"*","29.88","10.00","60","300",,"13",,,,,,,,,,,,,,,,,,,,,,,,,,,,,,,,,,,,,"MET06907/27/20 17:47:01 METAR KSQL 280147Z 30011KT 10SM SKC 20/12 A2989 RMK","FM-15","7",,,,,,,,,,,,,,,,,,,,,,,,,,,,
"72493893231","2020-07-27T18:47:00","FM-15","7",,,,,,,,,,,,,,,,,,,,,,,,,,,,,,,,,,,,,,"29.90","54","66",,,,,"64",,"SCT:04 8","29.89","10.00","59","300",,"9",,,,,,,,,,,,,,,,,,,,,,,,,,,,,,,,,,,,,"MET07207/27/20 18:47:01 METAR KSQL 280247Z 30008KT 10SM SCT008 19/12 A2990 RMK","FM-15","7",,,,,,,,,,,,,,,,,,,,,,,,,,,,
"72493893231","2020-07-27T19:47:00","FM-15","7",,,,,,,,,,,,,,,,,,,,,,,,,,,,,,,,,,,,,,"29.92","54","63",,,,,"73",,"FEW:02 18","29.91","10.00","58","310",,"7",,,,,,,,,,,,,,,,,,,,,,,,,,,,,,,,,,,,,"MET08007/27/20 19:47:01 METAR KSQL 280347Z 31006KT 10SM FEW018 17/12 A2992 RMK LAST QT","FM-15","7",,,,,,,,,,,,,,,,,,,,,,,,,,,,
"72493893231","2020-07-27T20:15:00","FM-15","7",,,,,,,,,,,,,,,,,,,,,,,,,,,,,,,,,,,,,,"29.93","55","63",,,,,"77",,"CLR:00","29.92","10.00","58","340",,"6",,,,,,,,,,,,,,,,,,,,,,,,,,,,,,,,,,,,,"MET07307/27/20 20:15:01 METAR KSQL 280415Z 34005KT 10SM CLR 17/13 A2993 RMK AO2","FM-15","7",,,,,,,,,,,,,,,,,,,,,,,,,,,,
"72493893231","2020-07-27T20:35:00","FM-15","7",,,,,,,,,,,,,,,,,,,,,,,,,,,,,,,,,,,,,,"29.93","55","63",,,,,"77",,"CLR:00","29.92","10.00","58","330",,"6",,,,,,,,,,,,,,,,,,,,,,,,,,,,,,,,,,,,,"MET07307/27/20 20:35:01 METAR KSQL 280435Z 33005KT 10SM CLR 17/13 A2993 RMK AO2","FM-15","7",,,,,,,,,,,,,,,,,,,,,,,,,,,,
"72493893231","2020-07-27T20:55:00","FM-15","7",,,,,,,,,,,,,,,,,,,,,,,,,,,,,,,,,,,,,,"29.93","54","61",,,,,"77",,"CLR:00","29.92","10.00","57","340",,"5",,,,,,,,,,,,,,,,,,,,,,,,,,,,,,,,,,,,,"MET07307/27/20 20:55:01 METAR KSQL 280455Z 34004KT 10SM CLR 16/12 A2993 RMK AO2","FM-15","7",,,,,,,,,,,,,,,,,,,,,,,,,,,,
"72493893231","2020-07-27T21:15:00","FM-15","7",,,,,,,,,,,,,,,,,,,,,,,,,,,,,,,,,,,,,,"29.93","54","61",,,,,"77",,"CLR:00","29.92","10.00","57","310",,"5",,,,,,,,,,,,,,,,,,,,,,,,,,,,,,,,,,,,,"MET07307/27/20 21:15:01 METAR KSQL 280515Z 31004KT 10SM CLR 16/12 A2993 RMK AO2","FM-15","7",,,,,,,,,,,,,,,,,,,,,,,,,,,,
"72493893231","2020-07-27T21:35:00","FM-15","7",,,,,,,,,,,,,,,,,,,,,,,,,,,,,,,,,,,,,,"29.93","54","63",,,,,"73",,"CLR:00","29.92","10.00","58","310",,"3",,,,,,,,,,,,,,,,,,,,,,,,,,,,,,,,,,,,,"MET07307/27/20 21:35:01 METAR KSQL 280535Z 31003KT 10SM CLR 17/12 A2993 RMK AO2","FM-15","7",,,,,,,,,,,,,,,,,,,,,,,,,,,,
"72493893231","2020-07-27T21:55:00","FM-15","7",,,,,,,,,,,,,,,,,,,,,,,,,,,,,,,,,,,,,,"29.93","54","63",,,,,"73",,"CLR:00","29.92","10.00","58","330",,"3",,,,,,,,,,,,,,,,,,,,,,,,,,,,,,,,,,,,,"MET07307/27/20 21:55:01 METAR KSQL 280555Z 33003KT 10SM CLR 17/12 A2993 RMK AO2","FM-15","7",,,,,,,,,,,,,,,,,,,,,,,,,,,,
"72493893231","2020-07-27T22:15:00","FM-15","7",,,,,,,,,,,,,,,,,,,,,,,,,,,,,,,,,,,,,,"29.93","54","61",,,,,"77",,"CLR:00","29.92","10.00","57","310",,"6",,,,,,,,,,,,,,,,,,,,,,,,,,,,,,,,,,,,,"MET07307/27/20 22:15:01 METAR KSQL 280615Z 31005KT 10SM CLR 16/12 A2993 RMK AO2","FM-15","7",,,,,,,,,,,,,,,,,,,,,,,,,,,,
"72493893231","2020-07-27T22:35:00","FM-15","7",,,,,,,,,,,,,,,,,,,,,,,,,,,,,,,,,,,,,,"29.93","54","61",,,,,"77",,"CLR:00","29.92","10.00","57","310",,"5",,,,,,,,,,,,,,,,,,,,,,,,,,,,,,,,,,,,,"MET07307/27/20 22:35:01 METAR KSQL 280635Z 31004KT 10SM CLR 16/12 A2993 RMK AO2","FM-15","7",,,,,,,,,,,,,,,,,,,,,,,,,,,,
"72493893231","2020-07-27T22:55:00","FM-15","7",,,,,,,,,,,,,,,,,,,,,,,,,,,,,,,,,,,,,,"29.93","54","61",,,,,"77",,"CLR:00","29.92","10.00","57","330",,"3",,,,,,,,,,,,,,,,,,,,,,,,,,,,,,,,,,,,,"MET07307/27/20 22:55:01 METAR KSQL 280655Z 33003KT 10SM CLR 16/12 A2993 RMK AO2","FM-15","7",,,,,,,,,,,,,,,,,,,,,,,,,,,,
"72493893231","2020-07-27T23:15:00","FM-15","7",,,,,,,,,,,,,,,,,,,,,,,,,,,,,,,,,,,,,,"29.93","54","61",,,,,"77",,"CLR:00","29.92","10.00","57","300",,"3",,,,,,,,,,,,,,,,,,,,,,,,,,,,,,,,,,,,,"MET07307/27/20 23:15:01 METAR KSQL 280715Z 30003KT 10SM CLR 16/12 A2993 RMK AO2","FM-15","7",,,,,,,,,,,,,,,,,,,,,,,,,,,,
"72493893231","2020-07-27T23:35:00","FM-15","7",,,,,,,,,,,,,,,,,,,,,,,,,,,,,,,,,,,,,,"29.93","55","61",,,,,"83",,"CLR:00","29.92","10.00","58","000",,"0",,,,,,,,,,,,,,,,,,,,,,,,,,,,,,,,,,,,,"MET07307/27/20 23:35:01 METAR KSQL 280735Z 00000KT 10SM CLR 16/13 A2993 RMK AO2","FM-15","7",,,,,,,,,,,,,,,,,,,,,,,,,,,,
"72493893231","2020-07-27T23:55:00","FM-15","7",,,,,,,,,,,,,,,,,,,,,,,,,,,,,,,,,,,,,,"29.93","54","59",,,,,"82",,"CLR:00","29.92","10.00","56","320",,"3",,,,,,,,,,,,,,,,,,,,,,,,,,,,,,,,,,,,,"MET07307/27/20 23:55:01 METAR KSQL 280755Z 32003KT 10SM CLR 15/12 A2993 RMK AO2","FM-15","7",,,,,,,,,,,,,,,,,,,,,,,,,,,,
"72493893231","2020-07-28T00:15:00","FM-15","7",,,,,,,,,,,,,,,,,,,,,,,,,,,,,,,,,,,,,,"29.93","54","59",,,,,"82",,"CLR:00","29.92","10.00","56","300",,"3",,,,,,,,,,,,,,,,,,,,,,,,,,,,,,,,,,,,,"MET07307/28/20 00:15:01 METAR KSQL 280815Z 30003KT 10SM CLR 15/12 A2993 RMK AO2","FM-15","7",,,,,,,,,,,,,,,,,,,,,,,,,,,,
"72493893231","2020-07-28T00:35:00","FM-15","7",,,,,,,,,,,,,,,,,,,,,,,,,,,,,,,,,,,,,,"29.93","54","59",,,,,"82",,"SCT:04 12","29.92","10.00","56","310",,"3",,,,,,,,,,,,,,,,,,,,,,,,,,,,,,,,,,,,,"MET07607/28/20 00:35:01 METAR KSQL 280835Z 31003KT 10SM SCT012 15/12 A2993 RMK AO2","FM-15","7",,,,,,,,,,,,,,,,,,,,,,,,,,,,
"72493893231","2020-07-28T00:55:00","FM-15","7",,,,,,,,,,,,,,,,,,,,,,,,,,,,,,,,,,,,,,"29.92","54","59",,,,,"82",,"BKN:07 12","29.91","10.00","56","310",,"6",,,,,,,,,,,,,,,,,,,,,,,,,,,,,,,,,,,,,"MET07607/28/20 00:55:01 METAR KSQL 280855Z 31005KT 10SM BKN012 15/12 A2992 RMK AO2","FM-15","7",,,,,,,,,,,,,,,,,,,,,,,,,,,,
"72493893231","2020-07-28T01:15:00","FM-15","7",,,,,,,,,,,,,,,,,,,,,,,,,,,,,,,,,,,,,,"29.92","55","59",,,,,"88",,"SCT:04 12","29.91","10.00","57","310",,"6",,,,,,,,,,,,,,,,,,,,,,,,,,,,,,,,,,,,,"MET07607/28/20 01:15:01 METAR KSQL 280915Z 31005KT 10SM SCT012 15/13 A2992 RMK AO2","FM-15","7",,,,,,,,,,,,,,,,,,,,,,,,,,,,
"72493893231","2020-07-28T01:35:00","FM-15","7",,,,,,,,,,,,,,,,,,,,,,,,,,,,,,,,,,,,,,"29.92","55","59",,,,,"88",,"BKN:07 12","29.91","10.00","57","310",,"6",,,,,,,,,,,,,,,,,,,,,,,,,,,,,,,,,,,,,"MET07607/28/20 01:35:01 METAR KSQL 280935Z 31005KT 10SM BKN012 15/13 A2992 RMK AO2","FM-15","7",,,,,,,,,,,,,,,,,,,,,,,,,,,,
"72493893231","2020-07-28T01:55:00","FM-15","7",,,,,,,,,,,,,,,,,,,,,,,,,,,,,,,,,,,,,,"29.92","55","59",,,,,"88",,"OVC:08 12","29.91","10.00","57","290",,"5",,,,,,,,,,,,,,,,,,,,,,,,,,,,,,,,,,,,,"MET07607/28/20 01:55:01 METAR KSQL 280955Z 29004KT 10SM OVC012 15/13 A2992 RMK AO2","FM-15","7",,,,,,,,,,,,,,,,,,,,,,,,,,,,
"72493893231","2020-07-28T02:15:00","FM-15","7",,,,,,,,,,,,,,,,,,,,,,,,,,,,,,,,,,,,,,"29.92","55","59",,,,,"88",,"OVC:08 12","29.91","10.00","57","330",,"3",,,,,,,,,,,,,,,,,,,,,,,,,,,,,,,,,,,,,"MET07607/28/20 02:15:01 METAR KSQL 281015Z 33003KT 10SM OVC012 15/13 A2992 RMK AO2","FM-15","7",,,,,,,,,,,,,,,,,,,,,,,,,,,,
"72493893231","2020-07-28T02:35:00","FM-15","7",,,,,,,,,,,,,,,,,,,,,,,,,,,,,,,,,,,,,,"29.91","55","59",,,,,"88",,"OVC:08 12","29.90","10.00","57","360",,"5",,,,,,,,,,,,,,,,,,,,,,,,,,,,,,,,,,,,,"MET07607/28/20 02:35:01 METAR KSQL 281035Z 36004KT 10SM OVC012 15/13 A2991 RMK AO2","FM-15","7",,,,,,,,,,,,,,,,,,,,,,,,,,,,
"72493893231","2020-07-28T02:55:00","FM-15","7",,,,,,,,,,,,,,,,,,,,,,,,,,,,,,,,,,,,,,"29.91","55","59",,,,,"88",,"OVC:08 12","29.90","10.00","57","000",,"0",,,,,,,,,,,,,,,,,,,,,,,,,,,,,,,,,,,,,"MET07607/28/20 02:55:01 METAR KSQL 281055Z 00000KT 10SM OVC012 15/13 A2991 RMK AO2","FM-15","7",,,,,,,,,,,,,,,,,,,,,,,,,,,,
"72493893231","2020-07-28T03:15:00","FM-15","7",,,,,,,,,,,,,,,,,,,,,,,,,,,,,,,,,,,,,,"29.91","55","59",,,,,"88",,"OVC:08 12","29.90","10.00","57","360",,"5",,,,,,,,,,,,,,,,,,,,,,,,,,,,,,,,,,,,,"MET07607/28/20 03:15:02 METAR KSQL 281115Z 36004KT 10SM OVC012 15/13 A2991 RMK AO2","FM-15","7",,,,,,,,,,,,,,,,,,,,,,,,,,,,
"72493893231","2020-07-28T03:35:00","FM-15","7",,,,,,,,,,,,,,,,,,,,,,,,,,,,,,,,,,,,,,"29.91","55","59",,,,,"88",,"OVC:08 12","29.90","10.00","57","340",,"5",,,,,,,,,,,,,,,,,,,,,,,,,,,,,,,,,,,,,"MET07607/28/20 03:35:02 METAR KSQL 281135Z 34004KT 10SM OVC012 15/13 A2991 RMK AO2","FM-15","7",,,,,,,,,,,,,,,,,,,,,,,,,,,,
"72493893231","2020-07-28T03:55:00","FM-15","7",,,,,,,,,,,,,,,,,,,,,,,,,,,,,,,,,,,,,,"29.92","55","59",,,,,"88",,"OVC:08 12","29.91","10.00","57","320",,"6",,,,,,,,,,,,,,,,,,,,,,,,,,,,,,,,,,,,,"MET07607/28/20 03:55:02 METAR KSQL 281155Z 32005KT 10SM OVC012 15/13 A2992 RMK AO2","FM-15","7",,,,,,,,,,,,,,,,,,,,,,,,,,,,
"72493893231","2020-07-28T04:15:00","FM-15","7",,,,,,,,,,,,,,,,,,,,,,,,,,,,,,,,,,,,,,"29.92","55","59",,,,,"88",,"OVC:08 12","29.91","10.00","57","340",,"5",,,,,,,,,,,,,,,,,,,,,,,,,,,,,,,,,,,,,"MET07607/28/20 04:15:02 METAR KSQL 281215Z 34004KT 10SM OVC012 15/13 A2992 RMK AO2","FM-15","7",,,,,,,,,,,,,,,,,,,,,,,,,,,,
"72493893231","2020-07-28T04:35:00","FM-15","7",,,,,,,,,,,,,,,,,,,,,,,,,,,,,,,,,,,,,,"29.93","55","59",,,,,"88",,"OVC:08 12","29.92","10.00","57","000",,"0",,,,,,,,,,,,,,,,,,,,,,,,,,,,,,,,,,,,,"MET07607/28/20 04:35:02 METAR KSQL 281235Z 00000KT 10SM OVC012 15/13 A2993 RMK AO2","FM-15","7",,,,,,,,,,,,,,,,,,,,,,,,,,,,
"72493893231","2020-07-28T04:55:00","FM-15","7",,,,,,,,,,,,,,,,,,,,,,,,,,,,,,,,,,,,,,"29.93","55","59",,,,,"88",,"OVC:08 12","29.92","10.00","57","000",,"0",,,,,,,,,,,,,,,,,,,,,,,,,,,,,,,,,,,,,"MET07607/28/20 04:55:02 METAR KSQL 281255Z 00000KT 10SM OVC012 15/13 A2993 RMK AO2","FM-15","7",,,,,,,,,,,,,,,,,,,,,,,,,,,,
"72493893231","2020-07-28T05:15:00","FM-15","7",,,,,,,,,,,,,,,,,,,,,,,,,,,,,,,,,,,,,,"29.93","55","59",,,,,"88",,"OVC:08 12","29.92","10.00","57","000",,"0",,,,,,,,,,,,,,,,,,,,,,,,,,,,,,,,,,,,,"MET07607/28/20 05:15:02 METAR KSQL 281315Z 00000KT 10SM OVC012 15/13 A2993 RMK AO2","FM-15","7",,,,,,,,,,,,,,,,,,,,,,,,,,,,
"72493893231","2020-07-28T05:35:00","FM-15","7",,,,,,,,,,,,,,,,,,,,,,,,,,,,,,,,,,,,,,"29.93","55","59",,,,,"88",,"OVC:08 12","29.92","10.00","57","000",,"0",,,,,,,,,,,,,,,,,,,,,,,,,,,,,,,,,,,,,"MET07607/28/20 05:35:01 METAR KSQL 281335Z 00000KT 10SM OVC012 15/13 A2993 RMK AO2","FM-15","7",,,,,,,,,,,,,,,,,,,,,,,,,,,,
"72493893231","2020-07-28T05:47:00","FM-15","4",,,,,,,,,,,,,,,,,,,,,,,,,,,,,,,,,,,,,,"29.93","55","61",,,,,"83",,,,"10.00",,"000",,"0",,,,,,,,,,,,,,,,,,,,,,,,,,,,,,,,,,,,,"MET051METAR KSQL 281347Z 00000KT 10SM OVC012 16/13 A2993=","FM-15","4",,,,,,,,,,,,,,,,,,,,,,,,,,,,
"72493893231","2020-07-28T05:55:00","FM-15","7",,,,,,,,,,,,,,,,,,,,,,,,,,,,,,,,,,,,,,"29.93","55","61",,,,,"83",,"OVC:08 12","29.92","10.00","58","000",,"0",,,,,,,,,,,,,,,,,,,,,,,,,,,,,,,,,,,,,"MET07607/28/20 05:55:01 METAR KSQL 281355Z 00000KT 10SM OVC012 16/13 A2993 RMK AO2","FM-15","7",,,,,,,,,,,,,,,,,,,,,,,,,,,,
"72493893231","2020-07-28T06:47:00","FM-15","7",,,,,,,,,,,,,,,,,,,,,,,,,,,,,,,,,,,,,,"29.95","54","59",,,,,"82",,"OVC:08 12","29.94","10.00","56","310",,"5",,,,,,,,,,,,,,,,,,,,,,,,,,,,,,,,,,,,,"MET07207/28/20 06:47:01 METAR KSQL 281447Z 31004KT 10SM OVC012 15/12 A2995 RMK","FM-15","7",,,,,,,,,,,,,,,,,,,,,,,,,,,,
"72493893231","2020-07-28T07:47:00","FM-15","7",,,,,,,,,,,,,,,,,,,,,,,,,,,,,,,,,,,,,,"29.96","55","63",,,,,"77",,"OVC:08 14","29.95","10.00","58","010",,"3",,,,,,,,,,,,,,,,,,,,,,,,,,,,,,,,,,,,,"MET07207/28/20 07:47:01 METAR KSQL 281547Z 01003KT 10SM OVC014 17/13 A2996 RMK","FM-15","7",,,,,,,,,,,,,,,,,,,,,,,,,,,,
"72493893231","2020-07-28T08:47:00","FM-15","7",,,,,,,,,,,,,,,,,,,,,,,,,,,,,,,,,,,,,,"29.95","55","64",,,,,"73",,"SCT:04 20 SCT:04 200","29.94","10.00","59",,,,,,,,,,,,,,,,,,,,,,,,,,,,,,,,,,,,,,,,"MET07907/28/20 08:47:01 METAR KSQL 281647Z      KT 10SM SCT020 SCT200 18/13 A2995 RMK","FM-15","7",,,,,,,,,,,,,,,,,,,,,,,,,,,,
"72493893231","2020-07-28T09:47:00","FM-15","7",,,,,,,,,,,,,,,,,,,,,,,,,,,,,,,,,,,,,,"29.95","57","64",,,,,"78",,"SCT:04 20","29.94","10.00","60","360",,"7",,,,,,,,,,,,,,,,,,,,,,,,,,,,,,,,,,,,,"MET07207/28/20 09:47:01 METAR KSQL 281747Z 36006KT 10SM SCT020 18/14 A2995 RMK","FM-15","7",,,,,,,,,,,,,,,,,,,,,,,,,,,,
"72493893231","2020-07-28T10:47:00","FM-15","7",,,,,,,,,,,,,,,,,,,,,,,,,,,,,,,,,,,,,,"29.95","57","64",,,,,"78",,"SCT:04 20","29.94","10.00","60","010",,"8",,,,,,,,,,,,,,,,,,,,,,,,,,,,,,,,,,,,,"MET07207/28/20 10:47:01 METAR KSQL 281847Z 01007KT 10SM SCT020 18/14 A2995 RMK","FM-15","7",,,,,,,,,,,,,,,,,,,,,,,,,,,,
"72493893231","2020-07-28T11:47:00","FM-15","7",,,,,,,,,,,,,,,,,,,,,,,,,,,,,,,,,,,,,,"29.94","57","66",,,,,"73",,"*","29.93","10.00","61","320",,"8",,,,,,,,,,,,,,,,,,,,,,,,,,,,,,,,,,,,,"MET06907/28/20 11:47:01 METAR KSQL 281947Z 32007KT 10SM SKC 19/14 A2994 RMK","FM-15","7",,,,,,,,,,,,,,,,,,,,,,,,,,,,
"72493893231","2020-07-28T12:51:00","FM-15","7",,,,,,,,,,,,,,,,,,,,,,,,,,,,,,,,,,,,,,"29.92","57","68",,,,,"69",,"*","29.91","10.00","62","350",,"10",,,,,,,,,,,,,,,,,,,,,,,,,,,,,,,,,,,,,"MET06907/28/20 12:51:01 METAR KSQL 282051Z 35009KT 10SM SKC 20/14 A2992 RMK","FM-15","7",,,,,,,,,,,,,,,,,,,,,,,,,,,,
"72493893231","2020-07-28T13:47:00","FM-15","7",,,,,,,,,,,,,,,,,,,,,,,,,,,,,,,,,,,,,,"29.91","59","72",,,,,"65",,"*","29.90","10.00","64","360",,"13",,,,,,,,,,,,,,,,,,,,,,,,,,,,,,,,,,,,,"MET06907/28/20 13:47:01 METAR KSQL 282147Z 36011KT 10SM SKC 22/15 A2991 RMK","FM-15","7",,,,,,,,,,,,,,,,,,,,,,,,,,,,
"72493893231","2020-07-28T14:47:00","FM-15","7",,,,,,,,,,,,,,,,,,,,,,,,,,,,,,,,,,,,,,"29.89","55","72",,,,,"57",,"*","29.88","10.00","62","340",,"10",,,,,,,,,,,,,,,,,,,,,,,,,,,,,,,,,,,,,"MET06907/28/20 14:47:01 METAR KSQL 282247Z 34009KT 10SM SKC 22/13 A2989 RMK","FM-15","7",,,,,,,,,,,,,,,,,,,,,,,,,,,,
"72493893231","2020-07-28T15:47:00","FM-15","7",,,,,,,,,,,,,,,,,,,,,,,,,,,,,,,,,,,,,,"29.88","59","72",,,,,"65",,"*","29.87","10.00","64","360",,"13",,,,,,,,,,,,,,,,,,,,,,,,,,,,,,,,,,,,,"MET06907/28/20 15:47:02 METAR KSQL 282347Z 36011KT 10SM SKC 22/15 A2988 RMK","FM-15","7",,,,,,,,,,,,,,,,,,,,,,,,,,,,
"72493893231","2020-07-28T16:47:00","FM-15","7",,,,,,,,,,,,,,,,,,,,,,,,,,,,,,,,,,,,,,"29.87","57","73",,,,,"57",,,"29.86","10.00","63","350",,"9",,,,,,,,,,,,,,,,,,,,,,,,,,,,,,,,,,,,,"MET06507/28/20 16:47:01 METAR KSQL 290047Z 35008KT 10SM 23/14 A2987 RMK","FM-15","7",,,,,,,,,,,,,,,,,,,,,,,,,,,,
"72493893231","2020-07-28T17:47:00","FM-15","7",,,,,,,,,,,,,,,,,,,,,,,,,,,,,,,,,,,,,,"29.87","57","70",,,,,"64",,"*","29.86","10.00","62","330",,"9",,,,,,,,,,,,,,,,,,,,,,,,,,,,,,,,,,,,,"MET06907/28/20 17:47:01 METAR KSQL 290147Z 33008KT 10SM SKC 21/14 A2987 RMK","FM-15","7",,,,,,,,,,,,,,,,,,,,,,,,,,,,
"72493893231","2020-07-28T18:47:00","FM-15","7",,,,,,,,,,,,,,,,,,,,,,,,,,,,,,,,,,,,,,"29.87","55","66",,,,,"68",,"*","29.86","10.00","60","320",,"6",,,,,,,,,,,,,,,,,,,,,,,,,,,,,,,,,,,,,"MET06907/28/20 18:47:01 METAR KSQL 290247Z 32005KT 10SM SKC 19/13 A2987 RMK","FM-15","7",,,,,,,,,,,,,,,,,,,,,,,,,,,,
"72493893231","2020-07-28T19:47:00","FM-15","7",,,,,,,,,,,,,,,,,,,,,,,,,,,,,,,,,,,,,,"29.88","57","63",,,,,"83",,"*","29.87","10.00","60","330",,"6",,,,,,,,,,,,,,,,,,,,,,,,,,,,,,,,,,,,,"MET06907/28/20 19:47:02 METAR KSQL 290347Z 33005KT 10SM SKC 17/14 A2988 RMK","FM-15","7",,,,,,,,,,,,,,,,,,,,,,,,,,,,
"72493893231","2020-07-28T20:15:00","FM-15","7",,,,,,,,,,,,,,,,,,,,,,,,,,,,,,,,,,,,,,"29.89","55","63",,,,,"77",,"CLR:00","29.88","10.00","58","330",,"5",,,,,,,,,,,,,,,,,,,,,,,,,,,,,,,,,,,,,"MET07307/28/20 20:15:02 METAR KSQL 290415Z 33004KT 10SM CLR 17/13 A2989 RMK AO2","FM-15","7",,,,,,,,,,,,,,,,,,,,,,,,,,,,
"72493893231","2020-07-28T20:35:00","FM-15","7",,,,,,,,,,,,,,,,,,,,,,,,,,,,,,,,,,,,,,"29.90","55","63",,,,,"77",,"CLR:00","29.89","10.00","58","330",,"6",,,,,,,,,,,,,,,,,,,,,,,,,,,,,,,,,,,,,"MET07307/28/20 20:35:02 METAR KSQL 290435Z 33005KT 10SM CLR 17/13 A2990 RMK AO2","FM-15","7",,,,,,,,,,,,,,,,,,,,,,,,,,,,
"72493893231","2020-07-28T20:55:00","FM-15","7",,,,,,,,,,,,,,,,,,,,,,,,,,,,,,,,,,,,,,"29.90","55","63",,,,,"77",,"CLR:00","29.89","10.00","58","320",,"8",,,,,,,,,,,,,,,,,,,,,,,,,,,,,,,,,,,,,"MET07307/28/20 20:55:02 METAR KSQL 290455Z 32007KT 10SM CLR 17/13 A2990 RMK AO2","FM-15","7",,,,,,,,,,,,,,,,,,,,,,,,,,,,
"72493893231","2020-07-28T21:15:00","FM-15","7",,,,,,,,,,,,,,,,,,,,,,,,,,,,,,,,,,,,,,"29.90","54","63",,,,,"73",,"CLR:00","29.89","10.00","58","330",,"6",,,,,,,,,,,,,,,,,,,,,,,,,,,,,,,,,,,,,"MET07307/28/20 21:15:02 METAR KSQL 290515Z 33005KT 10SM CLR 17/12 A2990 RMK AO2","FM-15","7",,,,,,,,,,,,,,,,,,,,,,,,,,,,
"72493893231","2020-07-28T21:35:00","FM-15","7",,,,,,,,,,,,,,,,,,,,,,,,,,,,,,,,,,,,,,"29.91","54","61",,,,,"77",,"CLR:00","29.90","10.00","57","350",,"5",,,,,,,,,,,,,,,,,,,,,,,,,,,,,,,,,,,,,"MET07307/28/20 21:35:02 METAR KSQL 290535Z 35004KT 10SM CLR 16/12 A2991 RMK AO2","FM-15","7",,,,,,,,,,,,,,,,,,,,,,,,,,,,
"72493893231","2020-07-28T21:55:00","FM-15","7",,,,,,,,,,,,,,,,,,,,,,,,,,,,,,,,,,,,,,"29.91","55","59",,,,,"88",,"CLR:00","29.90","10.00","57","350",,"3",,,,,,,,,,,,,,,,,,,,,,,,,,,,,,,,,,,,,"MET07307/28/20 21:55:02 METAR KSQL 290555Z 35003KT 10SM CLR 15/13 A2991 RMK AO2","FM-15","7",,,,,,,,,,,,,,,,,,,,,,,,,,,,
"72493893231","2020-07-28T22:15:00","FM-15","7",,,,,,,,,,,,,,,,,,,,,,,,,,,,,,,,,,,,,,"29.91","55","59",,,,,"88",,"CLR:00","29.90","10.00","57","360",,"3",,,,,,,,,,,,,,,,,,,,,,,,,,,,,,,,,,,,,"MET07307/28/20 22:15:02 METAR KSQL 290615Z 36003KT 10SM CLR 15/13 A2991 RMK AO2","FM-15","7",,,,,,,,,,,,,,,,,,,,,,,,,,,,
"72493893231","2020-07-28T22:35:00","FM-15","7",,,,,,,,,,,,,,,,,,,,,,,,,,,,,,,,,,,,,,"29.90","55","59",,,,,"88",,"CLR:00","29.89","10.00","57","360",,"3",,,,,,,,,,,,,,,,,,,,,,,,,,,,,,,,,,,,,"MET07307/28/20 22:35:02 METAR KSQL 290635Z 36003KT 10SM CLR 15/13 A2990 RMK AO2","FM-15","7",,,,,,,,,,,,,,,,,,,,,,,,,,,,
"72493893231","2020-07-28T22:55:00","FM-15","7",,,,,,,,,,,,,,,,,,,,,,,,,,,,,,,,,,,,,,"29.90","55","59",,,,,"88",,"CLR:00","29.89","10.00","57","000",,"0",,,,,,,,,,,,,,,,,,,,,,,,,,,,,,,,,,,,,"MET07307/28/20 22:55:02 METAR KSQL 290655Z 00000KT 10SM CLR 15/13 A2990 RMK AO2","FM-15","7",,,,,,,,,,,,,,,,,,,,,,,,,,,,
"72493893231","2020-07-28T23:15:00","FM-15","7",,,,,,,,,,,,,,,,,,,,,,,,,,,,,,,,,,,,,,"29.90","55","59",,,,,"88",,"CLR:00","29.89","10.00","57","000",,"0",,,,,,,,,,,,,,,,,,,,,,,,,,,,,,,,,,,,,"MET07307/28/20 23:15:02 METAR KSQL 290715Z 00000KT 10SM CLR 15/13 A2990 RMK AO2","FM-15","7",,,,,,,,,,,,,,,,,,,,,,,,,,,,
"72493893231","2020-07-28T23:35:00","FM-15","7",,,,,,,,,,,,,,,,,,,,,,,,,,,,,,,,,,,,,,"29.90","55","59",,,,,"88",,"CLR:00","29.89","10.00","57","000",,"0",,,,,,,,,,,,,,,,,,,,,,,,,,,,,,,,,,,,,"MET07307/28/20 23:35:02 METAR KSQL 290735Z 00000KT 10SM CLR 15/13 A2990 RMK AO2","FM-15","7",,,,,,,,,,,,,,,,,,,,,,,,,,,,
"72493893231","2020-07-28T23:55:00","FM-15","7",,,,,,,,,,,,,,,,,,,,,,,,,,,,,,,,,,,,,,"29.90","55","59",,,,,"88",,"CLR:00","29.89","10.00","57","330",,"3",,,,,,,,,,,,,,,,,,,,,,,,,,,,,,,,,,,,,"MET07307/28/20 23:55:02 METAR KSQL 290755Z 33003KT 10SM CLR 15/13 A2990 RMK AO2","FM-15","7",,,,,,,,,,,,,,,,,,,,,,,,,,,,
"72493893231","2020-07-29T00:15:00","FM-15","7",,,,,,,,,,,,,,,,,,,,,,,,,,,,,,,,,,,,,,"29.90","55","59",,,,,"88",,"CLR:00","29.89","10.00","57","310",,"3",,,,,,,,,,,,,,,,,,,,,,,,,,,,,,,,,,,,,"MET07307/29/20 00:15:02 METAR KSQL 290815Z 31003KT 10SM CLR 15/13 A2990 RMK AO2","FM-15","7",,,,,,,,,,,,,,,,,,,,,,,,,,,,
"72493893231","2020-07-29T00:35:00","FM-15","7",,,,,,,,,,,,,,,,,,,,,,,,,,,,,,,,,,,,,,"29.89","55","59",,,,,"88",,"CLR:00","29.88","10.00","57","340",,"5",,,,,,,,,,,,,,,,,,,,,,,,,,,,,,,,,,,,,"MET07307/29/20 00:35:02 METAR KSQL 290835Z 34004KT 10SM CLR 15/13 A2989 RMK AO2","FM-15","7",,,,,,,,,,,,,,,,,,,,,,,,,,,,
"72493893231","2020-07-29T00:55:00","FM-15","7",,,,,,,,,,,,,,,,,,,,,,,,,,,,,,,,,,,,,,"29.89","55","59",,,,,"88",,"BKN:07 11","29.88","10.00","57","310",,"5",,,,,,,,,,,,,,,,,,,,,,,,,,,,,,,,,,,,,"MET07607/29/20 00:55:02 METAR KSQL 290855Z 31004KT 10SM BKN011 15/13 A2989 RMK AO2","FM-15","7",,,,,,,,,,,,,,,,,,,,,,,,,,,,
"72493893231","2020-07-29T01:15:00","FM-15","7",,,,,,,,,,,,,,,,,,,,,,,,,,,,,,,,,,,,,,"29.89","55","59",,,,,"88",,"OVC:08 11","29.88","10.00","57","320",,"5",,,,,,,,,,,,,,,,,,,,,,,,,,,,,,,,,,,,,"MET07607/29/20 01:15:02 METAR KSQL 290915Z 32004KT 10SM OVC011 15/13 A2989 RMK AO2","FM-15","7",,,,,,,,,,,,,,,,,,,,,,,,,,,,
"72493893231","2020-07-29T01:35:00","FM-15","7",,,,,,,,,,,,,,,,,,,,,,,,,,,,,,,,,,,,,,"29.90","55","59",,,,,"88",,"OVC:08 9","29.89","10.00","57","340",,"5",,,,,,,,,,,,,,,,,,,,,,,,,,,,,,,,,,,,,"MET07607/29/20 01:35:02 METAR KSQL 290935Z 34004KT 10SM OVC009 15/13 A2990 RMK AO2","FM-15","7",,,,,,,,,,,,,,,,,,,,,,,,,,,,
"72493893231","2020-07-29T01:55:00","FM-15","7",,,,,,,,,,,,,,,,,,,,,,,,,,,,,,,,,,,,,,"29.89","55","59",,,,,"88",,"OVC:08 7","29.88","10.00","57","000",,"0",,,,,,,,,,,,,,,,,,,,,,,,,,,,,,,,,,,,,"MET07607/29/20 01:55:02 METAR KSQL 290955Z 00000KT 10SM OVC007 15/13 A2989 RMK AO2","FM-15","7",,,,,,,,,,,,,,,,,,,,,,,,,,,,
"72493893231","2020-07-29T02:15:00","FM-15","7",,,,,,,,,,,,,,,,,,,,,,,,,,,,,,,,,,,,,,"29.90","57","59",,,,,"94",,"OVC:08 7","29.89","10.00","58","170",,"5",,,,,,,,,,,,,,,,,,,,,,,,,,,,,,,,,,,,,"MET07607/29/20 02:15:02 METAR KSQL 291015Z 17004KT 10SM OVC007 15/14 A2990 RMK AO2","FM-15","7",,,,,,,,,,,,,,,,,,,,,,,,,,,,
"72493893231","2020-07-29T02:35:00","FM-15","7",,,,,,,,,,,,,,,,,,,,,,,,,,,,,,,,,,,,,,"29.90","57","59",,,,,"94",,"OVC:08 7","29.89","10.00","58","000",,"0",,,,,,,,,,,,,,,,,,,,,,,,,,,,,,,,,,,,,"MET07607/29/20 02:35:02 METAR KSQL 291035Z 00000KT 10SM OVC007 15/14 A2990 RMK AO2","FM-15","7",,,,,,,,,,,,,,,,,,,,,,,,,,,,
"72493893231","2020-07-29T02:55:00","FM-15","7",,,,,,,,,,,,,,,,,,,,,,,,,,,,,,,,,,,,,,"29.90","57","59",,,,,"94",,"OVC:08 7","29.89","10.00","58","000",,"0",,,,,,,,,,,,,,,,,,,,,,,,,,,,,,,,,,,,,"MET07607/29/20 02:55:02 METAR KSQL 291055Z 00000KT 10SM OVC007 15/14 A2990 RMK AO2","FM-15","7",,,,,,,,,,,,,,,,,,,,,,,,,,,,
"72493893231","2020-07-29T03:15:00","FM-15","7",,,,,,,,,,,,,,,,,,,,,,,,,,,,,,,,,,,,,,"29.90","57","59",,,,,"94",,"OVC:08 7","29.89","10.00","58","000",,"0",,,,,,,,,,,,,,,,,,,,,,,,,,,,,,,,,,,,,"MET07607/29/20 03:15:02 METAR KSQL 291115Z 00000KT 10SM OVC007 15/14 A2990 RMK AO2","FM-15","7",,,,,,,,,,,,,,,,,,,,,,,,,,,,
"72493893231","2020-07-29T03:35:00","FM-15","7",,,,,,,,,,,,,,,,,,,,,,,,,,,,,,,,,,,,,,"29.90","57","59",,,,,"94",,"OVC:08 7","29.89","10.00","58","060",,"5",,,,,,,,,,,,,,,,,,,,,,,,,,,,,,,,,,,,,"MET07607/29/20 03:35:02 METAR KSQL 291135Z 06004KT 10SM OVC007 15/14 A2990 RMK AO2","FM-15","7",,,,,,,,,,,,,,,,,,,,,,,,,,,,
"72493893231","2020-07-29T03:55:00","FM-15","7",,,,,,,,,,,,,,,,,,,,,,,,,,,,,,,,,,,,,,"29.90","57","59",,,,,"94",,"OVC:08 7","29.89","10.00","58","350",,"3",,,,,,,,,,,,,,,,,,,,,,,,,,,,,,,,,,,,,"MET07607/29/20 03:55:02 METAR KSQL 291155Z 35003KT 10SM OVC007 15/14 A2990 RMK AO2","FM-15","7",,,,,,,,,,,,,,,,,,,,,,,,,,,,
"72493893231","2020-07-29T04:15:00","FM-15","7",,,,,,,,,,,,,,,,,,,,,,,,,,,,,,,,,,,,,,"29.90","55","59",,,,,"88",,"OVC:08 7","29.89","10.00","57","010",,"5",,,,,,,,,,,,,,,,,,,,,,,,,,,,,,,,,,,,,"MET07607/29/20 04:15:02 METAR KSQL 291215Z 01004KT 10SM OVC007 15/13 A2990 RMK AO2","FM-15","7",,,,,,,,,,,,,,,,,,,,,,,,,,,,
"72493893231","2020-07-29T04:35:00","FM-15","7",,,,,,,,,,,,,,,,,,,,,,,,,,,,,,,,,,,,,,"29.91","55","59",,,,,"88",,"OVC:08 7","29.90","10.00","57","340",,"5",,,,,,,,,,,,,,,,,,,,,,,,,,,,,,,,,,,,,"MET07607/29/20 04:35:02 METAR KSQL 291235Z 34004KT 10SM OVC007 15/13 A2991 RMK AO2","FM-15","7",,,,,,,,,,,,,,,,,,,,,,,,,,,,
"72493893231","2020-07-29T04:55:00","FM-15","7",,,,,,,,,,,,,,,,,,,,,,,,,,,,,,,,,,,,,,"29.91","55","59",,,,,"88",,"OVC:08 7","29.90","10.00","57","340",,"5",,,,,,,,,,,,,,,,,,,,,,,,,,,,,,,,,,,,,"MET07607/29/20 04:55:02 METAR KSQL 291255Z 34004KT 10SM OVC007 15/13 A2991 RMK AO2","FM-15","7",,,,,,,,,,,,,,,,,,,,,,,,,,,,
"72493893231","2020-07-29T05:15:00","FM-15","7",,,,,,,,,,,,,,,,,,,,,,,,,,,,,,,,,,,,,,"29.91","55","59",,,,,"88",,"OVC:08 9","29.90","10.00","57","360",,"3",,,,,,,,,,,,,,,,,,,,,,,,,,,,,,,,,,,,,"MET07607/29/20 05:15:02 METAR KSQL 291315Z 36003KT 10SM OVC009 15/13 A2991 RMK AO2","FM-15","7",,,,,,,,,,,,,,,,,,,,,,,,,,,,
"72493893231","2020-07-29T05:35:00","FM-15","7",,,,,,,,,,,,,,,,,,,,,,,,,,,,,,,,,,,,,,"29.92","55","59",,,,,"88",,"OVC:08 9","29.91","10.00","57","010",,"5",,,,,,,,,,,,,,,,,,,,,,,,,,,,,,,,,,,,,"MET07607/29/20 05:35:02 METAR KSQL 291335Z 01004KT 10SM OVC009 15/13 A2992 RMK AO2","FM-15","7",,,,,,,,,,,,,,,,,,,,,,,,,,,,
"72493893231","2020-07-29T05:47:00","FM-15","4",,,,,,,,,,,,,,,,,,,,,,,,,,,,,,,,,,,,,,"29.92","55","59",,,,,"88",,,,"10.00",,"330",,"3",,,,,,,,,,,,,,,,,,,,,,,,,,,,,,,,,,,,,"MET051METAR KSQL 291347Z 33003KT 10SM OVC009 15/13 A2992=","FM-15","4",,,,,,,,,,,,,,,,,,,,,,,,,,,,
"72493893231","2020-07-29T05:55:00","FM-15","7",,,,,,,,,,,,,,,,,,,,,,,,,,,,,,,,,,,,,,"29.92","55","59",,,,,"88",,"OVC:08 9","29.91","10.00","57","360",,"3",,,,,,,,,,,,,,,,,,,,,,,,,,,,,,,,,,,,,"MET07607/29/20 05:55:02 METAR KSQL 291355Z 36003KT 10SM OVC009 15/13 A2992 RMK AO2","FM-15","7",,,,,,,,,,,,,,,,,,,,,,,,,,,,
"72493893231","2020-07-29T06:47:00","FM-15","7",,,,,,,,,,,,,,,,,,,,,,,,,,,,,,,,,,,,,,"29.94","55","59",,,,,"88",,"OVC:08 9","29.93","10.00","57","000",,"0",,,,,,,,,,,,,,,,,,,,,,,,,,,,,,,,,,,,,"MET07207/29/20 06:47:02 METAR KSQL 291447Z 00000KT 10SM OVC009 15/13 A2994 RMK","FM-15","7",,,,,,,,,,,,,,,,,,,,,,,,,,,,
"72493893231","2020-07-29T07:47:00","FM-15","7",,,,,,,,,,,,,,,,,,,,,,,,,,,,,,,,,,,,,,"29.95","57","61",,,,,"88",,"OVC:08 11","29.94","10.00","59","020",,"5",,,,,,,,,,,,,,,,,,,,,,,,,,,,,,,,,,,,,"MET07207/29/20 07:47:02 METAR KSQL 291547Z 02004KT 10SM OVC011 16/14 A2995 RMK","FM-15","7",,,,,,,,,,,,,,,,,,,,,,,,,,,,
"72493893231","2020-07-29T08:47:00","FM-15","7",,,,,,,,,,,,,,,,,,,,,,,,,,,,,,,,,,,,,,"29.96","57","63",,,,,"83",,"BKN:07 13","29.95","10.00","60","040",,"5",,,,,,,,,,,,,,,,,,,,,,,,,,,,,,,,,,,,,"MET07207/29/20 08:47:02 METAR KSQL 291647Z 04004KT 10SM BKN013 17/14 A2996 RMK","FM-15","7",,,,,,,,,,,,,,,,,,,,,,,,,,,,
"72493893231","2020-07-29T09:47:00","FM-15","7",,,,,,,,,,,,,,,,,,,,,,,,,,,,,,,,,,,,,,"29.96","57","64",,,,,"78",,"SCT:04 10","29.95","10.00","60","010",,"7",,,,,,,,,,,,,,,,,,,,,,,,,,,,,,,,,,,,,"MET07207/29/20 09:47:02 METAR KSQL 291747Z 01006KT 10SM SCT010 18/14 A2996 RMK","FM-15","7",,,,,,,,,,,,,,,,,,,,,,,,,,,,
"72493893231","2020-07-29T10:47:00","FM-15","7",,,,,,,,,,,,,,,,,,,,,,,,,,,,,,,,,,,,,,"29.96","57","64",,,,,"78",,"*","29.95","10.00","60","340",,"8",,,,,,,,,,,,,,,,,,,,,,,,,,,,,,,,,,,,,"MET06907/29/20 10:47:02 METAR KSQL 291847Z 34007KT 10SM SKC 18/14 A2996 RMK","FM-15","7",,,,,,,,,,,,,,,,,,,,,,,,,,,,
"72493893231","2020-07-29T11:47:00","FM-15","7",,,,,,,,,,,,,,,,,,,,,,,,,,,,,,,,,,,,,,"29.96","59","64",,,,,"83",,"*","29.95","10.00","61","010",,"10",,,,,,,,,,,,,,,,,,,,,,,,,,,,,,,,,,,,,"MET06907/29/20 11:47:02 METAR KSQL 291947Z 01009KT 10SM SKC 18/15 A2996 RMK","FM-15","7",,,,,,,,,,,,,,,,,,,,,,,,,,,,
"72493893231","2020-07-29T12:47:00","FM-15","7",,,,,,,,,,,,,,,,,,,,,,,,,,,,,,,,,,,,,,"29.94","57","70",,,,,"64",,"*","29.93","10.00","62","360",,"9",,,,,,,,,,,,,,,,,,,,,,,,,,,,,,,,,,,,,"MET06907/29/20 12:47:02 METAR KSQL 292047Z 36008KT 10SM SKC 21/14 A2994 RMK","FM-15","7",,,,,,,,,,,,,,,,,,,,,,,,,,,,
"72493893231","2020-07-29T13:47:00","FM-15","7",,,,,,,,,,,,,,,,,,,,,,,,,,,,,,,,,,,,,,"29.92","57","73",,,,,"57",,"*","29.91","10.00","63","360",,"11",,,,,,,,,,,,,,,,,,,,,,,,,,,,,,,,,,,,,"MET06907/29/20 13:47:02 METAR KSQL 292147Z 36010KT 10SM SKC 23/14 A2992 RMK","FM-15","7",,,,,,,,,,,,,,,,,,,,,,,,,,,,
"72493893231","2020-07-29T14:47:00","FM-15","7",,,,,,,,,,,,,,,,,,,,,,,,,,,,,,,,,,,,,,"29.91","54","77",,,,,"44",,"*","29.90","10.00","63","310",,"10",,,,,,,,,,,,,,,,,,,,,,,,,,,,,,,,,,,,,"MET07207/29/20 14:47:02 METAR KSQL 292247Z 31009KT 10SM SKC 25/12 A2991 RMK DA","FM-15","7",,,,,,,,,,,,,,,,,,,,,,,,,,,,
"72493893231","2020-07-29T15:47:00","FM-15","7",,,,,,,,,,,,,,,,,,,,,,,,,,,,,,,,,,,,,,"29.90","55","77",,,,,"47",,"*","29.89","10.00","64","340",,"10",,,,,,,,,,,,,,,,,,,,,,,,,,,,,,,,,,,,,"MET06907/29/20 15:47:02 METAR KSQL 292347Z 34009KT 10SM SKC 25/13 A2990 RMK","FM-15","7",,,,,,,,,,,,,,,,,,,,,,,,,,,,
"72493893231","2020-07-29T16:47:00","FM-15","7",,,,,,,,,,,,,,,,,,,,,,,,,,,,,,,,,,,,,,"29.90","57","73",,,,,"57",,"*","29.89","10.00","63","330",,"10",,,,,,,,,,,,,,,,,,,,,,,,,,,,,,,,,,,,,"MET06907/29/20 16:47:01 METAR KSQL 300047Z 33009KT 10SM SKC 23/14 A2990 RMK","FM-15","7",,,,,,,,,,,,,,,,,,,,,,,,,,,,
"72493893231","2020-07-29T17:47:00","FM-15","7",,,,,,,,,,,,,,,,,,,,,,,,,,,,,,,,,,,,,,"29.90","57","68",,,,,"69",,"*","29.89","10.00","62","360",,"10",,,,,,,,,,,,,,,,,,,,,,,,,,,,,,,,,,,,,"MET06907/29/20 17:47:01 METAR KSQL 300147Z 36009KT 10SM SKC 20/14 A2990 RMK","FM-15","7",,,,,,,,,,,,,,,,,,,,,,,,,,,,
"72493893231","2020-07-29T18:47:00","FM-15","7",,,,,,,,,,,,,,,,,,,,,,,,,,,,,,,,,,,,,,"29.92","55","64",,,,,"73",,"*","29.91","10.00","59","320",,"8",,,,,,,,,,,,,,,,,,,,,,,,,,,,,,,,,,,,,"MET07107/29/20 18:47:01 METAR KSQL 300247Z 32007KT 10SM SKC C 18/13 A2992 RMK","FM-15","7",,,,,,,,,,,,,,,,,,,,,,,,,,,,
"72493893231","2020-07-29T19:47:00","FM-15","7",,,,,,,,,,,,,,,,,,,,,,,,,,,,,,,,,,,,,,"29.83","55","64",,,,,"73",,"*","29.82","10.00","59","310",,"7",,,,,,,,,,,,,,,,,,,,,,,,,,,,,,,,,,,,,"MET07407/29/20 19:47:02 METAR KSQL 300347Z 31006KT 10SM SKC 18/13 A2983 RMK LAST","FM-15","7",,,,,,,,,,,,,,,,,,,,,,,,,,,,
"72493893231","2020-07-29T20:15:00","FM-15","7",,,,,,,,,,,,,,,,,,,,,,,,,,,,,,,,,,,,,,"29.94","55","63",,,,,"77",,"CLR:00","29.93","10.00","58","340",,"6",,,,,,,,,,,,,,,,,,,,,,,,,,,,,,,,,,,,,"MET07307/29/20 20:15:02 METAR KSQL 300415Z 34005KT 10SM CLR 17/13 A2994 RMK AO2","FM-15","7",,,,,,,,,,,,,,,,,,,,,,,,,,,,
"72493893231","2020-07-29T20:35:00","FM-15","7",,,,,,,,,,,,,,,,,,,,,,,,,,,,,,,,,,,,,,"29.94","55","61",,,,,"83",,"CLR:00","29.93","10.00","58","350",,"6",,,,,,,,,,,,,,,,,,,,,,,,,,,,,,,,,,,,,"MET07307/29/20 20:35:02 METAR KSQL 300435Z 35005KT 10SM CLR 16/13 A2994 RMK AO2","FM-15","7",,,,,,,,,,,,,,,,,,,,,,,,,,,,
"72493893231","2020-07-29T20:55:00","FM-15","7",,,,,,,,,,,,,,,,,,,,,,,,,,,,,,,,,,,,,,"29.95","55","61",,,,,"83",,"CLR:00","29.94","10.00","58","350",,"5",,,,,,,,,,,,,,,,,,,,,,,,,,,,,,,,,,,,,"MET07307/29/20 20:55:02 METAR KSQL 300455Z 35004KT 10SM CLR 16/13 A2995 RMK AO2","FM-15","7",,,,,,,,,,,,,,,,,,,,,,,,,,,,
"72493893231","2020-07-29T21:15:00","FM-15","7",,,,,,,,,,,,,,,,,,,,,,,,,,,,,,,,,,,,,,"29.95","55","61",,,,,"83",,"CLR:00","29.94","10.00","58","340",,"6",,,,,,,,,,,,,,,,,,,,,,,,,,,,,,,,,,,,,"MET07307/29/20 21:15:02 METAR KSQL 300515Z 34005KT 10SM CLR 16/13 A2995 RMK AO2","FM-15","7",,,,,,,,,,,,,,,,,,,,,,,,,,,,
"72493893231","2020-07-29T21:35:00","FM-15","7",,,,,,,,,,,,,,,,,,,,,,,,,,,,,,,,,,,,,,"29.95","55","61",,,,,"83",,"CLR:00","29.94","10.00","58","320",,"5",,,,,,,,,,,,,,,,,,,,,,,,,,,,,,,,,,,,,"MET07307/29/20 21:35:02 METAR KSQL 300535Z 32004KT 10SM CLR 16/13 A2995 RMK AO2","FM-15","7",,,,,,,,,,,,,,,,,,,,,,,,,,,,
"72493893231","2020-07-29T21:55:00","FM-15","7",,,,,,,,,,,,,,,,,,,,,,,,,,,,,,,,,,,,,,"29.95","54","61",,,,,"77",,"CLR:00","29.94","10.00","57","320",,"5",,,,,,,,,,,,,,,,,,,,,,,,,,,,,,,,,,,,,"MET07307/29/20 21:55:02 METAR KSQL 300555Z 32004KT 10SM CLR 16/12 A2995 RMK AO2","FM-15","7",,,,,,,,,,,,,,,,,,,,,,,,,,,,
"72493893231","2020-07-29T22:15:00","FM-15","7",,,,,,,,,,,,,,,,,,,,,,,,,,,,,,,,,,,,,,"29.95","54","61",,,,,"77",,"CLR:00","29.94","10.00","57","320",,"6",,,,,,,,,,,,,,,,,,,,,,,,,,,,,,,,,,,,,"MET07307/29/20 22:15:02 METAR KSQL 300615Z 32005KT 10SM CLR 16/12 A2995 RMK AO2","FM-15","7",,,,,,,,,,,,,,,,,,,,,,,,,,,,
"72493893231","2020-07-29T22:35:00","FM-15","7",,,,,,,,,,,,,,,,,,,,,,,,,,,,,,,,,,,,,,"29.95","54","59",,,,,"82",,"CLR:00","29.94","10.00","56","330",,"5",,,,,,,,,,,,,,,,,,,,,,,,,,,,,,,,,,,,,"MET07307/29/20 22:35:02 METAR KSQL 300635Z 33004KT 10SM CLR 15/12 A2995 RMK AO2","FM-15","7",,,,,,,,,,,,,,,,,,,,,,,,,,,,
"72493893231","2020-07-29T22:55:00","FM-15","7",,,,,,,,,,,,,,,,,,,,,,,,,,,,,,,,,,,,,,"29.96","54","59",,,,,"82",,"CLR:00","29.95","10.00","56","320",,"5",,,,,,,,,,,,,,,,,,,,,,,,,,,,,,,,,,,,,"MET07307/29/20 22:55:02 METAR KSQL 300655Z 32004KT 10SM CLR 15/12 A2996 RMK AO2","FM-15","7",,,,,,,,,,,,,,,,,,,,,,,,,,,,
"72493893231","2020-07-29T23:15:00","FM-15","7",,,,,,,,,,,,,,,,,,,,,,,,,,,,,,,,,,,,,,"29.96","54","59",,,,,"82",,"CLR:00","29.95","10.00","56","300",,"9",,,,,,,,,,,,,,,,,,,,,,,,,,,,,,,,,,,,,"MET07307/29/20 23:15:02 METAR KSQL 300715Z 30008KT 10SM CLR 15/12 A2996 RMK AO2","FM-15","7",,,,,,,,,,,,,,,,,,,,,,,,,,,,
"72493893231","2020-07-29T23:35:00","FM-15","7",,,,,,,,,,,,,,,,,,,,,,,,,,,,,,,,,,,,,,"29.97","54","59",,,,,"82",,"CLR:00","29.96","10.00","56","300",,"10",,,,,,,,,,,,,,,,,,,,,,,,,,,,,,,,,,,,,"MET07307/29/20 23:35:02 METAR KSQL 300735Z 30009KT 10SM CLR 15/12 A2997 RMK AO2","FM-15","7",,,,,,,,,,,,,,,,,,,,,,,,,,,,
"72493893231","2020-07-29T23:55:00","FM-15","7",,,,,,,,,,,,,,,,,,,,,,,,,,,,,,,,,,,,,,"29.97","54","57",,,,,"88",,"CLR:00","29.96","10.00","55","320",,"9",,,,,,,,,,,,,,,,,,,,,,,,,,,,,,,,,,,,,"MET07307/29/20 23:55:02 METAR KSQL 300755Z 32008KT 10SM CLR 14/12 A2997 RMK AO2","FM-15","7",,,,,,,,,,,,,,,,,,,,,,,,,,,,
"72493893231","2020-07-30T00:15:00","FM-15","7",,,,,,,,,,,,,,,,,,,,,,,,,,,,,,,,,,,,,,"29.97","54","57",,,,,"88",,"CLR:00","29.96","10.00","55","310",,"9",,,,,,,,,,,,,,,,,,,,,,,,,,,,,,,,,,,,,"MET07307/30/20 00:15:02 METAR KSQL 300815Z 31008KT 10SM CLR 14/12 A2997 RMK AO2","FM-15","7",,,,,,,,,,,,,,,,,,,,,,,,,,,,
"72493893231","2020-07-30T00:35:00","FM-15","7",,,,,,,,,,,,,,,,,,,,,,,,,,,,,,,,,,,,,,"29.98","54","57",,,,,"88",,"CLR:00","29.97","10.00","55","310",,"9",,,,,,,,,,,,,,,,,,,,,,,,,,,,,,,,,,,,,"MET07307/30/20 00:35:02 METAR KSQL 300835Z 31008KT 10SM CLR 14/12 A2998 RMK AO2","FM-15","7",,,,,,,,,,,,,,,,,,,,,,,,,,,,
"72493893231","2020-07-30T00:55:00","FM-15","7",,,,,,,,,,,,,,,,,,,,,,,,,,,,,,,,,,,,,,"29.98","54","57",,,,,"88",,"FEW:02 15","29.97","10.00","55","310",,"8",,,,,,,,,,,,,,,,,,,,,,,,,,,,,,,,,,,,,"MET07607/30/20 00:55:02 METAR KSQL 300855Z 31007KT 10SM FEW015 14/12 A2998 RMK AO2","FM-15","7",,,,,,,,,,,,,,,,,,,,,,,,,,,,
"72493893231","2020-07-30T01:15:00","FM-15","7",,,,,,,,,,,,,,,,,,,,,,,,,,,,,,,,,,,,,,"29.98","54","57",,,,,"88",,"BKN:07 15","29.97","10.00","55","320",,"7",,,,,,,,,,,,,,,,,,,,,,,,,,,,,,,,,,,,,"MET07607/30/20 01:15:02 METAR KSQL 300915Z 32006KT 10SM BKN015 14/12 A2998 RMK AO2","FM-15","7",,,,,,,,,,,,,,,,,,,,,,,,,,,,
"72493893231","2020-07-30T01:35:00","FM-15","7",,,,,,,,,,,,,,,,,,,,,,,,,,,,,,,,,,,,,,"29.98","54","57",,,,,"88",,"OVC:08 13","29.97","10.00","55","310",,"7",,,,,,,,,,,,,,,,,,,,,,,,,,,,,,,,,,,,,"MET07607/30/20 01:35:02 METAR KSQL 300935Z 31006KT 10SM OVC013 14/12 A2998 RMK AO2","FM-15","7",,,,,,,,,,,,,,,,,,,,,,,,,,,,
"72493893231","2020-07-30T01:55:00","FM-15","7",,,,,,,,,,,,,,,,,,,,,,,,,,,,,,,,,,,,,,"29.97","54","57",,,,,"88",,"OVC:08 13","29.96","10.00","55","300",,"6",,,,,,,,,,,,,,,,,,,,,,,,,,,,,,,,,,,,,"MET07607/30/20 01:55:02 METAR KSQL 300955Z 30005KT 10SM OVC013 14/12 A2997 RMK AO2","FM-15","7",,,,,,,,,,,,,,,,,,,,,,,,,,,,
"72493893231","2020-07-30T02:15:00","FM-15","7",,,,,,,,,,,,,,,,,,,,,,,,,,,,,,,,,,,,,,"29.98","54","59",,,,,"82",,"OVC:08 11","29.97","10.00","56","310",,"6",,,,,,,,,,,,,,,,,,,,,,,,,,,,,,,,,,,,,"MET07607/30/20 02:15:02 METAR KSQL 301015Z 31005KT 10SM OVC011 15/12 A2998 RMK AO2","FM-15","7",,,,,,,,,,,,,,,,,,,,,,,,,,,,
"72493893231","2020-07-30T02:35:00","FM-15","7",,,,,,,,,,,,,,,,,,,,,,,,,,,,,,,,,,,,,,"29.98","54","59",,,,,"82",,"OVC:08 11","29.97","10.00","56","310",,"5",,,,,,,,,,,,,,,,,,,,,,,,,,,,,,,,,,,,,"MET07607/30/20 02:35:02 METAR KSQL 301035Z 31004KT 10SM OVC011 15/12 A2998 RMK AO2","FM-15","7",,,,,,,,,,,,,,,,,,,,,,,,,,,,
"72493893231","2020-07-30T02:55:00","FM-15","7",,,,,,,,,,,,,,,,,,,,,,,,,,,,,,,,,,,,,,"29.98","55","59",,,,,"88",,"OVC:08 11","29.97","10.00","57","320",,"3",,,,,,,,,,,,,,,,,,,,,,,,,,,,,,,,,,,,,"MET07607/30/20 02:55:02 METAR KSQL 301055Z 32003KT 10SM OVC011 15/13 A2998 RMK AO2","FM-15","7",,,,,,,,,,,,,,,,,,,,,,,,,,,,
"72493893231","2020-07-30T03:15:00","FM-15","7",,,,,,,,,,,,,,,,,,,,,,,,,,,,,,,,,,,,,,"29.98","55","59",,,,,"88",,"OVC:08 11","29.97","10.00","57","300",,"3",,,,,,,,,,,,,,,,,,,,,,,,,,,,,,,,,,,,,"MET07607/30/20 03:15:02 METAR KSQL 301115Z 30003KT 10SM OVC011 15/13 A2998 RMK AO2","FM-15","7",,,,,,,,,,,,,,,,,,,,,,,,,,,,
"72493893231","2020-07-30T03:35:00","FM-15","7",,,,,,,,,,,,,,,,,,,,,,,,,,,,,,,,,,,,,,"29.98","55","59",,,,,"88",,"OVC:08 11","29.97","10.00","57","150",,"5",,,,,,,,,,,,,,,,,,,,,,,,,,,,,,,,,,,,,"MET07607/30/20 03:35:02 METAR KSQL 301135Z 15004KT 10SM OVC011 15/13 A2998 RMK AO2","FM-15","7",,,,,,,,,,,,,,,,,,,,,,,,,,,,
"72493893231","2020-07-30T03:55:00","FM-15","7",,,,,,,,,,,,,,,,,,,,,,,,,,,,,,,,,,,,,,"29.98","55","59",,,,,"88",,"OVC:08 11","29.97","10.00","57","150",,"6",,,,,,,,,,,,,,,,,,,,,,,,,,,,,,,,,,,,,"MET07607/30/20 03:55:02 METAR KSQL 301155Z 15005KT 10SM OVC011 15/13 A2998 RMK AO2","FM-15","7",,,,,,,,,,,,,,,,,,,,,,,,,,,,
"72493893231","2020-07-30T04:15:00","FM-15","7",,,,,,,,,,,,,,,,,,,,,,,,,,,,,,,,,,,,,,"29.98","55","59",,,,,"88",,"OVC:08 11","29.97","10.00","57","150",,"7",,,,,,,,,,,,,,,,,,,,,,,,,,,,,,,,,,,,,"MET07607/30/20 04:15:02 METAR KSQL 301215Z 15006KT 10SM OVC011 15/13 A2998 RMK AO2","FM-15","7",,,,,,,,,,,,,,,,,,,,,,,,,,,,
"72493893231","2020-07-30T04:35:00","FM-15","7",,,,,,,,,,,,,,,,,,,,,,,,,,,,,,,,,,,,,,"29.99","55","59",,,,,"88",,"OVC:08 11","29.98","10.00","57","090",,"3",,,,,,,,,,,,,,,,,,,,,,,,,,,,,,,,,,,,,"MET07607/30/20 04:35:02 METAR KSQL 301235Z 09003KT 10SM OVC011 15/13 A2999 RMK AO2","FM-15","7",,,,,,,,,,,,,,,,,,,,,,,,,,,,
"72493893231","2020-07-30T04:55:00","FM-15","7",,,,,,,,,,,,,,,,,,,,,,,,,,,,,,,,,,,,,,"29.99","55","59",,,,,"88",,"OVC:08 11","29.98","10.00","57","000",,"0",,,,,,,,,,,,,,,,,,,,,,,,,,,,,,,,,,,,,"MET07607/30/20 04:55:02 METAR KSQL 301255Z 00000KT 10SM OVC011 15/13 A2999 RMK AO2","FM-15","7",,,,,,,,,,,,,,,,,,,,,,,,,,,,
"72493893231","2020-07-30T05:15:00","FM-15","7",,,,,,,,,,,,,,,,,,,,,,,,,,,,,,,,,,,,,,"30.00","55","59",,,,,"88",,"OVC:08 11","29.99","10.00","57","000",,"0",,,,,,,,,,,,,,,,,,,,,,,,,,,,,,,,,,,,,"MET07607/30/20 05:15:02 METAR KSQL 301315Z 00000KT 10SM OVC011 15/13 A3000 RMK AO2","FM-15","7",,,,,,,,,,,,,,,,,,,,,,,,,,,,
"72493893231","2020-07-30T05:35:00","FM-15","7",,,,,,,,,,,,,,,,,,,,,,,,,,,,,,,,,,,,,,"30.01","55","59",,,,,"88",,"OVC:08 11","30.00","10.00","57","300",,"5",,,,,,,,,,,,,,,,,,,,,,,,,,,,,,,,,,,,,"MET07607/30/20 05:35:02 METAR KSQL 301335Z 30004KT 10SM OVC011 15/13 A3001 RMK AO2","FM-15","7",,,,,,,,,,,,,,,,,,,,,,,,,,,,
"72493893231","2020-07-30T05:55:00","FM-15","7",,,,,,,,,,,,,,,,,,,,,,,,,,,,,,,,,,,,,,"30.01","54","59",,,,,"82",,"OVC:08 11","30.00","10.00","56","280",,"6",,,,,,,,,,,,,,,,,,,,,,,,,,,,,,,,,,,,,"MET07607/30/20 05:55:02 METAR KSQL 301355Z 28005KT 10SM OVC011 15/12 A3001 RMK AO2","FM-15","7",,,,,,,,,,,,,,,,,,,,,,,,,,,,
"72493893231","2020-07-30T06:00:00","FM-15","4",,,,,,,,,,,,,,,,,,,,,,,,,,,,,,,,,,,,,,"30.01","54","59",,,,,"82",,,,"10.00",,"280",,"7",,,,,,,,,,,,,,,,,,,,,,,,,,,,,,,,,,,,,"MET051METAR KSQL 301400Z 28006KT 10SM OVC011 15/12 A3001=","FM-15","4",,,,,,,,,,,,,,,,,,,,,,,,,,,,
"72493893231","2020-07-30T06:47:00","FM-15","7",,,,,,,,,,,,,,,,,,,,,,,,,,,,,,,,,,,,,,"30.02","54","59",,,,,"82",,"OVC:08 11","30.01","10.00","56","270",,"6",,,,,,,,,,,,,,,,,,,,,,,,,,,,,,,,,,,,,"MET07207/30/20 06:47:02 METAR KSQL 301447Z 27005KT 10SM OVC011 15/12 A3002 RMK","FM-15","7",,,,,,,,,,,,,,,,,,,,,,,,,,,,
"72493893231","2020-07-30T07:47:00","FM-15","4",,,,,,,,,,,,,,,,,,,,,,,,,,,,,,,,,,,,,,"30.04","54","59",,,,,"82",,,,"10.00",,"300",,"6",,,,,,,,,,,,,,,,,,,,,,,,,,,,,,,,,,,,,"MET051METAR KSQL 301547Z 30005KT 10SM OVC013 15/12 A3004=","FM-15","4",,,,,,,,,,,,,,,,,,,,,,,,,,,,
"72493893231","2020-07-30T08:47:00","FM-15","4",,,,,,,,,,,,,,,,,,,,,,,,,,,,,,,,,,,,,,"30.04","55","63",,,,,"77",,,,"10.00",,"VRB",,"3",,,,,,,,,,,,,,,,,,,,,,,,,,,,,,,,,,,,,"MET051METAR KSQL 301647Z VRB03KT 10SM BKN017 17/13 A3004=","FM-15","4",,,,,,,,,,,,,,,,,,,,,,,,,,,,
"72493893231","2020-07-30T09:47:00","FM-15","4",,,,,,,,,,,,,,,,,,,,,,,,,,,,,,,,,,,,,,"30.04","55","64",,,,,"73",,,,"10.00",,"360",,"9",,,,,,,,,,,,,,,,,,,,,,,,,,,,,,,,,,,,,"MET051METAR KSQL 301747Z 36008KT 10SM SCT017 18/13 A3004=","FM-15","4",,,,,,,,,,,,,,,,,,,,,,,,,,,,
"72493893231","2020-07-30T10:47:00","FM-15","4",,,,,,,,,,,,,,,,,,,,,,,,,,,,,,,,,,,,,,"30.03","57","64",,,,,"78",,,,"10.00",,"360",,"11",,,,,,,,,,,,,,,,,,,,,,,,,,,,,,,,,,,,,"MET051METAR KSQL 301847Z 36010KT 10SM SCT017 18/14 A3003=","FM-15","4",,,,,,,,,,,,,,,,,,,,,,,,,,,,
"72493893231","2020-07-30T11:47:00","FM-15","4",,,,,,,,,,,,,,,,,,,,,,,,,,,,,,,,,,,,,,"30.02","57","66",,,,,"73",,,,"10.00",,"310",,"7",,,,,,,,,,,,,,,,,,,,,,,,,,,,,,,,,,,,,"MET051METAR KSQL 301947Z 31006KT 10SM FEW025 19/14 A3002=","FM-15","4",,,,,,,,,,,,,,,,,,,,,,,,,,,,
"72493893231","2020-07-30T13:47:00","FM-15","4",,,,,,,,,,,,,,,,,,,,,,,,,,,,,,,,,,,,,,"30.02","57","70",,,,,"64",,,,"10.00",,"360",,"13",,,,,,,,,,,,,,,,,,,,,,,,,,,,,,,,,,,,,"MET048METAR KSQL 302147Z 36011KT 10SM SKC 21/14 A3002=","FM-15","4",,,,,,,,,,,,,,,,,,,,,,,,,,,,
"72493893231","2020-07-30T14:47:00","FM-15","4",,,,,,,,,,,,,,,,,,,,,,,,,,,,,,,,,,,,,,"29.92","57","73",,,,,"57",,,,"10.00",,"350",,"11",,,,,,,,,,,,,,,,,,,,,,,,,,,,,,,,,,,,,"MET048METAR KSQL 302247Z 35010KT 10SM SKC 23/14 A2992=","FM-15","4",,,,,,,,,,,,,,,,,,,,,,,,,,,,
"72493893231","2020-07-30T15:47:00","FM-15","4",,,,,,,,,,,,,,,,,,,,,,,,,,,,,,,,,,,,,,"29.98","55","75",,,,,"50",,,,"10.00",,"330",,"11",,,,,,,,,,,,,,,,,,,,,,,,,,,,,,,,,,,,,"MET048METAR KSQL 302347Z 33010KT 10SM SKC 24/13 A2998=","FM-15","4",,,,,,,,,,,,,,,,,,,,,,,,,,,,
"72493893231","2020-07-30T16:47:00","FM-15","4",,,,,,,,,,,,,,,,,,,,,,,,,,,,,,,,,,,,,,"29.97","57","72",,,,,"61",,,,"10.00",,"350",,"17",,,,,,,,,,,,,,,,,,,,,,,,,,,,,,,,,,,,,"MET048METAR KSQL 310047Z 35015KT 10SM SKC 22/14 A2997=","FM-15","4",,,,,,,,,,,,,,,,,,,,,,,,,,,,
"72493893231","2020-07-30T17:47:00","FM-15","4",,,,,,,,,,,,,,,,,,,,,,,,,,,,,,,,,,,,,,"29.96","57","68",,,,,"69",,,,"10.00",,"350",,"11",,,,,,,,,,,,,,,,,,,,,,,,,,,,,,,,,,,,,"MET048METAR KSQL 310147Z 35010KT 10SM SKC 20/14 A2996=","FM-15","4",,,,,,,,,,,,,,,,,,,,,,,,,,,,
"72493893231","2020-07-30T18:47:00","FM-15","4",,,,,,,,,,,,,,,,,,,,,,,,,,,,,,,,,,,,,,"29.97","55","64",,,,,"73",,,,"10.00",,"320",,"11",,,,,,,,,,,,,,,,,,,,,,,,,,,,,,,,,,,,,"MET048METAR KSQL 310247Z 32010KT 10SM SKC 18/13 A2997=","FM-15","4",,,,,,,,,,,,,,,,,,,,,,,,,,,,
"72493893231","2020-07-30T19:47:00","FM-15","4",,,,,,,,,,,,,,,,,,,,,,,,,,,,,,,,,,,,,,"29.98","54","63",,,,,"73",,,,"10.00",,"310",,"8",,,,,,,,,,,,,,,,,,,,,,,,,,,,,,,,,,,,,"MET057METAR KSQL 310347Z 31007KT 10SM SKC 17/12 A2998 RMK LAST=","FM-15","4",,,,,,,,,,,,,,,,,,,,,,,,,,,,
"72493893231","2020-07-30T20:15:00","FM-15","4",,,,,,,,,,,,,,,,,,,,,,,,,,,,,,,,,,,,,,"29.99","54","63",,,,,"73",,,,"10.00",,"310",,"11",,,,,,,,,,,,,,,,,,,,,,,,,,,,,,,,,,,,,"MET061METAR KSQL 310415Z AUTO 31010KT 10SM CLR 17/12 A2999 RMK AO2=","FM-15","4",,,,,,,,,,,,,,,,,,,,,,,,,,,,
"72493893231","2020-07-30T20:35:00","FM-15","4",,,,,,,,,,,,,,,,,,,,,,,,,,,,,,,,,,,,,,"30.00","54","61",,,,,"77",,,,"10.00",,"310",,"8",,,,,,,,,,,,,,,,,,,,,,,,,,,,,,,,,,,,,"MET061METAR KSQL 310435Z AUTO 31007KT 10SM CLR 16/12 A3000 RMK AO2=","FM-15","4",,,,,,,,,,,,,,,,,,,,,,,,,,,,
"72493893231","2020-07-30T20:55:00","FM-15","4",,,,,,,,,,,,,,,,,,,,,,,,,,,,,,,,,,,,,,"30.00","54","59",,,,,"82",,,,"10.00",,"310",,"7",,,,,,,,,,,,,,,,,,,,,,,,,,,,,,,,,,,,,"MET061METAR KSQL 310455Z AUTO 31006KT 10SM CLR 15/12 A3000 RMK AO2=","FM-15","4",,,,,,,,,,,,,,,,,,,,,,,,,,,,
"72493893231","2020-07-30T21:15:00","FM-15","4",,,,,,,,,,,,,,,,,,,,,,,,,,,,,,,,,,,,,,"30.00","54","59",,,,,"82",,,,"10.00",,"310",,"7",,,,,,,,,,,,,,,,,,,,,,,,,,,,,,,,,,,,,"MET061METAR KSQL 310515Z AUTO 31006KT 10SM CLR 15/12 A3000 RMK AO2=","FM-15","4",,,,,,,,,,,,,,,,,,,,,,,,,,,,
"72493893231","2020-07-30T21:35:00","FM-15","4",,,,,,,,,,,,,,,,,,,,,,,,,,,,,,,,,,,,,,"30.01","54","59",,,,,"82",,,,"10.00",,"310",,"9",,,,,,,,,,,,,,,,,,,,,,,,,,,,,,,,,,,,,"MET061METAR KSQL 310535Z AUTO 31008KT 10SM CLR 15/12 A3001 RMK AO2=","FM-15","4",,,,,,,,,,,,,,,,,,,,,,,,,,,,
"72493893231","2020-07-30T21:55:00","FM-15","4",,,,,,,,,,,,,,,,,,,,,,,,,,,,,,,,,,,,,,"30.00","54","59",,,,,"82",,,,"10.00",,"310",,"8",,,,,,,,,,,,,,,,,,,,,,,,,,,,,,,,,,,,,"MET061METAR KSQL 310555Z AUTO 31007KT 10SM CLR 15/12 A3000 RMK AO2=","FM-15","4",,,,,,,,,,,,,,,,,,,,,,,,,,,,
"72493893231","2020-07-30T22:15:00","FM-15","4",,,,,,,,,,,,,,,,,,,,,,,,,,,,,,,,,,,,,,"30.01","54","59",,,,,"82",,,,"10.00",,"310",,"6",,,,,,,,,,,,,,,,,,,,,,,,,,,,,,,,,,,,,"MET061METAR KSQL 310615Z AUTO 31005KT 10SM CLR 15/12 A3001 RMK AO2=","FM-15","4",,,,,,,,,,,,,,,,,,,,,,,,,,,,
"72493893231","2020-07-30T22:35:00","FM-15","4",,,,,,,,,,,,,,,,,,,,,,,,,,,,,,,,,,,,,,"30.01","54","59",,,,,"82",,,,"10.00",,"310",,"6",,,,,,,,,,,,,,,,,,,,,,,,,,,,,,,,,,,,,"MET061METAR KSQL 310635Z AUTO 31005KT 10SM CLR 15/12 A3001 RMK AO2=","FM-15","4",,,,,,,,,,,,,,,,,,,,,,,,,,,,
"72493893231","2020-07-30T22:55:00","FM-15","4",,,,,,,,,,,,,,,,,,,,,,,,,,,,,,,,,,,,,,"30.00","54","59",,,,,"82",,,,"10.00",,"300",,"5",,,,,,,,,,,,,,,,,,,,,,,,,,,,,,,,,,,,,"MET061METAR KSQL 310655Z AUTO 30004KT 10SM CLR 15/12 A3000 RMK AO2=","FM-15","4",,,,,,,,,,,,,,,,,,,,,,,,,,,,
"72493893231","2020-07-30T23:15:00","FM-15","4",,,,,,,,,,,,,,,,,,,,,,,,,,,,,,,,,,,,,,"30.00","54","59",,,,,"82",,,,"10.00",,"310",,"5",,,,,,,,,,,,,,,,,,,,,,,,,,,,,,,,,,,,,"MET061METAR KSQL 310715Z AUTO 31004KT 10SM CLR 15/12 A3000 RMK AO2=","FM-15","4",,,,,,,,,,,,,,,,,,,,,,,,,,,,
"72493893231","2020-07-30T23:35:00","FM-15","4",,,,,,,,,,,,,,,,,,,,,,,,,,,,,,,,,,,,,,"30.00","54","59",,,,,"82",,,,"10.00",,"310",,"5",,,,,,,,,,,,,,,,,,,,,,,,,,,,,,,,,,,,,"MET061METAR KSQL 310735Z AUTO 31004KT 10SM CLR 15/12 A3000 RMK AO2=","FM-15","4",,,,,,,,,,,,,,,,,,,,,,,,,,,,
"72493893231","2020-07-30T23:55:00","FM-15","4",,,,,,,,,,,,,,,,,,,,,,,,,,,,,,,,,,,,,,"30.00","54","57",,,,,"88",,,,"10.00",,"310",,"5",,,,,,,,,,,,,,,,,,,,,,,,,,,,,,,,,,,,,"MET061METAR KSQL 310755Z AUTO 31004KT 10SM CLR 14/12 A3000 RMK AO2=","FM-15","4",,,,,,,,,,,,,,,,,,,,,,,,,,,,
"72493893231","2020-07-31T00:15:00","FM-15","4",,,,,,,,,,,,,,,,,,,,,,,,,,,,,,,,,,,,,,"30.00","54","57",,,,,"88",,,,"10.00",,"310",,"6",,,,,,,,,,,,,,,,,,,,,,,,,,,,,,,,,,,,,"MET061METAR KSQL 310815Z AUTO 31005KT 10SM CLR 14/12 A3000 RMK AO2=","FM-15","4",,,,,,,,,,,,,,,,,,,,,,,,,,,,
"72493893231","2020-07-31T00:35:00","FM-15","4",,,,,,,,,,,,,,,,,,,,,,,,,,,,,,,,,,,,,,"30.00","54","57",,,,,"88",,,,"10.00",,"310",,"6",,,,,,,,,,,,,,,,,,,,,,,,,,,,,,,,,,,,,"MET064METAR KSQL 310835Z AUTO 31005KT 10SM SCT013 14/12 A3000 RMK AO2=","FM-15","4",,,,,,,,,,,,,,,,,,,,,,,,,,,,
"72493893231","2020-07-31T00:55:00","FM-15","4",,,,,,,,,,,,,,,,,,,,,,,,,,,,,,,,,,,,,,"30.00","54","57",,,,,"88",,,,"10.00",,"310",,"5",,,,,,,,,,,,,,,,,,,,,,,,,,,,,,,,,,,,,"MET064METAR KSQL 310855Z AUTO 31004KT 10SM OVC013 14/12 A3000 RMK AO2=","FM-15","4",,,,,,,,,,,,,,,,,,,,,,,,,,,,
"72493893231","2020-07-31T01:15:00","FM-15","4",,,,,,,,,,,,,,,,,,,,,,,,,,,,,,,,,,,,,,"30.00","54","57",,,,,"88",,,,"10.00",,"310",,"5",,,,,,,,,,,,,,,,,,,,,,,,,,,,,,,,,,,,,"MET064METAR KSQL 310915Z AUTO 31004KT 10SM OVC013 14/12 A3000 RMK AO2=","FM-15","4",,,,,,,,,,,,,,,,,,,,,,,,,,,,
"72493893231","2020-07-31T01:35:00","FM-15","4",,,,,,,,,,,,,,,,,,,,,,,,,,,,,,,,,,,,,,"30.00","54","57",,,,,"88",,,,"10.00",,"310",,"3",,,,,,,,,,,,,,,,,,,,,,,,,,,,,,,,,,,,,"MET064METAR KSQL 310935Z AUTO 31003KT 10SM OVC013 14/12 A3000 RMK AO2=","FM-15","4",,,,,,,,,,,,,,,,,,,,,,,,,,,,
"72493893231","2020-07-31T01:55:00","FM-15","4",,,,,,,,,,,,,,,,,,,,,,,,,,,,,,,,,,,,,,"30.00","54","59",,,,,"82",,,,"10.00",,"300",,"5",,,,,,,,,,,,,,,,,,,,,,,,,,,,,,,,,,,,,"MET064METAR KSQL 310955Z AUTO 30004KT 10SM OVC011 15/12 A3000 RMK AO2=","FM-15","4",,,,,,,,,,,,,,,,,,,,,,,,,,,,
"72493893231","2020-07-31T02:15:00","FM-15","4",,,,,,,,,,,,,,,,,,,,,,,,,,,,,,,,,,,,,,"30.00","54","57",,,,,"88",,,,"10.00",,"310",,"5",,,,,,,,,,,,,,,,,,,,,,,,,,,,,,,,,,,,,"MET064METAR KSQL 311015Z AUTO 31004KT 10SM OVC011 14/12 A3000 RMK AO2=","FM-15","4",,,,,,,,,,,,,,,,,,,,,,,,,,,,
"72493893231","2020-07-31T02:35:00","FM-15","4",,,,,,,,,,,,,,,,,,,,,,,,,,,,,,,,,,,,,,"30.00","54","59",,,,,"82",,,,"10.00",,"310",,"6",,,,,,,,,,,,,,,,,,,,,,,,,,,,,,,,,,,,,"MET064METAR KSQL 311035Z AUTO 31005KT 10SM OVC011 15/12 A3000 RMK AO2=","FM-15","4",,,,,,,,,,,,,,,,,,,,,,,,,,,,
"72493893231","2020-07-31T02:55:00","FM-15","4",,,,,,,,,,,,,,,,,,,,,,,,,,,,,,,,,,,,,,"30.00","54","59",,,,,"82",,,,"10.00",,"300",,"5",,,,,,,,,,,,,,,,,,,,,,,,,,,,,,,,,,,,,"MET064METAR KSQL 311055Z AUTO 30004KT 10SM OVC011 15/12 A3000 RMK AO2=","FM-15","4",,,,,,,,,,,,,,,,,,,,,,,,,,,,
"72493893231","2020-07-31T03:15:00","FM-15","4",,,,,,,,,,,,,,,,,,,,,,,,,,,,,,,,,,,,,,"30.01","54","57",,,,,"88",,,,"10.00",,"300",,"5",,,,,,,,,,,,,,,,,,,,,,,,,,,,,,,,,,,,,"MET064METAR KSQL 311115Z AUTO 30004KT 10SM OVC011 14/12 A3001 RMK AO2=","FM-15","4",,,,,,,,,,,,,,,,,,,,,,,,,,,,
"72493893231","2020-07-31T03:35:00","FM-15","4",,,,,,,,,,,,,,,,,,,,,,,,,,,,,,,,,,,,,,"30.01","54","57",,,,,"88",,,,"10.00",,"300",,"6",,,,,,,,,,,,,,,,,,,,,,,,,,,,,,,,,,,,,"MET064METAR KSQL 311135Z AUTO 30005KT 10SM OVC011 14/12 A3001 RMK AO2=","FM-15","4",,,,,,,,,,,,,,,,,,,,,,,,,,,,
"72493893231","2020-07-31T03:55:00","FM-15","4",,,,,,,,,,,,,,,,,,,,,,,,,,,,,,,,,,,,,,"30.01","54","57",,,,,"88",,,,"10.00",,"300",,"6",,,,,,,,,,,,,,,,,,,,,,,,,,,,,,,,,,,,,"MET064METAR KSQL 311155Z AUTO 30005KT 10SM OVC011 14/12 A3001 RMK AO2=","FM-15","4",,,,,,,,,,,,,,,,,,,,,,,,,,,,
"72493893231","2020-07-31T04:15:00","FM-15","4",,,,,,,,,,,,,,,,,,,,,,,,,,,,,,,,,,,,,,"30.02","54","57",,,,,"88",,,,"10.00",,"290",,"6",,,,,,,,,,,,,,,,,,,,,,,,,,,,,,,,,,,,,"MET064METAR KSQL 311215Z AUTO 29005KT 10SM OVC011 14/12 A3002 RMK AO2=","FM-15","4",,,,,,,,,,,,,,,,,,,,,,,,,,,,
"72493893231","2020-07-31T04:35:00","FM-15","4",,,,,,,,,,,,,,,,,,,,,,,,,,,,,,,,,,,,,,"30.02","55","59",,,,,"88",,,,"10.00",,"170",,"3",,,,,,,,,,,,,,,,,,,,,,,,,,,,,,,,,,,,,"MET064METAR KSQL 311235Z AUTO 17003KT 10SM OVC011 15/13 A3002 RMK AO2=","FM-15","4",,,,,,,,,,,,,,,,,,,,,,,,,,,,
"72493893231","2020-07-31T04:55:00","FM-15","4",,,,,,,,,,,,,,,,,,,,,,,,,,,,,,,,,,,,,,"30.03","54","59",,,,,"82",,,,"10.00",,"270",,"5",,,,,,,,,,,,,,,,,,,,,,,,,,,,,,,,,,,,,"MET064METAR KSQL 311255Z AUTO 27004KT 10SM OVC011 15/12 A3003 RMK AO2=","FM-15","4",,,,,,,,,,,,,,,,,,,,,,,,,,,,
"72493893231","2020-07-31T05:15:00","FM-15","4",,,,,,,,,,,,,,,,,,,,,,,,,,,,,,,,,,,,,,"30.03","54","57",,,,,"88",,,,"10.00",,"290",,"7",,,,,,,,,,,,,,,,,,,,,,,,,,,,,,,,,,,,,"MET064METAR KSQL 311315Z AUTO 29006KT 10SM OVC011 14/12 A3003 RMK AO2=","FM-15","4",,,,,,,,,,,,,,,,,,,,,,,,,,,,
"72493893231","2020-07-31T05:35:00","FM-15","4",,,,,,,,,,,,,,,,,,,,,,,,,,,,,,,,,,,,,,"30.04","54","57",,,,,"88",,,,"10.00",,"270",,"8",,,,,,,,,,,,,,,,,,,,,,,,,,,,,,,,,,,,,"MET064METAR KSQL 311335Z AUTO 27007KT 10SM OVC011 14/12 A3004 RMK AO2=","FM-15","4",,,,,,,,,,,,,,,,,,,,,,,,,,,,
"72493893231","2020-07-31T05:55:00","FM-15","4",,,,,,,,,,,,,,,,,,,,,,,,,,,,,,,,,,,,,,"30.05","54","57",,,,,"88",,,,"10.00",,"290",,"8",,,,,,,,,,,,,,,,,,,,,,,,,,,,,,,,,,,,,"MET064METAR KSQL 311355Z AUTO 29007KT 10SM OVC011 14/12 A3005 RMK AO2=","FM-15","4",,,,,,,,,,,,,,,,,,,,,,,,,,,,
"72493893231","2020-07-31T06:00:00","FM-15","4",,,,,,,,,,,,,,,,,,,,,,,,,,,,,,,,,,,,,,"30.05","54","57",,,,,"88",,,,"10.00",,"260",,"8",,,,,,,,,,,,,,,,,,,,,,,,,,,,,,,,,,,,,"MET051METAR KSQL 311400Z 26007KT 10SM OVC011 14/12 A3005=","FM-15","4",,,,,,,,,,,,,,,,,,,,,,,,,,,,
"72493893231","2020-07-31T06:47:00","FM-15","4",,,,,,,,,,,,,,,,,,,,,,,,,,,,,,,,,,,,,,"30.06","54","57",,,,,"88",,,,"10.00",,"260",,"10",,,,,,,,,,,,,,,,,,,,,,,,,,,,,,,,,,,,,"MET051METAR KSQL 311447Z 26009KT 10SM OVC013 14/12 A3006=","FM-15","4",,,,,,,,,,,,,,,,,,,,,,,,,,,,
"72493893231","2020-07-31T07:47:00","FM-15","4",,,,,,,,,,,,,,,,,,,,,,,,,,,,,,,,,,,,,,"30.08","54","59",,,,,"82",,,,"10.00",,"280",,"9",,,,,,,,,,,,,,,,,,,,,,,,,,,,,,,,,,,,,"MET051METAR KSQL 311547Z 28008KT 10SM OVC013 15/12 A3008=","FM-15","4",,,,,,,,,,,,,,,,,,,,,,,,,,,,
"72493893231","2020-07-31T08:47:00","FM-15","4",,,,,,,,,,,,,,,,,,,,,,,,,,,,,,,,,,,,,,"30.07","54","63",,,,,"73",,,,"10.00",,"250",,"6",,,,,,,,,,,,,,,,,,,,,,,,,,,,,,,,,,,,,"MET051METAR KSQL 311647Z 25005KT 10SM FEW015 17/12 A3007=","FM-15","4",,,,,,,,,,,,,,,,,,,,,,,,,,,,
"72493893231","2020-07-31T09:47:00","FM-15","4",,,,,,,,,,,,,,,,,,,,,,,,,,,,,,,,,,,,,,"30.07","55","64",,,,,"73",,,,"10.00",,"040",,"7",,,,,,,,,,,,,,,,,,,,,,,,,,,,,,,,,,,,,"MET051METAR KSQL 311747Z 04006KT 10SM FEW005 18/13 A3007=","FM-15","4",,,,,,,,,,,,,,,,,,,,,,,,,,,,
"72493893231","2020-07-31T10:47:00","FM-15","4",,,,,,,,,,,,,,,,,,,,,,,,,,,,,,,,,,,,,,"30.06","55","64",,,,,"73",,,,"10.00",,"360",,"13",,,,,,,,,,,,,,,,,,,,,,,,,,,,,,,,,,,,,"MET051METAR KSQL 311847Z 36011KT 10SM FEW016 18/13 A3006=","FM-15","4",,,,,,,,,,,,,,,,,,,,,,,,,,,,
"72493893231","2020-07-31T11:47:00","FM-15","4",,,,,,,,,,,,,,,,,,,,,,,,,,,,,,,,,,,,,,"30.05","57","64",,,,,"78",,,,"10.00",,"360",,"14",,,,,,,,,,,,,,,,,,,,,,,,,,,,,,,,,,,,,"MET051METAR KSQL 311947Z 36012KT 10SM FEW016 18/14 A3005=","FM-15","4",,,,,,,,,,,,,,,,,,,,,,,,,,,,
"72493893231","2020-07-31T12:47:00","FM-15","4",,,,,,,,,,,,,,,,,,,,,,,,,,,,,,,,,,,,,,"30.04","57","68",,,,,"69",,,,"10.00",,"360",,"9",,,,,,,,,,,,,,,,,,,,,,,,,,,,,,,,,,,,,"MET051METAR KSQL 312047Z 36008KT 10SM FEW016 20/14 A3004=","FM-15","4",,,,,,,,,,,,,,,,,,,,,,,,,,,,
"72493893231","2020-07-31T13:47:00","FM-15","4",,,,,,,,,,,,,,,,,,,,,,,,,,,,,,,,,,,,,,"30.02","55","73",,,,,"53",,,,"10.00",,"330",,"9",,,,,,,,,,,,,,,,,,,,,,,,,,,,,,,,,,,,,"MET048METAR KSQL 312147Z 33008KT 10SM SKC 23/13 A3002=","FM-15","4",,,,,,,,,,,,,,,,,,,,,,,,,,,,
"72493893231","2020-07-31T14:47:00","FM-15","4",,,,,,,,,,,,,,,,,,,,,,,,,,,,,,,,,,,,,,"30.01","57","77",,,,,"51",,,,"10.00",,"330",,"7",,,,,,,,,,,,,,,,,,,,,,,,,,,,,,,,,,,,,"MET048METAR KSQL 312247Z 33006KT 10SM SKC 25/14 A3001=","FM-15","4",,,,,,,,,,,,,,,,,,,,,,,,,,,,
"72493893231","2020-07-31T15:47:00","FM-15","4",,,,,,,,,,,,,,,,,,,,,,,,,,,,,,,,,,,,,,"30.00","54","77",,,,,"44",,,,"10.00",,"250",,"11",,,,,,,,,,,,,,,,,,,,,,,,,,,,,,,,,,,,,"MET048METAR KSQL 312347Z 25010KT 10SM SKC 25/12 A3000=","FM-15","4",,,,,,,,,,,,,,,,,,,,,,,,,,,,
"72493893231","2020-07-31T16:47:00","FM-15","4",,,,,,,,,,,,,,,,,,,,,,,,,,,,,,,,,,,,,,"30.00","52","72",,,,,"50",,,,"10.00",,"250","21","14",,,,,,,,,,,,,,,,,,,,,,,,,,,,,,,,,,,,,"MET051METAR KSQL 010047Z 25012G18KT 10SM SKC 22/11 A3000=","FM-15","4",,,,,,,,,,,,,,,,,,,,,,,,,,,,
"72493893231","2020-07-31T17:47:00","FM-15","4",,,,,,,,,,,,,,,,,,,,,,,,,,,,,,,,,,,,,,"30.01","54","70",,,,,"57",,,,"10.00",,"250",,"11",,,,,,,,,,,,,,,,,,,,,,,,,,,,,,,,,,,,,"MET048METAR KSQL 010147Z 25010KT 10SM SKC 21/12 A3001=","FM-15","4",,,,,,,,,,,,,,,,,,,,,,,,,,,,
"72493893231","2020-07-31T18:47:00","FM-15","4",,,,,,,,,,,,,,,,,,,,,,,,,,,,,,,,,,,,,,"30.01","54","66",,,,,"64",,,,"10.00",,"230",,"9",,,,,,,,,,,,,,,,,,,,,,,,,,,,,,,,,,,,,"MET048METAR KSQL 010247Z 23008KT 10SM SKC 19/12 A3001=","FM-15","4",,,,,,,,,,,,,,,,,,,,,,,,,,,,
"72493893231","2020-07-31T19:47:00","FM-15","4",,,,,,,,,,,,,,,,,,,,,,,,,,,,,,,,,,,,,,"30.01","54","64",,,,,"68",,,,"10.00",,"230",,"9",,,,,,,,,,,,,,,,,,,,,,,,,,,,,,,,,,,,,"MET057METAR KSQL 010347Z 23008KT 10SM SKC 18/12 A3001 RMK LAST=","FM-15","4",,,,,,,,,,,,,,,,,,,,,,,,,,,,
"72493893231","2020-07-31T20:15:00","FM-15","4",,,,,,,,,,,,,,,,,,,,,,,,,,,,,,,,,,,,,,"30.02","54","63",,,,,"73",,,,"10.00",,"260",,"5",,,,,,,,,,,,,,,,,,,,,,,,,,,,,,,,,,,,,"MET061METAR KSQL 010415Z AUTO 26004KT 10SM CLR 17/12 A3002 RMK AO2=","FM-15","4",,,,,,,,,,,,,,,,,,,,,,,,,,,,
"72493893231","2020-07-31T20:35:00","FM-15","4",,,,,,,,,,,,,,,,,,,,,,,,,,,,,,,,,,,,,,"30.03","54","63",,,,,"73",,,,"10.00",,"260",,"5",,,,,,,,,,,,,,,,,,,,,,,,,,,,,,,,,,,,,"MET061METAR KSQL 010435Z AUTO 26004KT 10SM CLR 17/12 A3003 RMK AO2=","FM-15","4",,,,,,,,,,,,,,,,,,,,,,,,,,,,
"72493893231","2020-07-31T20:55:00","FM-15","4",,,,,,,,,,,,,,,,,,,,,,,,,,,,,,,,,,,,,,"30.03","54","63",,,,,"73",,,,"10.00",,"260",,"8",,,,,,,,,,,,,,,,,,,,,,,,,,,,,,,,,,,,,"MET061METAR KSQL 010455Z AUTO 26007KT 10SM CLR 17/12 A3003 RMK AO2=","FM-15","4",,,,,,,,,,,,,,,,,,,,,,,,,,,,
"72493893231","2020-07-31T21:15:00","FM-15","4",,,,,,,,,,,,,,,,,,,,,,,,,,,,,,,,,,,,,,"30.04","54","61",,,,,"77",,,,"10.00",,"250",,"6",,,,,,,,,,,,,,,,,,,,,,,,,,,,,,,,,,,,,"MET061METAR KSQL 010515Z AUTO 25005KT 10SM CLR 16/12 A3004 RMK AO2=","FM-15","4",,,,,,,,,,,,,,,,,,,,,,,,,,,,
"72493893231","2020-07-31T21:35:00","FM-15","4",,,,,,,,,,,,,,,,,,,,,,,,,,,,,,,,,,,,,,"30.03","54","61",,,,,"77",,,,"10.00",,"300",,"3",,,,,,,,,,,,,,,,,,,,,,,,,,,,,,,,,,,,,"MET061METAR KSQL 010535Z AUTO 30003KT 10SM CLR 16/12 A3003 RMK AO2=","FM-15","4",,,,,,,,,,,,,,,,,,,,,,,,,,,,
"72493893231","2020-07-31T21:55:00","FM-15","4",,,,,,,,,,,,,,,,,,,,,,,,,,,,,,,,,,,,,,"30.03","54","59",,,,,"82",,,,"10.00",,"320",,"6",,,,,,,,,,,,,,,,,,,,,,,,,,,,,,,,,,,,,"MET061METAR KSQL 010555Z AUTO 32005KT 10SM CLR 15/12 A3003 RMK AO2=","FM-15","4",,,,,,,,,,,,,,,,,,,,,,,,,,,,
"72493893231","2020-07-31T22:15:00","FM-15","7",,,,,,,,,,,,,,,,,,,,,,,,,,,,,,,,,,,,,,"30.03","54","61",,,,,"77",,"CLR:00","30.02","10.00","57","310",,"7",,,,,,,,,,,,,,,,,,,,,,,,,,,,,,,,,,,,,"MET07307/31/20 22:15:01 METAR KSQL 010615Z 31006KT 10SM CLR 16/12 A3003 RMK AO2","FM-15","7",,,,,,,,,,,,,,,,,,,,,,,,,,,,
"72493893231","2020-07-31T22:35:00","FM-15","7",,,,,,,,,,,,,,,,,,,,,,,,,,,,,,,,,,,,,,"30.03","54","61",,,,,"77",,"CLR:00","30.02","10.00","57","300",,"9",,,,,,,,,,,,,,,,,,,,,,,,,,,,,,,,,,,,,"MET07307/31/20 22:35:01 METAR KSQL 010635Z 30008KT 10SM CLR 16/12 A3003 RMK AO2","FM-15","7",,,,,,,,,,,,,,,,,,,,,,,,,,,,
"72493893231","2020-07-31T22:55:00","FM-15","7",,,,,,,,,,,,,,,,,,,,,,,,,,,,,,,,,,,,,,"30.03","54","59",,,,,"82",,"CLR:00","30.02","10.00","56","300",,"8",,,,,,,,,,,,,,,,,,,,,,,,,,,,,,,,,,,,,"MET07307/31/20 22:55:01 METAR KSQL 010655Z 30007KT 10SM CLR 15/12 A3003 RMK AO2","FM-15","7",,,,,,,,,,,,,,,,,,,,,,,,,,,,
"72493893231","2020-07-31T23:15:00","FM-15","7",,,,,,,,,,,,,,,,,,,,,,,,,,,,,,,,,,,,,,"30.03","54","59",,,,,"82",,"CLR:00","30.02","10.00","56","280",,"5",,,,,,,,,,,,,,,,,,,,,,,,,,,,,,,,,,,,,"MET07307/31/20 23:15:01 METAR KSQL 010715Z 28004KT 10SM CLR 15/12 A3003 RMK AO2","FM-15","7",,,,,,,,,,,,,,,,,,,,,,,,,,,,
"72493893231","2020-07-31T23:35:00","FM-15","7",,,,,,,,,,,,,,,,,,,,,,,,,,,,,,,,,,,,,,"30.02","54","59",,,,,"82",,"CLR:00","30.01","10.00","56","290",,"6",,,,,,,,,,,,,,,,,,,,,,,,,,,,,,,,,,,,,"MET07307/31/20 23:35:01 METAR KSQL 010735Z 29005KT 10SM CLR 15/12 A3002 RMK AO2","FM-15","7",,,,,,,,,,,,,,,,,,,,,,,,,,,,
"72493893231","2020-07-31T23:55:00","FM-15","7",,,,,,,,,,,,,,,,,,,,,,,,,,,,,,,,,,,,,,"30.02","54","59",,,,,"82",,"CLR:00","30.01","10.00","56","290",,"5",,,,,,,,,,,,,,,,,,,,,,,,,,,,,,,,,,,,,"MET07307/31/20 23:55:01 METAR KSQL 010755Z 29004KT 10SM CLR 15/12 A3002 RMK AO2","FM-15","7",,,,,,,,,,,,,,,,,,,,,,,,,,,,
"72493893231","2020-08-01T00:15:00","FM-15","7",,,,,,,,,,,,,,,,,,,,,,,,,,,,,,,,,,,,,,"30.02","54","59",,,,,"82",,"CLR:00","30.01","10.00","56","000",,"0",,,,,,,,,,,,,,,,,,,,,,,,,,,,,,,,,,,,,"MET07308/01/20 00:15:01 METAR KSQL 010815Z 00000KT 10SM CLR 15/12 A3002 RMK AO2","FM-15","7",,,,,,,,,,,,,,,,,,,,,,,,,,,,
"72493893231","2020-08-01T00:35:00","FM-15","7",,,,,,,,,,,,,,,,,,,,,,,,,,,,,,,,,,,,,,"30.02","54","59",,,,,"82",,"CLR:00","30.01","10.00","56","000",,"0",,,,,,,,,,,,,,,,,,,,,,,,,,,,,,,,,,,,,"MET07308/01/20 00:35:01 METAR KSQL 010835Z 00000KT 10SM CLR 15/12 A3002 RMK AO2","FM-15","7",,,,,,,,,,,,,,,,,,,,,,,,,,,,
"72493893231","2020-08-01T00:55:00","FM-15","7",,,,,,,,,,,,,,,,,,,,,,,,,,,,,,,,,,,,,,"30.02","54","59",,,,,"82",,"CLR:00","30.01","10.00","56","000",,"0",,,,,,,,,,,,,,,,,,,,,,,,,,,,,,,,,,,,,"MET07308/01/20 00:55:01 METAR KSQL 010855Z 00000KT 10SM CLR 15/12 A3002 RMK AO2","FM-15","7",,,,,,,,,,,,,,,,,,,,,,,,,,,,
"72493893231","2020-08-01T01:15:00","FM-15","7",,,,,,,,,,,,,,,,,,,,,,,,,,,,,,,,,,,,,,"30.02","52","59",,,,,"77",,"CLR:00","30.01","10.00","55","000",,"0",,,,,,,,,,,,,,,,,,,,,,,,,,,,,,,,,,,,,"MET07308/01/20 01:15:01 METAR KSQL 010915Z 00000KT 10SM CLR 15/11 A3002 RMK AO2","FM-15","7",,,,,,,,,,,,,,,,,,,,,,,,,,,,
"72493893231","2020-08-01T01:35:00","FM-15","7",,,,,,,,,,,,,,,,,,,,,,,,,,,,,,,,,,,,,,"30.01","54","59",,,,,"82",,"CLR:00","30.00","10.00","56","210",,"3",,,,,,,,,,,,,,,,,,,,,,,,,,,,,,,,,,,,,"MET07308/01/20 01:35:01 METAR KSQL 010935Z 21003KT 10SM CLR 15/12 A3001 RMK AO2","FM-15","7",,,,,,,,,,,,,,,,,,,,,,,,,,,,
"72493893231","2020-08-01T01:55:00","FM-15","7",,,,,,,,,,,,,,,,,,,,,,,,,,,,,,,,,,,,,,"30.01","52","59",,,,,"77",,"CLR:00","30.00","10.00","55","200",,"5",,,,,,,,,,,,,,,,,,,,,,,,,,,,,,,,,,,,,"MET07308/01/20 01:55:01 METAR KSQL 010955Z 20004KT 10SM CLR 15/11 A3001 RMK AO2","FM-15","7",,,,,,,,,,,,,,,,,,,,,,,,,,,,
"72493893231","2020-08-01T02:15:00","FM-15","7",,,,,,,,,,,,,,,,,,,,,,,,,,,,,,,,,,,,,,"30.01","54","59",,,,,"82",,"CLR:00","30.00","10.00","56","230",,"3",,,,,,,,,,,,,,,,,,,,,,,,,,,,,,,,,,,,,"MET07308/01/20 02:15:01 METAR KSQL 011015Z 23003KT 10SM CLR 15/12 A3001 RMK AO2","FM-15","7",,,,,,,,,,,,,,,,,,,,,,,,,,,,
"72493893231","2020-08-01T02:35:00","FM-15","7",,,,,,,,,,,,,,,,,,,,,,,,,,,,,,,,,,,,,,"30.02","54","59",,,,,"82",,"CLR:00","30.01","10.00","56","240",,"3",,,,,,,,,,,,,,,,,,,,,,,,,,,,,,,,,,,,,"MET07308/01/20 02:35:01 METAR KSQL 011035Z 24003KT 10SM CLR 15/12 A3002 RMK AO2","FM-15","7",,,,,,,,,,,,,,,,,,,,,,,,,,,,
"72493893231","2020-08-01T02:55:00","FM-15","7",,,,,,,,,,,,,,,,,,,,,,,,,,,,,,,,,,,,,,"30.02","55","59",,,,,"88",,"CLR:00","30.01","10.00","57","000",,"0",,,,,,,,,,,,,,,,,,,,,,,,,,,,,,,,,,,,,"MET07308/01/20 02:55:01 METAR KSQL 011055Z 00000KT 10SM CLR 15/13 A3002 RMK AO2","FM-15","7",,,,,,,,,,,,,,,,,,,,,,,,,,,,
"72493893231","2020-08-01T03:15:00","FM-15","7",,,,,,,,,,,,,,,,,,,,,,,,,,,,,,,,,,,,,,"30.01","54","59",,,,,"82",,"CLR:00","30.00","10.00","56","000",,"0",,,,,,,,,,,,,,,,,,,,,,,,,,,,,,,,,,,,,"MET07308/01/20 03:15:01 METAR KSQL 011115Z 00000KT 10SM CLR 15/12 A3001 RMK AO2","FM-15","7",,,,,,,,,,,,,,,,,,,,,,,,,,,,
"72493893231","2020-08-01T03:35:00","FM-15","7",,,,,,,,,,,,,,,,,,,,,,,,,,,,,,,,,,,,,,"30.02","54","57",,,,,"88",,"CLR:00","30.01","10.00","55","000",,"0",,,,,,,,,,,,,,,,,,,,,,,,,,,,,,,,,,,,,"MET07308/01/20 03:35:01 METAR KSQL 011135Z 00000KT 10SM CLR 14/12 A3002 RMK AO2","FM-15","7",,,,,,,,,,,,,,,,,,,,,,,,,,,,
"72493893231","2020-08-01T03:55:00","FM-15","7",,,,,,,,,,,,,,,,,,,,,,,,,,,,,,,,,,,,,,"30.02","54","57",,,,,"88",,"CLR:00","30.01","10.00","55","000",,"0",,,,,,,,,,,,,,,,,,,,,,,,,,,,,,,,,,,,,"MET07308/01/20 03:55:01 METAR KSQL 011155Z 00000KT 10SM CLR 14/12 A3002 RMK AO2","FM-15","7",,,,,,,,,,,,,,,,,,,,,,,,,,,,
"72493893231","2020-08-01T04:15:00","FM-15","7",,,,,,,,,,,,,,,,,,,,,,,,,,,,,,,,,,,,,,"30.02","54","57",,,,,"88",,"CLR:00","30.01","10.00","55","320",,"5",,,,,,,,,,,,,,,,,,,,,,,,,,,,,,,,,,,,,"MET07308/01/20 04:15:01 METAR KSQL 011215Z 32004KT 10SM CLR 14/12 A3002 RMK AO2","FM-15","7",,,,,,,,,,,,,,,,,,,,,,,,,,,,
"72493893231","2020-08-01T04:35:00","FM-15","7",,,,,,,,,,,,,,,,,,,,,,,,,,,,,,,,,,,,,,"30.02","54","57",,,,,"88",,"CLR:00","30.01","10.00","55","310",,"5",,,,,,,,,,,,,,,,,,,,,,,,,,,,,,,,,,,,,"MET07308/01/20 04:35:01 METAR KSQL 011235Z 31004KT 10SM CLR 14/12 A3002 RMK AO2","FM-15","7",,,,,,,,,,,,,,,,,,,,,,,,,,,,
"72493893231","2020-08-01T04:55:00","FM-15","7",,,,,,,,,,,,,,,,,,,,,,,,,,,,,,,,,,,,,,"30.03","54","57",,,,,"88",,"FEW:02 11","30.02","10.00","55","000",,"0",,,,,,,,,,,,,,,,,,,,,,,,,,,,,,,,,,,,,"MET07608/01/20 04:55:01 METAR KSQL 011255Z 00000KT 10SM FEW011 14/12 A3003 RMK AO2","FM-15","7",,,,,,,,,,,,,,,,,,,,,,,,,,,,
"72493893231","2020-08-01T05:15:00","FM-15","7",,,,,,,,,,,,,,,,,,,,,,,,,,,,,,,,,,,,,,"30.04","54","57",,,,,"88",,"BKN:07 11","30.03","10.00","55","000",,"0",,,,,,,,,,,,,,,,,,,,,,,,,,,,,,,,,,,,,"MET07608/01/20 05:15:01 METAR KSQL 011315Z 00000KT 10SM BKN011 14/12 A3004 RMK AO2","FM-15","7",,,,,,,,,,,,,,,,,,,,,,,,,,,,
"72493893231","2020-08-01T05:35:00","FM-15","7",,,,,,,,,,,,,,,,,,,,,,,,,,,,,,,,,,,,,,"30.04","54","57",,,,,"88",,"BKN:07 11","30.03","10.00","55","000",,"0",,,,,,,,,,,,,,,,,,,,,,,,,,,,,,,,,,,,,"MET07608/01/20 05:35:01 METAR KSQL 011335Z 00000KT 10SM BKN011 14/12 A3004 RMK AO2","FM-15","7",,,,,,,,,,,,,,,,,,,,,,,,,,,,
"72493893231","2020-08-01T05:55:00","FM-15","7",,,,,,,,,,,,,,,,,,,,,,,,,,,,,,,,,,,,,,"30.04","54","57",,,,,"88",,"CLR:00","30.03","10.00","55","000",,"0",,,,,,,,,,,,,,,,,,,,,,,,,,,,,,,,,,,,,"MET07308/01/20 05:55:01 METAR KSQL 011355Z 00000KT 10SM CLR 14/12 A3004 RMK AO2","FM-15","7",,,,,,,,,,,,,,,,,,,,,,,,,,,,
"72493893231","2020-08-01T06:00:00","FM-15","4",,,,,,,,,,,,,,,,,,,,,,,,,,,,,,,,,,,,,,"30.04","54","57",,,,,"88",,,,,,,,,,,,,,,,,,,,,,,,,,,,,,,,,,,,,,,,,,,,,"MET050METAR KSQL 011400Z CALMKT 10SM FEW009 14/12 A3004=","FM-15","4",,,,,,,,,,,,,,,,,,,,,,,,,,,,
"72493893231","2020-08-01T06:47:00","FM-15","7",,,,,,,,,,,,,,,,,,,,,,,,,,,,,,,,,,,,,,"30.06","55","61",,,,,"83",,"FEW:02 9","30.05","10.00","58","VRB",,"3",,,,,,,,,,,,,,,,,,,,,,,,,,,,,,,,,,,,,"MET07208/01/20 06:47:01 METAR KSQL 011447Z VRB03KT 10SM FEW009 16/13 A3006 RMK","FM-15","7",,,,,,,,,,,,,,,,,,,,,,,,,,,,
"72493893231","2020-08-01T07:47:00","FM-15","7",,,,,,,,,,,,,,,,,,,,,,,,,,,,,,,,,,,,,,"30.06","57","63",,,,,"83",,"SCT:04 13","30.05","10.00","60","000",,"0",,,,,,,,,,,,,,,,,,,,,,,,,,,,,,,,,,,,,"MET07208/01/20 07:47:01 METAR KSQL 011547Z 00000KT 10SM SCT013 17/14 A3006 RMK","FM-15","7",,,,,,,,,,,,,,,,,,,,,,,,,,,,
"72493893231","2020-08-01T08:47:00","FM-15","7",,,,,,,,,,,,,,,,,,,,,,,,,,,,,,,,,,,,,,"30.06","57","64",,,,,"78",,"SCT:04 14","30.05","10.00","60","030",,"7",,,,,,,,,,,,,,,,,,,,,,,,,,,,,,,,,,,,,"MET07208/01/20 08:47:01 METAR KSQL 011647Z 03006KT 10SM SCT014 18/14 A3006 RMK","FM-15","7",,,,,,,,,,,,,,,,,,,,,,,,,,,,
"72493893231","2020-08-01T09:47:00","FM-15","7",,,,,,,,,,,,,,,,,,,,,,,,,,,,,,,,,,,,,,"30.06","57","66",,,,,"73",,"*","30.05","10.00","61","040",,"7",,,,,,,,,,,,,,,,,,,,,,,,,,,,,,,,,,,,,"MET06908/01/20 09:47:01 METAR KSQL 011747Z 04006KT 10SM SKC 19/14 A3006 RMK","FM-15","7",,,,,,,,,,,,,,,,,,,,,,,,,,,,
"72493893231","2020-08-01T10:47:00","FM-15","7",,,,,,,,,,,,,,,,,,,,,,,,,,,,,,,,,,,,,,"30.06","57","66",,,,,"73",,"*","30.05","10.00","61","010",,"8",,,,,,,,,,,,,,,,,,,,,,,,,,,,,,,,,,,,,"MET06908/01/20 10:47:01 METAR KSQL 011847Z 01007KT 10SM SKC 19/14 A3006 RMK","FM-15","7",,,,,,,,,,,,,,,,,,,,,,,,,,,,
"72493893231","2020-08-01T11:47:00","FM-15","7",,,,,,,,,,,,,,,,,,,,,,,,,,,,,,,,,,,,,,"30.04","57","72",,,,,"61",,"*","30.03","10.00","63","340",,"9",,,,,,,,,,,,,,,,,,,,,,,,,,,,,,,,,,,,,"MET06908/01/20 11:47:01 METAR KSQL 011947Z 34008KT 10SM SKC 22/14 A3004 RMK","FM-15","7",,,,,,,,,,,,,,,,,,,,,,,,,,,,
"72493893231","2020-08-01T12:47:00","FM-15","7",,,,,,,,,,,,,,,,,,,,,,,,,,,,,,,,,,,,,,"30.03","57","73",,,,,"57",,"*","30.02","10.00","63","330",,"14",,,,,,,,,,,,,,,,,,,,,,,,,,,,,,,,,,,,,"MET06908/01/20 12:47:01 METAR KSQL 012047Z 33012KT 10SM SKC 23/14 A3003 RMK","FM-15","7",,,,,,,,,,,,,,,,,,,,,,,,,,,,
"72493893231","2020-08-01T13:47:00","FM-15","7",,,,,,,,,,,,,,,,,,,,,,,,,,,,,,,,,,,,,,"30.01","57","75",,,,,"54",,"*","30.00","10.00","64","340",,"10",,,,,,,,,,,,,,,,,,,,,,,,,,,,,,,,,,,,,"MET06908/01/20 13:47:01 METAR KSQL 012147Z 34009KT 10SM SKC 24/14 A3001 RMK","FM-15","7",,,,,,,,,,,,,,,,,,,,,,,,,,,,
"72493893231","2020-08-01T14:47:00","FM-15","7",,,,,,,,,,,,,,,,,,,,,,,,,,,,,,,,,,,,,,"30.00","54","77",,,,,"44",,"*","29.99","10.00","63","250",,"10",,,,,,,,,,,,,,,,,,,,,,,,,,,,,,,,,,,,,"MET06908/01/20 14:47:01 METAR KSQL 012247Z 25009KT 10SM SKC 25/12 A3000 RMK","FM-15","7",,,,,,,,,,,,,,,,,,,,,,,,,,,,
"72493893231","2020-08-01T15:47:00","FM-15","7",,,,,,,,,,,,,,,,,,,,,,,,,,,,,,,,,,,,,,"30.00","54","75",,,,,"47",,"*","29.99","10.00","63","250",,"11",,,,,,,,,,,,,,,,,,,,,,,,,,,,,,,,,,,,,"MET06908/01/20 15:47:01 METAR KSQL 012347Z 25010KT 10SM SKC 24/12 A3000 RMK","FM-15","7",,,,,,,,,,,,,,,,,,,,,,,,,,,,
"72493893231","2020-08-01T16:47:00","FM-15","7",,,,,,,,,,,,,,,,,,,,,,,,,,,,,,,,,,,,,,"29.99","57","73",,,,,"57",,"*","29.98","10.00","63","340",,"8",,,,,,,,,,,,,,,,,,,,,,,,,,,,,,,,,,,,,"MET06908/01/20 16:47:01 METAR KSQL 020047Z 34007KT 10SM SKC 23/14 A2999 RMK","FM-15","7",,,,,,,,,,,,,,,,,,,,,,,,,,,,
"72493893231","2020-08-01T17:47:00","FM-15","7",,,,,,,,,,,,,,,,,,,,,,,,,,,,,,,,,,,,,,"30.00","54","72",,,,,"53",,"*","29.99","10.00","62","250",,"9",,,,,,,,,,,,,,,,,,,,,,,,,,,,,,,,,,,,,"MET06908/01/20 17:47:01 METAR KSQL 020147Z 25008KT 10SM SKC 22/12 A3000 RMK","FM-15","7",,,,,,,,,,,,,,,,,,,,,,,,,,,,
"72493893231","2020-08-01T18:47:00","FM-15","7",,,,,,,,,,,,,,,,,,,,,,,,,,,,,,,,,,,,,,"30.00","54","66",,,,,"64",,"*","29.99","10.00","59","250",,"9",,,,,,,,,,,,,,,,,,,,,,,,,,,,,,,,,,,,,"MET06908/01/20 18:47:01 METAR KSQL 020247Z 25008KT 10SM SKC 19/12 A3000 RMK","FM-15","7",,,,,,,,,,,,,,,,,,,,,,,,,,,,
"72493893231","2020-08-01T19:47:00","FM-15","7",,,,,,,,,,,,,,,,,,,,,,,,,,,,,,,,,,,,,,"30.01","54","63",,,,,"73",,"*","30.00","10.00","58","300",,"8",,,,,,,,,,,,,,,,,,,,,,,,,,,,,,,,,,,,,"MET07708/01/20 19:47:01 METAR KSQL 020347Z 30007KT 10SM SKC 17/12 A3001 RMK LAST QT","FM-15","7",,,,,,,,,,,,,,,,,,,,,,,,,,,,
"72493893231","2020-08-01T20:15:00","FM-15","7",,,,,,,,,,,,,,,,,,,,,,,,,,,,,,,,,,,,,,"30.01","54","63",,,,,"73",,"CLR:00","30.00","10.00","58","280",,"7",,,,,,,,,,,,,,,,,,,,,,,,,,,,,,,,,,,,,"MET07308/01/20 20:15:01 METAR KSQL 020415Z 28006KT 10SM CLR 17/12 A3001 RMK AO2","FM-15","7",,,,,,,,,,,,,,,,,,,,,,,,,,,,
"72493893231","2020-08-01T20:35:00","FM-15","7",,,,,,,,,,,,,,,,,,,,,,,,,,,,,,,,,,,,,,"30.02","54","63",,,,,"73",,"CLR:00","30.01","10.00","58","290",,"8",,,,,,,,,,,,,,,,,,,,,,,,,,,,,,,,,,,,,"MET07308/01/20 20:35:01 METAR KSQL 020435Z 29007KT 10SM CLR 17/12 A3002 RMK AO2","FM-15","7",,,,,,,,,,,,,,,,,,,,,,,,,,,,
"72493893231","2020-08-01T20:55:00","FM-15","7",,,,,,,,,,,,,,,,,,,,,,,,,,,,,,,,,,,,,,"30.02","54","63",,,,,"73",,"CLR:00","30.01","10.00","58","300",,"7",,,,,,,,,,,,,,,,,,,,,,,,,,,,,,,,,,,,,"MET07308/01/20 20:55:01 METAR KSQL 020455Z 30006KT 10SM CLR 17/12 A3002 RMK AO2","FM-15","7",,,,,,,,,,,,,,,,,,,,,,,,,,,,
"72493893231","2020-08-01T21:15:00","FM-15","7",,,,,,,,,,,,,,,,,,,,,,,,,,,,,,,,,,,,,,"30.02","54","63",,,,,"73",,"CLR:00","30.01","10.00","58","290",,"7",,,,,,,,,,,,,,,,,,,,,,,,,,,,,,,,,,,,,"MET07308/01/20 21:15:01 METAR KSQL 020515Z 29006KT 10SM CLR 17/12 A3002 RMK AO2","FM-15","7",,,,,,,,,,,,,,,,,,,,,,,,,,,,
"72493893231","2020-08-01T21:35:00","FM-15","7",,,,,,,,,,,,,,,,,,,,,,,,,,,,,,,,,,,,,,"30.02","54","63",,,,,"73",,"CLR:00","30.01","10.00","58","290",,"5",,,,,,,,,,,,,,,,,,,,,,,,,,,,,,,,,,,,,"MET07308/01/20 21:35:01 METAR KSQL 020535Z 29004KT 10SM CLR 17/12 A3002 RMK AO2","FM-15","7",,,,,,,,,,,,,,,,,,,,,,,,,,,,
"72493893231","2020-08-01T21:55:00","FM-15","7",,,,,,,,,,,,,,,,,,,,,,,,,,,,,,,,,,,,,,"30.03","54","63",,,,,"73",,"CLR:00","30.02","10.00","58","310",,"7",,,,,,,,,,,,,,,,,,,,,,,,,,,,,,,,,,,,,"MET07308/01/20 21:55:01 METAR KSQL 020555Z 31006KT 10SM CLR 17/12 A3003 RMK AO2","FM-15","7",,,,,,,,,,,,,,,,,,,,,,,,,,,,
"72493893231","2020-08-01T22:15:00","FM-15","7",,,,,,,,,,,,,,,,,,,,,,,,,,,,,,,,,,,,,,"30.03","54","63",,,,,"73",,"CLR:00","30.02","10.00","58","290",,"5",,,,,,,,,,,,,,,,,,,,,,,,,,,,,,,,,,,,,"MET07308/01/20 22:15:02 METAR KSQL 020615Z 29004KT 10SM CLR 17/12 A3003 RMK AO2","FM-15","7",,,,,,,,,,,,,,,,,,,,,,,,,,,,
"72493893231","2020-08-01T22:35:00","FM-15","7",,,,,,,,,,,,,,,,,,,,,,,,,,,,,,,,,,,,,,"30.03","54","63",,,,,"73",,"CLR:00","30.02","10.00","58","280",,"6",,,,,,,,,,,,,,,,,,,,,,,,,,,,,,,,,,,,,"MET07308/01/20 22:35:01 METAR KSQL 020635Z 28005KT 10SM CLR 17/12 A3003 RMK AO2","FM-15","7",,,,,,,,,,,,,,,,,,,,,,,,,,,,
"72493893231","2020-08-01T22:55:00","FM-15","7",,,,,,,,,,,,,,,,,,,,,,,,,,,,,,,,,,,,,,"30.03","54","63",,,,,"73",,"CLR:00","30.02","10.00","58","280",,"3",,,,,,,,,,,,,,,,,,,,,,,,,,,,,,,,,,,,,"MET07308/01/20 22:55:01 METAR KSQL 020655Z 28003KT 10SM CLR 17/12 A3003 RMK AO2","FM-15","7",,,,,,,,,,,,,,,,,,,,,,,,,,,,
"72493893231","2020-08-01T23:15:00","FM-15","7",,,,,,,,,,,,,,,,,,,,,,,,,,,,,,,,,,,,,,"30.03","54","63",,,,,"73",,"CLR:00","30.02","10.00","58","280",,"6",,,,,,,,,,,,,,,,,,,,,,,,,,,,,,,,,,,,,"MET07308/01/20 23:15:02 METAR KSQL 020715Z 28005KT 10SM CLR 17/12 A3003 RMK AO2","FM-15","7",,,,,,,,,,,,,,,,,,,,,,,,,,,,
"72493893231","2020-08-01T23:35:00","FM-15","7",,,,,,,,,,,,,,,,,,,,,,,,,,,,,,,,,,,,,,"30.03","54","61",,,,,"77",,"CLR:00","30.02","10.00","57","270",,"3",,,,,,,,,,,,,,,,,,,,,,,,,,,,,,,,,,,,,"MET07308/01/20 23:35:02 METAR KSQL 020735Z 27003KT 10SM CLR 16/12 A3003 RMK AO2","FM-15","7",,,,,,,,,,,,,,,,,,,,,,,,,,,,
"72493893231","2020-08-01T23:55:00","FM-15","7",,,,,,,,,,,,,,,,,,,,,,,,,,,,,,,,,,,,,,"30.03","54","61",,,,,"77",,"CLR:00","30.02","10.00","57","300",,"6",,,,,,,,,,,,,,,,,,,,,,,,,,,,,,,,,,,,,"MET07308/01/20 23:55:02 METAR KSQL 020755Z 30005KT 10SM CLR 16/12 A3003 RMK AO2","FM-15","7",,,,,,,,,,,,,,,,,,,,,,,,,,,,
"72493893231","2020-08-02T00:15:00","FM-15","7",,,,,,,,,,,,,,,,,,,,,,,,,,,,,,,,,,,,,,"30.03","54","61",,,,,"77",,"CLR:00","30.02","10.00","57","300",,"6",,,,,,,,,,,,,,,,,,,,,,,,,,,,,,,,,,,,,"MET07308/02/20 00:15:02 METAR KSQL 020815Z 30005KT 10SM CLR 16/12 A3003 RMK AO2","FM-15","7",,,,,,,,,,,,,,,,,,,,,,,,,,,,
"72493893231","2020-08-02T00:35:00","FM-15","7",,,,,,,,,,,,,,,,,,,,,,,,,,,,,,,,,,,,,,"30.03","55","59",,,,,"88",,"CLR:00","30.02","10.00","57","000",,"0",,,,,,,,,,,,,,,,,,,,,,,,,,,,,,,,,,,,,"MET07308/02/20 00:35:02 METAR KSQL 020835Z 00000KT 10SM CLR 15/13 A3003 RMK AO2","FM-15","7",,,,,,,,,,,,,,,,,,,,,,,,,,,,
"72493893231","2020-08-02T00:55:00","FM-15","7",,,,,,,,,,,,,,,,,,,,,,,,,,,,,,,,,,,,,,"30.03","55","59",,,,,"88",,"CLR:00","30.02","10.00","57","270",,"3",,,,,,,,,,,,,,,,,,,,,,,,,,,,,,,,,,,,,"MET07308/02/20 00:55:02 METAR KSQL 020855Z 27003KT 10SM CLR 15/13 A3003 RMK AO2","FM-15","7",,,,,,,,,,,,,,,,,,,,,,,,,,,,
"72493893231","2020-08-02T01:15:00","FM-15","7",,,,,,,,,,,,,,,,,,,,,,,,,,,,,,,,,,,,,,"30.03","54","59",,,,,"82",,"CLR:00","30.02","10.00","56","310",,"5",,,,,,,,,,,,,,,,,,,,,,,,,,,,,,,,,,,,,"MET07308/02/20 01:15:02 METAR KSQL 020915Z 31004KT 10SM CLR 15/12 A3003 RMK AO2","FM-15","7",,,,,,,,,,,,,,,,,,,,,,,,,,,,
"72493893231","2020-08-02T01:35:00","FM-15","7",,,,,,,,,,,,,,,,,,,,,,,,,,,,,,,,,,,,,,"30.03","55","59",,,,,"88",,"CLR:00","30.02","10.00","57","310",,"6",,,,,,,,,,,,,,,,,,,,,,,,,,,,,,,,,,,,,"MET07308/02/20 01:35:02 METAR KSQL 020935Z 31005KT 10SM CLR 15/13 A3003 RMK AO2","FM-15","7",,,,,,,,,,,,,,,,,,,,,,,,,,,,
"72493893231","2020-08-02T01:55:00","FM-15","7",,,,,,,,,,,,,,,,,,,,,,,,,,,,,,,,,,,,,,"30.02","55","59",,,,,"88",,"CLR:00","30.01","10.00","57","310",,"6",,,,,,,,,,,,,,,,,,,,,,,,,,,,,,,,,,,,,"MET07308/02/20 01:55:02 METAR KSQL 020955Z 31005KT 10SM CLR 15/13 A3002 RMK AO2","FM-15","7",,,,,,,,,,,,,,,,,,,,,,,,,,,,
"72493893231","2020-08-02T02:15:00","FM-15","7",,,,,,,,,,,,,,,,,,,,,,,,,,,,,,,,,,,,,,"30.02","55","59",,,,,"88",,"CLR:00","30.01","10.00","57","000",,"0",,,,,,,,,,,,,,,,,,,,,,,,,,,,,,,,,,,,,"MET07308/02/20 02:15:02 METAR KSQL 021015Z 00000KT 10SM CLR 15/13 A3002 RMK AO2","FM-15","7",,,,,,,,,,,,,,,,,,,,,,,,,,,,
"72493893231","2020-08-02T02:35:00","FM-15","7",,,,,,,,,,,,,,,,,,,,,,,,,,,,,,,,,,,,,,"30.02","54","59",,,,,"82",,"SCT:04 11","30.01","10.00","56","310",,"6",,,,,,,,,,,,,,,,,,,,,,,,,,,,,,,,,,,,,"MET07608/02/20 02:35:02 METAR KSQL 021035Z 31005KT 10SM SCT011 15/12 A3002 RMK AO2","FM-15","7",,,,,,,,,,,,,,,,,,,,,,,,,,,,
"72493893231","2020-08-02T02:55:00","FM-15","7",,,,,,,,,,,,,,,,,,,,,,,,,,,,,,,,,,,,,,"30.02","54","57",,,,,"88",,"BKN:07 11","30.01","10.00","55","310",,"6",,,,,,,,,,,,,,,,,,,,,,,,,,,,,,,,,,,,,"MET07608/02/20 02:55:02 METAR KSQL 021055Z 31005KT 10SM BKN011 14/12 A3002 RMK AO2","FM-15","7",,,,,,,,,,,,,,,,,,,,,,,,,,,,
"72493893231","2020-08-02T03:15:00","FM-15","7",,,,,,,,,,,,,,,,,,,,,,,,,,,,,,,,,,,,,,"30.02","54","59",,,,,"82",,"OVC:08 9","30.01","10.00","56","310",,"3",,,,,,,,,,,,,,,,,,,,,,,,,,,,,,,,,,,,,"MET07608/02/20 03:15:02 METAR KSQL 021115Z 31003KT 10SM OVC009 15/12 A3002 RMK AO2","FM-15","7",,,,,,,,,,,,,,,,,,,,,,,,,,,,
"72493893231","2020-08-02T03:35:00","FM-15","7",,,,,,,,,,,,,,,,,,,,,,,,,,,,,,,,,,,,,,"30.02","55","59",,,,,"88",,"OVC:08 9","30.01","10.00","57","000",,"0",,,,,,,,,,,,,,,,,,,,,,,,,,,,,,,,,,,,,"MET07608/02/20 03:35:02 METAR KSQL 021135Z 00000KT 10SM OVC009 15/13 A3002 RMK AO2","FM-15","7",,,,,,,,,,,,,,,,,,,,,,,,,,,,
"72493893231","2020-08-02T03:55:00","FM-15","7",,,,,,,,,,,,,,,,,,,,,,,,,,,,,,,,,,,,,,"30.02","55","59",,,,,"88",,"BKN:07 9","30.01","10.00","57","220",,"3",,,,,,,,,,,,,,,,,,,,,,,,,,,,,,,,,,,,,"MET07608/02/20 03:55:02 METAR KSQL 021155Z 22003KT 10SM BKN009 15/13 A3002 RMK AO2","FM-15","7",,,,,,,,,,,,,,,,,,,,,,,,,,,,
"72493893231","2020-08-02T04:15:00","FM-15","7",,,,,,,,,,,,,,,,,,,,,,,,,,,,,,,,,,,,,,"30.02","55","59",,,,,"88",,"BKN:07 9","30.01","10.00","57","000",,"0",,,,,,,,,,,,,,,,,,,,,,,,,,,,,,,,,,,,,"MET07608/02/20 04:15:02 METAR KSQL 021215Z 00000KT 10SM BKN009 15/13 A3002 RMK AO2","FM-15","7",,,,,,,,,,,,,,,,,,,,,,,,,,,,
"72493893231","2020-08-02T04:35:00","FM-15","7",,,,,,,,,,,,,,,,,,,,,,,,,,,,,,,,,,,,,,"30.03","55","59",,,,,"88",,"OVC:08 9","30.02","10.00","57","220",,"3",,,,,,,,,,,,,,,,,,,,,,,,,,,,,,,,,,,,,"MET07608/02/20 04:35:02 METAR KSQL 021235Z 22003KT 10SM OVC009 15/13 A3003 RMK AO2","FM-15","7",,,,,,,,,,,,,,,,,,,,,,,,,,,,
"72493893231","2020-08-02T04:55:00","FM-15","7",,,,,,,,,,,,,,,,,,,,,,,,,,,,,,,,,,,,,,"30.03","55","59",,,,,"88",,"BKN:07 9","30.02","10.00","57","000",,"0",,,,,,,,,,,,,,,,,,,,,,,,,,,,,,,,,,,,,"MET07608/02/20 04:55:02 METAR KSQL 021255Z 00000KT 10SM BKN009 15/13 A3003 RMK AO2","FM-15","7",,,,,,,,,,,,,,,,,,,,,,,,,,,,
"72493893231","2020-08-02T05:15:00","FM-15","7",,,,,,,,,,,,,,,,,,,,,,,,,,,,,,,,,,,,,,"30.03","55","59",,,,,"88",,"BKN:07 9","30.02","10.00","57","000",,"0",,,,,,,,,,,,,,,,,,,,,,,,,,,,,,,,,,,,,"MET07608/02/20 05:15:02 METAR KSQL 021315Z 00000KT 10SM BKN009 15/13 A3003 RMK AO2","FM-15","7",,,,,,,,,,,,,,,,,,,,,,,,,,,,
"72493893231","2020-08-02T05:35:00","FM-15","7",,,,,,,,,,,,,,,,,,,,,,,,,,,,,,,,,,,,,,"30.03","55","59",,,,,"88",,"BKN:07 9","30.02","10.00","57","240",,"3",,,,,,,,,,,,,,,,,,,,,,,,,,,,,,,,,,,,,"MET07608/02/20 05:35:02 METAR KSQL 021335Z 24003KT 10SM BKN009 15/13 A3003 RMK AO2","FM-15","7",,,,,,,,,,,,,,,,,,,,,,,,,,,,
"72493893231","2020-08-02T05:47:00","FM-15","4",,,,,,,,,,,,,,,,,,,,,,,,,,,,,,,,,,,,,,"30.04","55","59",,,,,"88",,,,"10.00",,"000",,"0",,,,,,,,,,,,,,,,,,,,,,,,,,,,,,,,,,,,,"MET051METAR KSQL 021347Z 00000KT 10SM BKN011 15/13 A3004=","FM-15","4",,,,,,,,,,,,,,,,,,,,,,,,,,,,
"72493893231","2020-08-02T05:55:00","FM-15","7",,,,,,,,,,,,,,,,,,,,,,,,,,,,,,,,,,,,,,"30.04","55","57",,,,,"94",,"BKN:07 9","30.03","10.00","56","240",,"3",,,,,,,,,,,,,,,,,,,,,,,,,,,,,,,,,,,,,"MET07608/02/20 05:55:02 METAR KSQL 021355Z 24003KT 10SM BKN009 14/13 A3004 RMK AO2","FM-15","7",,,,,,,,,,,,,,,,,,,,,,,,,,,,
"72493893231","2020-08-02T06:47:00","FM-15","7",,,,,,,,,,,,,,,,,,,,,,,,,,,,,,,,,,,,,,"30.05","55","61",,,,,"83",,"FEW:02 13","30.04","10.00","58","000",,"0",,,,,,,,,,,,,,,,,,,,,,,,,,,,,,,,,,,,,"MET07208/02/20 06:47:02 METAR KSQL 021447Z 00000KT 10SM FEW013 16/13 A3005 RMK","FM-15","7",,,,,,,,,,,,,,,,,,,,,,,,,,,,
"72493893231","2020-08-02T07:47:00","FM-15","7",,,,,,,,,,,,,,,,,,,,,,,,,,,,,,,,,,,,,,"30.06","55","64",,,,,"73",,"SCT:04 8","30.05","10.00","59","090",,"3",,,,,,,,,,,,,,,,,,,,,,,,,,,,,,,,,,,,,"MET07208/02/20 07:47:02 METAR KSQL 021547Z 09003KT 10SM SCT008 18/13 A3006 RMK","FM-15","7",,,,,,,,,,,,,,,,,,,,,,,,,,,,
"72493893231","2020-08-02T08:47:00","FM-15","7",,,,,,,,,,,,,,,,,,,,,,,,,,,,,,,,,,,,,,"30.06","57","64",,,,,"78",,"SCT:04 10","30.05","10.00","60","VRB",,"3",,,,,,,,,,,,,,,,,,,,,,,,,,,,,,,,,,,,,"MET07208/02/20 08:47:02 METAR KSQL 021647Z VRB03KT 10SM SCT010 18/14 A3006 RMK","FM-15","7",,,,,,,,,,,,,,,,,,,,,,,,,,,,
"72493893231","2020-08-02T09:47:00","FM-15","7",,,,,,,,,,,,,,,,,,,,,,,,,,,,,,,,,,,,,,"30.06","59","64",,,,,"83",,"FEW:02 10","30.05","10.00","61","020",,"7",,,,,,,,,,,,,,,,,,,,,,,,,,,,,,,,,,,,,"MET07208/02/20 09:47:02 METAR KSQL 021747Z 02006KT 10SM FEW010 18/15 A3006 RMK","FM-15","7",,,,,,,,,,,,,,,,,,,,,,,,,,,,
"72493893231","2020-08-02T10:55:00","FM-15","7",,,,,,,,,,,,,,,,,,,,,,,,,,,,,,,,,,,,,,"30.05","57","66",,,,,"73",,"FEW:02 10","30.04","10.00","61","360",,"9",,,,,,,,,,,,,,,,,,,,,,,,,,,,,,,,,,,,,"MET07208/02/20 10:55:02 METAR KSQL 021855Z 36008KT 10SM FEW010 19/14 A3005 RMK","FM-15","7",,,,,,,,,,,,,,,,,,,,,,,,,,,,
"72493893231","2020-08-02T11:51:00","FM-15","7",,,,,,,,,,,,,,,,,,,,,,,,,,,,,,,,,,,,,,"30.04","57","66",,,,,"73",,"FEW:02 10","30.03","10.00","61","360",,"11",,,,,,,,,,,,,,,,,,,,,,,,,,,,,,,,,,,,,"MET07208/02/20 11:51:02 METAR KSQL 021951Z 36010KT 10SM FEW010 19/14 A3004 RMK","FM-15","7",,,,,,,,,,,,,,,,,,,,,,,,,,,,
"72493893231","2020-08-02T12:47:00","FM-15","7",,,,,,,,,,,,,,,,,,,,,,,,,,,,,,,,,,,,,,"30.03","59","72",,,,,"65",,"FEW:02 10","30.02","10.00","64","360",,"10",,,,,,,,,,,,,,,,,,,,,,,,,,,,,,,,,,,,,"MET07208/02/20 12:47:02 METAR KSQL 022047Z 36009KT 10SM FEW010 22/15 A3003 RMK","FM-15","7",,,,,,,,,,,,,,,,,,,,,,,,,,,,
"72493893231","2020-08-02T13:58:00","FM-15","7",,,,,,,,,,,,,,,,,,,,,,,,,,,,,,,,,,,,,,"30.02","52","77",,,,,"42",,"FEW:02 10","30.01","10.00","62","260",,"10",,,,,,,,,,,,,,,,,,,,,,,,,,,,,,,,,,,,,"MET07208/02/20 13:58:02 METAR KSQL 022158Z 26009KT 10SM FEW010 25/11 A3002 RMK","FM-15","7",,,,,,,,,,,,,,,,,,,,,,,,,,,,
"72493893231","2020-08-02T14:48:00","FM-15","7",,,,,,,,,,,,,,,,,,,,,,,,,,,,,,,,,,,,,,"30.03","52","77",,,,,"42",,"FEW:02 10","30.02","10.00","62","250",,"13",,,,,,,,,,,,,,,,,,,,,,,,,,,,,,,,,,,,,"MET07208/02/20 14:48:02 METAR KSQL 022248Z 25011KT 10SM FEW010 25/11 A3003 RMK","FM-15","7",,,,,,,,,,,,,,,,,,,,,,,,,,,,
"72493893231","2020-08-02T15:47:00","FM-15","7",,,,,,,,,,,,,,,,,,,,,,,,,,,,,,,,,,,,,,"30.02","52","75",,,,,"44",,"FEW:02 10","30.01","10.00","62","250",,"11",,,,,,,,,,,,,,,,,,,,,,,,,,,,,,,,,,,,,"MET07208/02/20 15:47:02 METAR KSQL 022347Z 25010KT 10SM FEW010 24/11 A3002 RMK","FM-15","7",,,,,,,,,,,,,,,,,,,,,,,,,,,,
"72493893231","2020-08-02T17:58:00","FM-15","7",,,,,,,,,,,,,,,,,,,,,,,,,,,,,,,,,,,,,,"30.02","54","68",,,,,"60",,"*","30.01","10.00","60","250",,"10",,,,,,,,,,,,,,,,,,,,,,,,,,,,,,,,,,,,,"MET06908/02/20 17:58:01 METAR KSQL 030158Z 25009KT 10SM SKC 20/12 A3002 RMK","FM-15","7",,,,,,,,,,,,,,,,,,,,,,,,,,,,
"72493893231","2020-08-02T18:58:00","FM-15","7",,,,,,,,,,,,,,,,,,,,,,,,,,,,,,,,,,,,,,"30.02","54","66",,,,,"64",,"*","30.01","10.00","59","260",,"7",,,,,,,,,,,,,,,,,,,,,,,,,,,,,,,,,,,,,"MET06908/02/20 18:58:02 METAR KSQL 030258Z 26006KT 10SM SKC 19/12 A3002 RMK","FM-15","7",,,,,,,,,,,,,,,,,,,,,,,,,,,,
"72493893231","2020-08-02T19:56:00","FM-15","7",,,,,,,,,,,,,,,,,,,,,,,,,,,,,,,,,,,,,,"30.03","50","66",,,,,"56",,"SCT:04 200","30.02","10.00","57","250",,"5",,,,,,,,,,,,,,,,,,,,,,,,,,,,,,,,,,,,,"MET07708/02/20 19:56:02 METAR KSQL 030356Z 25004KT 10SM SCT200 19/10 A3003 RMK LAST","FM-15","7",,,,,,,,,,,,,,,,,,,,,,,,,,,,
"72493893231","2020-08-02T20:15:00","FM-15","7",,,,,,,,,,,,,,,,,,,,,,,,,,,,,,,,,,,,,,"30.03","54","66",,,,,"64",,"CLR:00","30.02","10.00","59","360",,"5",,,,,,,,,,,,,,,,,,,,,,,,,,,,,,,,,,,,,"MET07308/02/20 20:15:02 METAR KSQL 030415Z 36004KT 10SM CLR 19/12 A3003 RMK AO2","FM-15","7",,,,,,,,,,,,,,,,,,,,,,,,,,,,
"72493893231","2020-08-02T20:35:00","FM-15","7",,,,,,,,,,,,,,,,,,,,,,,,,,,,,,,,,,,,,,"30.04","54","64",,,,,"68",,"CLR:00","30.03","10.00","58","280",,"3",,,,,,,,,,,,,,,,,,,,,,,,,,,,,,,,,,,,,"MET07308/02/20 20:35:02 METAR KSQL 030435Z 28003KT 10SM CLR 18/12 A3004 RMK AO2","FM-15","7",,,,,,,,,,,,,,,,,,,,,,,,,,,,
"72493893231","2020-08-02T20:55:00","FM-15","7",,,,,,,,,,,,,,,,,,,,,,,,,,,,,,,,,,,,,,"30.04","54","66",,,,,"64",,"CLR:00","30.03","10.00","59","000",,"0",,,,,,,,,,,,,,,,,,,,,,,,,,,,,,,,,,,,,"MET07308/02/20 20:55:02 METAR KSQL 030455Z 00000KT 10SM CLR 19/12 A3004 RMK AO2","FM-15","7",,,,,,,,,,,,,,,,,,,,,,,,,,,,
"72493893231","2020-08-02T21:15:00","FM-15","7",,,,,,,,,,,,,,,,,,,,,,,,,,,,,,,,,,,,,,"30.04","50","66",,,,,"56",,"CLR:00","30.03","10.00","57","230",,"3",,,,,,,,,,,,,,,,,,,,,,,,,,,,,,,,,,,,,"MET07308/02/20 21:15:02 METAR KSQL 030515Z 23003KT 10SM CLR 19/10 A3004 RMK AO2","FM-15","7",,,,,,,,,,,,,,,,,,,,,,,,,,,,
"72493893231","2020-08-02T21:35:00","FM-15","7",,,,,,,,,,,,,,,,,,,,,,,,,,,,,,,,,,,,,,"30.04","50","64",,,,,"60",,"CLR:00","30.03","10.00","56","000",,"0",,,,,,,,,,,,,,,,,,,,,,,,,,,,,,,,,,,,,"MET07308/02/20 21:35:02 METAR KSQL 030535Z 00000KT 10SM CLR 18/10 A3004 RMK AO2","FM-15","7",,,,,,,,,,,,,,,,,,,,,,,,,,,,
"72493893231","2020-08-02T21:55:00","FM-15","7",,,,,,,,,,,,,,,,,,,,,,,,,,,,,,,,,,,,,,"30.04","52","64",,,,,"64",,"CLR:00","30.03","10.00","57","270",,"5",,,,,,,,,,,,,,,,,,,,,,,,,,,,,,,,,,,,,"MET07308/02/20 21:55:02 METAR KSQL 030555Z 27004KT 10SM CLR 18/11 A3004 RMK AO2","FM-15","7",,,,,,,,,,,,,,,,,,,,,,,,,,,,
"72493893231","2020-08-02T22:15:00","FM-15","7",,,,,,,,,,,,,,,,,,,,,,,,,,,,,,,,,,,,,,"30.04","52","64",,,,,"64",,"CLR:00","30.03","10.00","57","310",,"6",,,,,,,,,,,,,,,,,,,,,,,,,,,,,,,,,,,,,"MET07308/02/20 22:15:02 METAR KSQL 030615Z 31005KT 10SM CLR 18/11 A3004 RMK AO2","FM-15","7",,,,,,,,,,,,,,,,,,,,,,,,,,,,
"72493893231","2020-08-02T22:35:00","FM-15","7",,,,,,,,,,,,,,,,,,,,,,,,,,,,,,,,,,,,,,"30.04","52","64",,,,,"64",,"CLR:00","30.03","10.00","57","310",,"5",,,,,,,,,,,,,,,,,,,,,,,,,,,,,,,,,,,,,"MET07308/02/20 22:35:02 METAR KSQL 030635Z 31004KT 10SM CLR 18/11 A3004 RMK AO2","FM-15","7",,,,,,,,,,,,,,,,,,,,,,,,,,,,
"72493893231","2020-08-02T22:55:00","FM-15","7",,,,,,,,,,,,,,,,,,,,,,,,,,,,,,,,,,,,,,"30.04","52","64",,,,,"64",,"CLR:00","30.03","10.00","57","000",,"0",,,,,,,,,,,,,,,,,,,,,,,,,,,,,,,,,,,,,"MET07308/02/20 22:55:02 METAR KSQL 030655Z 00000KT 10SM CLR 18/11 A3004 RMK AO2","FM-15","7",,,,,,,,,,,,,,,,,,,,,,,,,,,,
"72493893231","2020-08-02T23:15:00","FM-15","7",,,,,,,,,,,,,,,,,,,,,,,,,,,,,,,,,,,,,,"30.04","54","64",,,,,"68",,"CLR:00","30.03","10.00","58","210",,"3",,,,,,,,,,,,,,,,,,,,,,,,,,,,,,,,,,,,,"MET07308/02/20 23:15:02 METAR KSQL 030715Z 21003KT 10SM CLR 18/12 A3004 RMK AO2","FM-15","7",,,,,,,,,,,,,,,,,,,,,,,,,,,,
"72493893231","2020-08-02T23:35:00","FM-15","7",,,,,,,,,,,,,,,,,,,,,,,,,,,,,,,,,,,,,,"30.03","54","64",,,,,"68",,"CLR:00","30.02","10.00","58","000",,"0",,,,,,,,,,,,,,,,,,,,,,,,,,,,,,,,,,,,,"MET07308/02/20 23:35:02 METAR KSQL 030735Z 00000KT 10SM CLR 18/12 A3003 RMK AO2","FM-15","7",,,,,,,,,,,,,,,,,,,,,,,,,,,,
"72493893231","2020-08-02T23:55:00","FM-15","7",,,,,,,,,,,,,,,,,,,,,,,,,,,,,,,,,,,,,,"30.03","55","64",,,,,"73",,"CLR:00","30.02","10.00","59","170",,"3",,,,,,,,,,,,,,,,,,,,,,,,,,,,,,,,,,,,,"MET07308/02/20 23:55:02 METAR KSQL 030755Z 17003KT 10SM CLR 18/13 A3003 RMK AO2","FM-15","7",,,,,,,,,,,,,,,,,,,,,,,,,,,,
"72493893231","2020-08-03T00:15:00","FM-15","7",,,,,,,,,,,,,,,,,,,,,,,,,,,,,,,,,,,,,,"30.02","55","64",,,,,"73",,"CLR:00","30.01","10.00","59","210",,"3",,,,,,,,,,,,,,,,,,,,,,,,,,,,,,,,,,,,,"MET07308/03/20 00:15:02 METAR KSQL 030815Z 21003KT 10SM CLR 18/13 A3002 RMK AO2","FM-15","7",,,,,,,,,,,,,,,,,,,,,,,,,,,,
"72493893231","2020-08-03T00:35:00","FM-15","7",,,,,,,,,,,,,,,,,,,,,,,,,,,,,,,,,,,,,,"30.02","55","64",,,,,"73",,"CLR:00","30.01","10.00","59","000",,"0",,,,,,,,,,,,,,,,,,,,,,,,,,,,,,,,,,,,,"MET07308/03/20 00:35:02 METAR KSQL 030835Z 00000KT 10SM CLR 18/13 A3002 RMK AO2","FM-15","7",,,,,,,,,,,,,,,,,,,,,,,,,,,,
"72493893231","2020-08-03T00:55:00","FM-15","7",,,,,,,,,,,,,,,,,,,,,,,,,,,,,,,,,,,,,,"30.02","55","64",,,,,"73",,"CLR:00","30.01","10.00","59","000",,"0",,,,,,,,,,,,,,,,,,,,,,,,,,,,,,,,,,,,,"MET07308/03/20 00:55:02 METAR KSQL 030855Z 00000KT 10SM CLR 18/13 A3002 RMK AO2","FM-15","7",,,,,,,,,,,,,,,,,,,,,,,,,,,,
"72493893231","2020-08-03T01:15:00","FM-15","7",,,,,,,,,,,,,,,,,,,,,,,,,,,,,,,,,,,,,,"30.02","55","63",,,,,"77",,"CLR:00","30.01","10.00","58","000",,"0",,,,,,,,,,,,,,,,,,,,,,,,,,,,,,,,,,,,,"MET07308/03/20 01:15:02 METAR KSQL 030915Z 00000KT 10SM CLR 17/13 A3002 RMK AO2","FM-15","7",,,,,,,,,,,,,,,,,,,,,,,,,,,,
"72493893231","2020-08-03T01:35:00","FM-15","7",,,,,,,,,,,,,,,,,,,,,,,,,,,,,,,,,,,,,,"30.02","55","63",,,,,"77",,"CLR:00","30.01","10.00","58","000",,"0",,,,,,,,,,,,,,,,,,,,,,,,,,,,,,,,,,,,,"MET07308/03/20 01:35:02 METAR KSQL 030935Z 00000KT 10SM CLR 17/13 A3002 RMK AO2","FM-15","7",,,,,,,,,,,,,,,,,,,,,,,,,,,,
"72493893231","2020-08-03T01:55:00","FM-15","7",,,,,,,,,,,,,,,,,,,,,,,,,,,,,,,,,,,,,,"30.02","55","63",,,,,"77",,"CLR:00","30.01","10.00","58","000",,"0",,,,,,,,,,,,,,,,,,,,,,,,,,,,,,,,,,,,,"MET07308/03/20 01:55:02 METAR KSQL 030955Z 00000KT 10SM CLR 17/13 A3002 RMK AO2","FM-15","7",,,,,,,,,,,,,,,,,,,,,,,,,,,,
"72493893231","2020-08-03T02:15:00","FM-15","7",,,,,,,,,,,,,,,,,,,,,,,,,,,,,,,,,,,,,,"30.02","55","63",,,,,"77",,"CLR:00","30.01","10.00","58","000",,"0",,,,,,,,,,,,,,,,,,,,,,,,,,,,,,,,,,,,,"MET07308/03/20 02:15:02 METAR KSQL 031015Z 00000KT 10SM CLR 17/13 A3002 RMK AO2","FM-15","7",,,,,,,,,,,,,,,,,,,,,,,,,,,,
"72493893231","2020-08-03T02:35:00","FM-15","7",,,,,,,,,,,,,,,,,,,,,,,,,,,,,,,,,,,,,,"30.02","55","63",,,,,"77",,"CLR:00","30.01","10.00","58","000",,"0",,,,,,,,,,,,,,,,,,,,,,,,,,,,,,,,,,,,,"MET07308/03/20 02:35:02 METAR KSQL 031035Z 00000KT 10SM CLR 17/13 A3002 RMK AO2","FM-15","7",,,,,,,,,,,,,,,,,,,,,,,,,,,,
"72493893231","2020-08-03T02:55:00","FM-15","7",,,,,,,,,,,,,,,,,,,,,,,,,,,,,,,,,,,,,,"30.02","54","63",,,,,"73",,"CLR:00","30.01","10.00","58","000",,"0",,,,,,,,,,,,,,,,,,,,,,,,,,,,,,,,,,,,,"MET07308/03/20 02:55:02 METAR KSQL 031055Z 00000KT 10SM CLR 17/12 A3002 RMK AO2","FM-15","7",,,,,,,,,,,,,,,,,,,,,,,,,,,,
"72493893231","2020-08-03T03:15:00","FM-15","7",,,,,,,,,,,,,,,,,,,,,,,,,,,,,,,,,,,,,,"30.02","54","63",,,,,"73",,"CLR:00","30.01","10.00","58","000",,"0",,,,,,,,,,,,,,,,,,,,,,,,,,,,,,,,,,,,,"MET07308/03/20 03:15:02 METAR KSQL 031115Z 00000KT 10SM CLR 17/12 A3002 RMK AO2","FM-15","7",,,,,,,,,,,,,,,,,,,,,,,,,,,,
"72493893231","2020-08-03T03:35:00","FM-15","7",,,,,,,,,,,,,,,,,,,,,,,,,,,,,,,,,,,,,,"30.02","55","63",,,,,"77",,"CLR:00","30.01","10.00","58","000",,"0",,,,,,,,,,,,,,,,,,,,,,,,,,,,,,,,,,,,,"MET07308/03/20 03:35:02 METAR KSQL 031135Z 00000KT 10SM CLR 17/13 A3002 RMK AO2","FM-15","7",,,,,,,,,,,,,,,,,,,,,,,,,,,,
"72493893231","2020-08-03T03:55:00","FM-15","7",,,,,,,,,,,,,,,,,,,,,,,,,,,,,,,,,,,,,,"30.03","55","61",,,,,"83",,"CLR:00","30.02","10.00","58","000",,"0",,,,,,,,,,,,,,,,,,,,,,,,,,,,,,,,,,,,,"MET07308/03/20 03:55:02 METAR KSQL 031155Z 00000KT 10SM CLR 16/13 A3003 RMK AO2","FM-15","7",,,,,,,,,,,,,,,,,,,,,,,,,,,,
"72493893231","2020-08-03T04:15:00","FM-15","7",,,,,,,,,,,,,,,,,,,,,,,,,,,,,,,,,,,,,,"30.03","55","61",,,,,"83",,"CLR:00","30.02","10.00","58","000",,"0",,,,,,,,,,,,,,,,,,,,,,,,,,,,,,,,,,,,,"MET07308/03/20 04:15:02 METAR KSQL 031215Z 00000KT 10SM CLR 16/13 A3003 RMK AO2","FM-15","7",,,,,,,,,,,,,,,,,,,,,,,,,,,,
"72493893231","2020-08-03T04:35:00","FM-15","7",,,,,,,,,,,,,,,,,,,,,,,,,,,,,,,,,,,,,,"30.02","55","61",,,,,"83",,"CLR:00","30.01","10.00","58","000",,"0",,,,,,,,,,,,,,,,,,,,,,,,,,,,,,,,,,,,,"MET07308/03/20 04:35:02 METAR KSQL 031235Z 00000KT 10SM CLR 16/13 A3002 RMK AO2","FM-15","7",,,,,,,,,,,,,,,,,,,,,,,,,,,,
"72493893231","2020-08-03T04:55:00","FM-15","7",,,,,,,,,,,,,,,,,,,,,,,,,,,,,,,,,,,,,,"30.03","54","61",,,,,"77",,"CLR:00","30.02","10.00","57","000",,"0",,,,,,,,,,,,,,,,,,,,,,,,,,,,,,,,,,,,,"MET07308/03/20 04:55:02 METAR KSQL 031255Z 00000KT 10SM CLR 16/12 A3003 RMK AO2","FM-15","7",,,,,,,,,,,,,,,,,,,,,,,,,,,,
"72493893231","2020-08-03T05:15:00","FM-15","7",,,,,,,,,,,,,,,,,,,,,,,,,,,,,,,,,,,,,,"30.02","54","61",,,,,"77",,"CLR:00","30.01","9.00","57","310",,"3",,,,,,,,,,,,,,,,,,,,,,,,,,,,,,,,,,,,,"MET07208/03/20 05:15:02 METAR KSQL 031315Z 31003KT 9SM CLR 16/12 A3002 RMK AO2","FM-15","7",,,,,,,,,,,,,,,,,,,,,,,,,,,,
"72493893231","2020-08-03T05:35:00","FM-15","7",,,,,,,,,,,,,,,,,,,,,,,,,,,,,,,,,,,,,,"30.02","54","61",,,,,"77",,"CLR:00","30.01","9.00","57","300",,"3",,,,,,,,,,,,,,,,,,,,,,,,,,,,,,,,,,,,,"MET07208/03/20 05:35:02 METAR KSQL 031335Z 30003KT 9SM CLR 16/12 A3002 RMK AO2","FM-15","7",,,,,,,,,,,,,,,,,,,,,,,,,,,,
"72493893231","2020-08-03T05:47:00","FM-15","4",,,,,,,,,,,,,,,,,,,,,,,,,,,,,,,,,,,,,,"30.03","54","63",,,,,"73",,,,"10.00",,"300",,"3",,,,,,,,,,,,,,,,,,,,,,,,,,,,,,,,,,,,,"MET048METAR KSQL 031347Z 30003KT 10SM SKC 17/12 A3003=","FM-15","4",,,,,,,,,,,,,,,,,,,,,,,,,,,,
"72493893231","2020-08-03T05:55:00","FM-15","7",,,,,,,,,,,,,,,,,,,,,,,,,,,,,,,,,,,,,,"30.03","54","61",,,,,"77",,"CLR:00","30.02","10.00","57","320",,"5",,,,,,,,,,,,,,,,,,,,,,,,,,,,,,,,,,,,,"MET07308/03/20 05:55:02 METAR KSQL 031355Z 32004KT 10SM CLR 16/12 A3003 RMK AO2","FM-15","7",,,,,,,,,,,,,,,,,,,,,,,,,,,,
"72493893231","2020-08-03T09:47:00","FM-15","7",,,,,,,,,,,,,,,,,,,,,,,,,,,,,,,,,,,,,,"30.05","59","72",,,,,"65",,"*","30.04","10.00","64","030",,"7",,,,,,,,,,,,,,,,,,,,,,,,,,,,,,,,,,,,,"MET06908/03/20 09:47:02 METAR KSQL 031747Z 03006KT 10SM SKC 22/15 A3005 RMK","FM-15","7",,,,,,,,,,,,,,,,,,,,,,,,,,,,
"72493893231","2020-08-03T10:58:00","FM-15","7",,,,,,,,,,,,,,,,,,,,,,,,,,,,,,,,,,,,,,"30.04","59","73",,,,,"61",,"*","30.03","10.00","65","020",,"8",,,,,,,,,,,,,,,,,,,,,,,,,,,,,,,,,,,,,"MET06908/03/20 10:58:01 METAR KSQL 031858Z 02007KT 10SM SKC 23/15 A3004 RMK","FM-15","7",,,,,,,,,,,,,,,,,,,,,,,,,,,,
"72493893231","2020-08-03T11:47:00","FM-15","7",,,,,,,,,,,,,,,,,,,,,,,,,,,,,,,,,,,,,,"30.03","59","75",,,,,"57",,"*","30.02","10.00","65","360",,"8",,,,,,,,,,,,,,,,,,,,,,,,,,,,,,,,,,,,,"MET06908/03/20 11:47:01 METAR KSQL 031947Z 36007KT 10SM SKC 24/15 A3003 RMK","FM-15","7",,,,,,,,,,,,,,,,,,,,,,,,,,,,
"72493893231","2020-08-03T12:47:00","FM-15","7",,,,,,,,,,,,,,,,,,,,,,,,,,,,,,,,,,,,,,"30.03","54","82",,,,,"37",,"*","30.02","10.00","65","240",,"13",,,,,,,,,,,,,,,,,,,,,,,,,,,,,,,,,,,,,"MET06908/03/20 12:47:01 METAR KSQL 032047Z 24011KT 10SM SKC 28/12 A3003 RMK","FM-15","7",,,,,,,,,,,,,,,,,,,,,,,,,,,,
"72493893231","2020-08-03T13:47:00","FM-15","7",,,,,,,,,,,,,,,,,,,,,,,,,,,,,,,,,,,,,,"30.03","54","81",,,,,"39",,"*","30.02","10.00","65","240",,"14",,,,,,,,,,,,,,,,,,,,,,,,,,,,,,,,,,,,,"MET07208/03/20 13:47:02 METAR KSQL 032147Z 24012KT 10SM SKC 27/12 A3003 RMK DA","FM-15","7",,,,,,,,,,,,,,,,,,,,,,,,,,,,
"72493893231","2020-08-03T14:47:00","FM-15","7",,,,,,,,,,,,,,,,,,,,,,,,,,,,,,,,,,,,,,"30.03","55","79",,,,,"45",,"*","30.02","10.00","65","260","21","16",,,,,,,,,,,,,,,,,,,,,,,,,,,,,,,,,,,,,"MET07208/03/20 14:47:02 METAR KSQL 032247Z 26014G18KT 10SM SKC 26/13 A3003 RMK","FM-15","7",,,,,,,,,,,,,,,,,,,,,,,,,,,,
"72493893231","2020-08-03T15:47:00","FM-15","7",,,,,,,,,,,,,,,,,,,,,,,,,,,,,,,,,,,,,,"30.02","57","73",,,,,"57",,"*","30.01","10.00","63","250",,"16",,,,,,,,,,,,,,,,,,,,,,,,,,,,,,,,,,,,,"MET06908/03/20 15:47:02 METAR KSQL 032347Z 25014KT 10SM SKC 23/14 A3002 RMK","FM-15","7",,,,,,,,,,,,,,,,,,,,,,,,,,,,
"72493893231","2020-08-03T16:51:00","FM-15","7",,,,,,,,,,,,,,,,,,,,,,,,,,,,,,,,,,,,,,"30.01","57","73",,,,,"57",,"*","30.00","10.00","63","250","18","11",,,,,,,,,,,,,,,,,,,,,,,,,,,,,,,,,,,,,"MET07208/03/20 16:51:01 METAR KSQL 040051Z 25010G16KT 10SM SKC 23/14 A3001 RMK","FM-15","7",,,,,,,,,,,,,,,,,,,,,,,,,,,,
"72493893231","2020-08-03T17:58:00","FM-15","7",,,,,,,,,,,,,,,,,,,,,,,,,,,,,,,,,,,,,,"30.01","57","68",,,,,"69",,"FEW:02 10","30.00","10.00","62","280","18","11",,,,,,,,,,,,,,,,,,,,,,,,,,,,,,,,,,,,,"MET07508/03/20 17:58:01 METAR KSQL 040158Z 28010G16KT 10SM FEW010 20/14 A3001 RMK","FM-15","7",,,,,,,,,,,,,,,,,,,,,,,,,,,,
"72493893231","2020-08-03T18:58:00","FM-15","7",,,,,,,,,,,,,,,,,,,,,,,,,,,,,,,,,,,,,,"30.02","57","64",,,,,"78",,"FEW:02 10","30.01","10.00","60","240",,"10",,,,,,,,,,,,,,,,,,,,,,,,,,,,,,,,,,,,,"MET07208/03/20 18:58:01 METAR KSQL 040258Z 24009KT 10SM FEW010 18/14 A3002 RMK","FM-15","7",,,,,,,,,,,,,,,,,,,,,,,,,,,,
"72493893231","2020-08-03T19:47:00","FM-15","7",,,,,,,,,,,,,,,,,,,,,,,,,,,,,,,,,,,,,,"30.02","57","64",,,,,"78",,"FEW:02 10","30.01","10.00","60","240",,"16",,,,,,,,,,,,,,,,,,,,,,,,,,,,,,,,,,,,,"MET07708/03/20 19:47:01 METAR KSQL 040347Z 24014KT 10SM FEW010 18/14 A3002 RMK LAST","FM-15","7",,,,,,,,,,,,,,,,,,,,,,,,,,,,
"72493893231","2020-08-03T20:15:00","FM-15","7",,,,,,,,,,,,,,,,,,,,,,,,,,,,,,,,,,,,,,"30.02","57","63",,,,,"83",,"CLR:00","30.01","10.00","60","270","17","10",,,,,,,,,,,,,,,,,,,,,,,,,,,,,,,,,,,,,"MET07608/03/20 20:15:01 METAR KSQL 040415Z 27009G15KT 10SM CLR 17/14 A3002 RMK AO2","FM-15","7",,,,,,,,,,,,,,,,,,,,,,,,,,,,
"72493893231","2020-08-03T20:35:00","FM-15","7",,,,,,,,,,,,,,,,,,,,,,,,,,,,,,,,,,,,,,"30.02","57","63",,,,,"83",,"CLR:00","30.01","10.00","60","270",,"6",,,,,,,,,,,,,,,,,,,,,,,,,,,,,,,,,,,,,"MET07308/03/20 20:35:01 METAR KSQL 040435Z 27005KT 10SM CLR 17/14 A3002 RMK AO2","FM-15","7",,,,,,,,,,,,,,,,,,,,,,,,,,,,
"72493893231","2020-08-03T20:55:00","FM-15","7",,,,,,,,,,,,,,,,,,,,,,,,,,,,,,,,,,,,,,"30.03","57","63",,,,,"83",,"CLR:00","30.02","10.00","60","280",,"6",,,,,,,,,,,,,,,,,,,,,,,,,,,,,,,,,,,,,"MET07308/03/20 20:55:01 METAR KSQL 040455Z 28005KT 10SM CLR 17/14 A3003 RMK AO2","FM-15","7",,,,,,,,,,,,,,,,,,,,,,,,,,,,
"72493893231","2020-08-03T21:15:00","FM-15","7",,,,,,,,,,,,,,,,,,,,,,,,,,,,,,,,,,,,,,"30.03","57","63",,,,,"83",,"CLR:00","30.02","10.00","60","270",,"10",,,,,,,,,,,,,,,,,,,,,,,,,,,,,,,,,,,,,"MET07308/03/20 21:15:01 METAR KSQL 040515Z 27009KT 10SM CLR 17/14 A3003 RMK AO2","FM-15","7",,,,,,,,,,,,,,,,,,,,,,,,,,,,
"72493893231","2020-08-03T21:35:00","FM-15","7",,,,,,,,,,,,,,,,,,,,,,,,,,,,,,,,,,,,,,"30.02","57","63",,,,,"83",,"CLR:00","30.01","10.00","60","270",,"8",,,,,,,,,,,,,,,,,,,,,,,,,,,,,,,,,,,,,"MET07308/03/20 21:35:01 METAR KSQL 040535Z 27007KT 10SM CLR 17/14 A3002 RMK AO2","FM-15","7",,,,,,,,,,,,,,,,,,,,,,,,,,,,
"72493893231","2020-08-03T21:55:00","FM-15","7",,,,,,,,,,,,,,,,,,,,,,,,,,,,,,,,,,,,,,"30.02","57","61",,,,,"88",,"FEW:02 13","30.01","10.00","59","260",,"7",,,,,,,,,,,,,,,,,,,,,,,,,,,,,,,,,,,,,"MET07608/03/20 21:55:01 METAR KSQL 040555Z 26006KT 10SM FEW013 16/14 A3002 RMK AO2","FM-15","7",,,,,,,,,,,,,,,,,,,,,,,,,,,,
"72493893231","2020-08-03T22:15:00","FM-15","7",,,,,,,,,,,,,,,,,,,,,,,,,,,,,,,,,,,,,,"30.02","57","61",,,,,"88",,"BKN:07 13","30.01","10.00","59","VRB",,"7",,,,,,,,,,,,,,,,,,,,,,,,,,,,,,,,,,,,,"MET07608/03/20 22:15:01 METAR KSQL 040615Z 26006KT 10SM BKN013 16/14 A3002 RMK AO2","FM-15","7",,,,,,,,,,,,,,,,,,,,,,,,,,,,
"72493893231","2020-08-03T22:35:00","FM-15","7",,,,,,,,,,,,,,,,,,,,,,,,,,,,,,,,,,,,,,"30.01","55","61",,,,,"83",,"FEW:02 13","30.00","10.00","58","VRB",,"9",,,,,,,,,,,,,,,,,,,,,,,,,,,,,,,,,,,,,"MET07608/03/20 22:35:01 METAR KSQL 040635Z 26008KT 10SM FEW013 16/13 A3001 RMK AO2","FM-15","7",,,,,,,,,,,,,,,,,,,,,,,,,,,,
"72493893231","2020-08-03T22:55:00","FM-15","7",,,,,,,,,,,,,,,,,,,,,,,,,,,,,,,,,,,,,,"30.01","55","61",,,,,"83",,"CLR:00","30.00","10.00","58","310",,"7",,,,,,,,,,,,,,,,,,,,,,,,,,,,,,,,,,,,,"MET07308/03/20 22:55:01 METAR KSQL 040655Z 31006KT 10SM CLR 16/13 A3001 RMK AO2","FM-15","7",,,,,,,,,,,,,,,,,,,,,,,,,,,,
"72493893231","2020-08-03T23:15:00","FM-15","7",,,,,,,,,,,,,,,,,,,,,,,,,,,,,,,,,,,,,,"30.00","55","61",,,,,"83",,"CLR:00","29.99","10.00","58","300",,"9",,,,,,,,,,,,,,,,,,,,,,,,,,,,,,,,,,,,,"MET07308/03/20 23:15:01 METAR KSQL 040715Z 30008KT 10SM CLR 16/13 A3000 RMK AO2","FM-15","7",,,,,,,,,,,,,,,,,,,,,,,,,,,,
"72493893231","2020-08-03T23:35:00","FM-15","7",,,,,,,,,,,,,,,,,,,,,,,,,,,,,,,,,,,,,,"30.00","55","61",,,,,"83",,"CLR:00","29.99","10.00","58","300",,"6",,,,,,,,,,,,,,,,,,,,,,,,,,,,,,,,,,,,,"MET07308/03/20 23:35:01 METAR KSQL 040735Z 30005KT 10SM CLR 16/13 A3000 RMK AO2","FM-15","7",,,,,,,,,,,,,,,,,,,,,,,,,,,,
"72493893231","2020-08-03T23:55:00","FM-15","7",,,,,,,,,,,,,,,,,,,,,,,,,,,,,,,,,,,,,,"30.00","55","63",,,,,"77",,"CLR:00","29.99","10.00","58","280",,"9",,,,,,,,,,,,,,,,,,,,,,,,,,,,,,,,,,,,,"MET07308/03/20 23:55:01 METAR KSQL 040755Z 28008KT 10SM CLR 17/13 A3000 RMK AO2","FM-15","7",,,,,,,,,,,,,,,,,,,,,,,,,,,,
"72493893231","2020-08-04T00:15:00","FM-15","7",,,,,,,,,,,,,,,,,,,,,,,,,,,,,,,,,,,,,,"30.00","55","61",,,,,"83",,"CLR:00","29.99","10.00","58","290",,"7",,,,,,,,,,,,,,,,,,,,,,,,,,,,,,,,,,,,,"MET07308/04/20 00:15:01 METAR KSQL 040815Z 29006KT 10SM CLR 16/13 A3000 RMK AO2","FM-15","7",,,,,,,,,,,,,,,,,,,,,,,,,,,,
"72493893231","2020-08-04T00:35:00","FM-15","7",,,,,,,,,,,,,,,,,,,,,,,,,,,,,,,,,,,,,,"30.00","55","61",,,,,"83",,"CLR:00","29.99","10.00","58","300",,"6",,,,,,,,,,,,,,,,,,,,,,,,,,,,,,,,,,,,,"MET07308/04/20 00:35:01 METAR KSQL 040835Z 30005KT 10SM CLR 16/13 A3000 RMK AO2","FM-15","7",,,,,,,,,,,,,,,,,,,,,,,,,,,,
"72493893231","2020-08-04T00:55:00","FM-15","7",,,,,,,,,,,,,,,,,,,,,,,,,,,,,,,,,,,,,,"29.99","55","61",,,,,"83",,"CLR:00","29.98","10.00","58","280",,"5",,,,,,,,,,,,,,,,,,,,,,,,,,,,,,,,,,,,,"MET07308/04/20 00:55:01 METAR KSQL 040855Z 28004KT 10SM CLR 16/13 A2999 RMK AO2","FM-15","7",,,,,,,,,,,,,,,,,,,,,,,,,,,,
"72493893231","2020-08-04T01:15:00","FM-15","7",,,,,,,,,,,,,,,,,,,,,,,,,,,,,,,,,,,,,,"29.99","55","61",,,,,"83",,"CLR:00","29.98","10.00","58","280",,"9",,,,,,,,,,,,,,,,,,,,,,,,,,,,,,,,,,,,,"MET07308/04/20 01:15:01 METAR KSQL 040915Z 28008KT 10SM CLR 16/13 A2999 RMK AO2","FM-15","7",,,,,,,,,,,,,,,,,,,,,,,,,,,,
"72493893231","2020-08-04T01:35:00","FM-15","7",,,,,,,,,,,,,,,,,,,,,,,,,,,,,,,,,,,,,,"29.99","55","59",,,,,"88",,"CLR:00","29.98","10.00","57","280",,"8",,,,,,,,,,,,,,,,,,,,,,,,,,,,,,,,,,,,,"MET07308/04/20 01:35:01 METAR KSQL 040935Z 28007KT 10SM CLR 15/13 A2999 RMK AO2","FM-15","7",,,,,,,,,,,,,,,,,,,,,,,,,,,,
"72493893231","2020-08-04T01:55:00","FM-15","7",,,,,,,,,,,,,,,,,,,,,,,,,,,,,,,,,,,,,,"29.99","55","59",,,,,"88",,"CLR:00","29.98","10.00","57","250",,"8",,,,,,,,,,,,,,,,,,,,,,,,,,,,,,,,,,,,,"MET07308/04/20 01:55:01 METAR KSQL 040955Z 25007KT 10SM CLR 15/13 A2999 RMK AO2","FM-15","7",,,,,,,,,,,,,,,,,,,,,,,,,,,,
"72493893231","2020-08-04T02:15:00","FM-15","7",,,,,,,,,,,,,,,,,,,,,,,,,,,,,,,,,,,,,,"29.99","55","61",,,,,"83",,"CLR:00","29.98","10.00","58","260",,"13",,,,,,,,,,,,,,,,,,,,,,,,,,,,,,,,,,,,,"MET07308/04/20 02:15:01 METAR KSQL 041015Z 26011KT 10SM CLR 16/13 A2999 RMK AO2","FM-15","7",,,,,,,,,,,,,,,,,,,,,,,,,,,,
"72493893231","2020-08-04T02:35:00","FM-15","7",,,,,,,,,,,,,,,,,,,,,,,,,,,,,,,,,,,,,,"29.99","55","59",,,,,"88",,"CLR:00","29.98","10.00","57","250",,"9",,,,,,,,,,,,,,,,,,,,,,,,,,,,,,,,,,,,,"MET07308/04/20 02:35:01 METAR KSQL 041035Z 25008KT 10SM CLR 15/13 A2999 RMK AO2","FM-15","7",,,,,,,,,,,,,,,,,,,,,,,,,,,,
"72493893231","2020-08-04T02:55:00","FM-15","7",,,,,,,,,,,,,,,,,,,,,,,,,,,,,,,,,,,,,,"29.99","55","59",,,,,"88",,"CLR:00","29.98","10.00","57","250",,"7",,,,,,,,,,,,,,,,,,,,,,,,,,,,,,,,,,,,,"MET07308/04/20 02:55:01 METAR KSQL 041055Z 25006KT 10SM CLR 15/13 A2999 RMK AO2","FM-15","7",,,,,,,,,,,,,,,,,,,,,,,,,,,,
"72493893231","2020-08-04T03:15:00","FM-15","7",,,,,,,,,,,,,,,,,,,,,,,,,,,,,,,,,,,,,,"29.99","55","59",,,,,"88",,"CLR:00","29.98","10.00","57","260",,"3",,,,,,,,,,,,,,,,,,,,,,,,,,,,,,,,,,,,,"MET07308/04/20 03:15:01 METAR KSQL 041115Z 26003KT 10SM CLR 15/13 A2999 RMK AO2","FM-15","7",,,,,,,,,,,,,,,,,,,,,,,,,,,,
"72493893231","2020-08-04T03:35:00","FM-15","7",,,,,,,,,,,,,,,,,,,,,,,,,,,,,,,,,,,,,,"29.99","55","59",,,,,"88",,"CLR:00","29.98","10.00","57","250",,"6",,,,,,,,,,,,,,,,,,,,,,,,,,,,,,,,,,,,,"MET07308/04/20 03:35:01 METAR KSQL 041135Z 25005KT 10SM CLR 15/13 A2999 RMK AO2","FM-15","7",,,,,,,,,,,,,,,,,,,,,,,,,,,,
"72493893231","2020-08-04T03:55:00","FM-15","7",,,,,,,,,,,,,,,,,,,,,,,,,,,,,,,,,,,,,,"29.99","55","59",,,,,"88",,"CLR:00","29.98","10.00","57","250",,"7",,,,,,,,,,,,,,,,,,,,,,,,,,,,,,,,,,,,,"MET07308/04/20 03:55:01 METAR KSQL 041155Z 25006KT 10SM CLR 15/13 A2999 RMK AO2","FM-15","7",,,,,,,,,,,,,,,,,,,,,,,,,,,,
"72493893231","2020-08-04T04:15:00","FM-15","7",,,,,,,,,,,,,,,,,,,,,,,,,,,,,,,,,,,,,,"29.99","55","59",,,,,"88",,"CLR:00","29.98","10.00","57","240",,"6",,,,,,,,,,,,,,,,,,,,,,,,,,,,,,,,,,,,,"MET07308/04/20 04:15:01 METAR KSQL 041215Z 24005KT 10SM CLR 15/13 A2999 RMK AO2","FM-15","7",,,,,,,,,,,,,,,,,,,,,,,,,,,,
"72493893231","2020-08-04T04:35:00","FM-15","7",,,,,,,,,,,,,,,,,,,,,,,,,,,,,,,,,,,,,,"29.99","55","59",,,,,"88",,"CLR:00","29.98","10.00","57","250",,"6",,,,,,,,,,,,,,,,,,,,,,,,,,,,,,,,,,,,,"MET07308/04/20 04:35:01 METAR KSQL 041235Z 25005KT 10SM CLR 15/13 A2999 RMK AO2","FM-15","7",,,,,,,,,,,,,,,,,,,,,,,,,,,,
"72493893231","2020-08-04T04:55:00","FM-15","7",,,,,,,,,,,,,,,,,,,,,,,,,,,,,,,,,,,,,,"29.99","55","59",,,,,"88",,"CLR:00","29.98","10.00","57","240",,"3",,,,,,,,,,,,,,,,,,,,,,,,,,,,,,,,,,,,,"MET07308/04/20 04:55:01 METAR KSQL 041255Z 24003KT 10SM CLR 15/13 A2999 RMK AO2","FM-15","7",,,,,,,,,,,,,,,,,,,,,,,,,,,,
"72493893231","2020-08-04T05:15:00","FM-15","7",,,,,,,,,,,,,,,,,,,,,,,,,,,,,,,,,,,,,,"29.99","55","59",,,,,"88",,"CLR:00","29.98","10.00","57","260",,"8",,,,,,,,,,,,,,,,,,,,,,,,,,,,,,,,,,,,,"MET07308/04/20 05:15:01 METAR KSQL 041315Z 26007KT 10SM CLR 15/13 A2999 RMK AO2","FM-15","7",,,,,,,,,,,,,,,,,,,,,,,,,,,,
"72493893231","2020-08-04T05:35:00","FM-15","7",,,,,,,,,,,,,,,,,,,,,,,,,,,,,,,,,,,,,,"29.99","55","59",,,,,"88",,"CLR:00","29.98","10.00","57","260",,"8",,,,,,,,,,,,,,,,,,,,,,,,,,,,,,,,,,,,,"MET07308/04/20 05:35:01 METAR KSQL 041335Z 26007KT 10SM CLR 15/13 A2999 RMK AO2","FM-15","7",,,,,,,,,,,,,,,,,,,,,,,,,,,,
"72493893231","2020-08-04T05:47:00","FM-15","4",,,,,,,,,,,,,,,,,,,,,,,,,,,,,,,,,,,,,,"29.98","55","61",,,,,"83",,,,"10.00",,"240",,"5",,,,,,,,,,,,,,,,,,,,,,,,,,,,,,,,,,,,,"MET051METAR KSQL 041347Z 24004KT 10SM SCT006 16/13 A2998=","FM-15","4",,,,,,,,,,,,,,,,,,,,,,,,,,,,
"72493893231","2020-08-04T05:55:00","FM-15","7",,,,,,,,,,,,,,,,,,,,,,,,,,,,,,,,,,,,,,"29.98","55","59",,,,,"88",,"CLR:00","29.97","10.00","57","260",,"3",,,,,,,,,,,,,,,,,,,,,,,,,,,,,,,,,,,,,"MET07308/04/20 05:55:01 METAR KSQL 041355Z 26003KT 10SM CLR 15/13 A2998 RMK AO2","FM-15","7",,,,,,,,,,,,,,,,,,,,,,,,,,,,
"72493893231","2020-08-04T06:47:00","FM-15","7",,,,,,,,,,,,,,,,,,,,,,,,,,,,,,,,,,,,,,"29.99","57","63",,,,,"83",,"SCT:04 6","29.98","10.00","60","000",,"0",,,,,,,,,,,,,,,,,,,,,,,,,,,,,,,,,,,,,"MET07208/04/20 06:47:01 METAR KSQL 041447Z 00000KT 10SM SCT006 17/14 A2999 RMK","FM-15","7",,,,,,,,,,,,,,,,,,,,,,,,,,,,
"72493893231","2020-08-04T09:47:00","FM-15","7",,,,,,,,,,,,,,,,,,,,,,,,,,,,,,,,,,,,,,"29.99","55","72",,,,,"57",,"FEW:02 6","29.98","10.00","62","280",,"6",,,,,,,,,,,,,,,,,,,,,,,,,,,,,,,,,,,,,"MET07208/04/20 09:47:01 METAR KSQL 041747Z 28005KT 10SM FEW006 22/13 A2999 RMK","FM-15","7",,,,,,,,,,,,,,,,,,,,,,,,,,,,
"72493893231","2020-08-04T10:47:00","FM-15","7",,,,,,,,,,,,,,,,,,,,,,,,,,,,,,,,,,,,,,"29.99","55","72",,,,,"57",,"FEW:02 8","29.98","10.00","62","280",,"11",,,,,,,,,,,,,,,,,,,,,,,,,,,,,,,,,,,,,"MET07208/04/20 10:47:01 METAR KSQL 041847Z 28010KT 10SM FEW008 22/13 A2999 RMK","FM-15","7",,,,,,,,,,,,,,,,,,,,,,,,,,,,
"72493893231","2020-08-04T11:48:00","FM-15","7",,,,,,,,,,,,,,,,,,,,,,,,,,,,,,,,,,,,,,"29.99","55","70",,,,,"60",,"FEW:02 8","29.98","10.00","61","260","21","15",,,,,,,,,,,,,,,,,,,,,,,,,,,,,,,,,,,,,"MET07508/04/20 11:48:01 METAR KSQL 041948Z 26013G18KT 10SM FEW008 21/13 A2999 RMK","FM-15","7",,,,,,,,,,,,,,,,,,,,,,,,,,,,
"72493893231","2020-08-04T13:47:00","FM-15","7",,,,,,,,,,,,,,,,,,,,,,,,,,,,,,,,,,,,,,"30.00","55","68",,,,,"64",,"FEW:02 9","29.99","10.00","60","240","20","14",,,,,,,,,,,,,,,,,,,,,,,,,,,,,,,,,,,,,"MET07508/04/20 13:47:01 METAR KSQL 042147Z 24012G17KT 10SM FEW009 20/13 A3000 RMK","FM-15","7",,,,,,,,,,,,,,,,,,,,,,,,,,,,
"72493893231","2020-08-04T14:47:00","FM-15","7",,,,,,,,,,,,,,,,,,,,,,,,,,,,,,,,,,,,,,"29.98","55","66",,,,,"68",,"SCT:04 9","29.97","10.00","60","240","28","20",,,,,,,,,,,,,,,,,,,,,,,,,,,,,,,,,,,,,"MET07508/04/20 14:47:01 METAR KSQL 042247Z 24017G24KT 10SM SCT009 19/13 A2998 RMK","FM-15","7",,,,,,,,,,,,,,,,,,,,,,,,,,,,
"72493893231","2020-08-04T15:54:00","FM-15","7",,,,,,,,,,,,,,,,,,,,,,,,,,,,,,,,,,,,,,"29.98","55","66",,,,,"68",,"FEW:02 9","29.97","10.00","60","230","23","16",,,,,,,,,,,,,,,,,,,,,,,,,,,,,,,,,,,,,"MET07508/04/20 15:54:02 METAR KSQL 042354Z 23014G20KT 10SM FEW009 19/13 A2998 RMK","FM-15","7",,,,,,,,,,,,,,,,,,,,,,,,,,,,
"72493893231","2020-08-04T16:58:00","FM-15","7",,,,,,,,,,,,,,,,,,,,,,,,,,,,,,,,,,,,,,"29.98","57","64",,,,,"78",,"FEW:02 9","29.97","10.00","60","230","23","15",,,,,,,,,,,,,,,,,,,,,,,,,,,,,,,,,,,,,"MET07508/04/20 16:58:01 METAR KSQL 050058Z 23013G20KT 10SM FEW009 18/14 A2998 RMK","FM-15","7",,,,,,,,,,,,,,,,,,,,,,,,,,,,
"72493893231","2020-08-04T17:58:00","FM-15","7",,,,,,,,,,,,,,,,,,,,,,,,,,,,,,,,,,,,,,"29.97","57","63",,,,,"83",,"FEW:02 9","29.96","10.00","60","230","20","15",,,,,,,,,,,,,,,,,,,,,,,,,,,,,,,,,,,,,"MET07508/04/20 17:58:01 METAR KSQL 050158Z 23013G17KT 10SM FEW009 17/14 A2997 RMK","FM-15","7",,,,,,,,,,,,,,,,,,,,,,,,,,,,
"72493893231","2020-08-04T18:58:00","FM-15","7",,,,,,,,,,,,,,,,,,,,,,,,,,,,,,,,,,,,,,"29.97","55","63",,,,,"77",,"FEW:02 15","29.96","10.00","58","230","18","14",,,,,,,,,,,,,,,,,,,,,,,,,,,,,,,,,,,,,"MET07508/04/20 18:58:01 METAR KSQL 050258Z 23012G16KT 10SM FEW015 17/13 A2997 RMK","FM-15","7",,,,,,,,,,,,,,,,,,,,,,,,,,,,
"72493893231","2020-08-04T19:58:00","FM-15","7",,,,,,,,,,,,,,,,,,,,,,,,,,,,,,,,,,,,,,"29.98","55","61",,,,,"83",,"FEW:02 15","29.97","10.00","58","240","18","13",,,,,,,,,,,,,,,,,,,,,,,,,,,,,,,,,,,,,"MET08008/04/20 19:58:01 METAR KSQL 050358Z 24011G16KT 10SM FEW015 16/13 A2998 RMK LAST","FM-15","7",,,,,,,,,,,,,,,,,,,,,,,,,,,,
"72493893231","2020-08-04T20:15:00","FM-15","7",,,,,,,,,,,,,,,,,,,,,,,,,,,,,,,,,,,,,,"29.98","55","61",,,,,"83",,"FEW:02 15","29.97","10.00","58","VRB","18","11",,,,,,,,,,,,,,,,,,,,,,,,,,,,,,,,,,,,,"MET07908/04/20 20:15:01 METAR KSQL 050415Z 26010G16KT 10SM FEW015 16/13 A2998 RMK AO2","FM-15","7",,,,,,,,,,,,,,,,,,,,,,,,,,,,
"72493893231","2020-08-04T20:35:00","FM-15","7",,,,,,,,,,,,,,,,,,,,,,,,,,,,,,,,,,,,,,"29.99","55","61",,,,,"83",,"BKN:07 15","29.98","10.00","58","250","21","11",,,,,,,,,,,,,,,,,,,,,,,,,,,,,,,,,,,,,"MET07908/04/20 20:35:01 METAR KSQL 050435Z 25010G18KT 10SM BKN015 16/13 A2999 RMK AO2","FM-15","7",,,,,,,,,,,,,,,,,,,,,,,,,,,,
"72493893231","2020-08-04T20:55:00","FM-15","7",,,,,,,,,,,,,,,,,,,,,,,,,,,,,,,,,,,,,,"29.99","55","61",,,,,"83",,"OVC:08 13","29.98","10.00","58","260","22","16",,,,,,,,,,,,,,,,,,,,,,,,,,,,,,,,,,,,,"MET07908/04/20 20:55:01 METAR KSQL 050455Z 26014G19KT 10SM OVC013 16/13 A2999 RMK AO2","FM-15","7",,,,,,,,,,,,,,,,,,,,,,,,,,,,
"72493893231","2020-08-04T21:15:00","FM-15","7",,,,,,,,,,,,,,,,,,,,,,,,,,,,,,,,,,,,,,"30.00","55","61",,,,,"83",,"OVC:08 11","29.99","10.00","58","260","25","9",,,,,,,,,,,,,,,,,,,,,,,,,,,,,,,,,,,,,"MET07908/04/20 21:15:01 METAR KSQL 050515Z 26008G22KT 10SM OVC011 16/13 A3000 RMK AO2","FM-15","7",,,,,,,,,,,,,,,,,,,,,,,,,,,,
"72493893231","2020-08-04T21:35:00","FM-15","7",,,,,,,,,,,,,,,,,,,,,,,,,,,,,,,,,,,,,,"29.99","55","61",,,,,"83",,"OVC:08 11","29.98","10.00","58","260",,"9",,,,,,,,,,,,,,,,,,,,,,,,,,,,,,,,,,,,,"MET07608/04/20 21:35:01 METAR KSQL 050535Z 26008KT 10SM OVC011 16/13 A2999 RMK AO2","FM-15","7",,,,,,,,,,,,,,,,,,,,,,,,,,,,
"72493893231","2020-08-04T21:55:00","FM-15","7",,,,,,,,,,,,,,,,,,,,,,,,,,,,,,,,,,,,,,"29.99","57","59",,,,,"94",,"OVC:08 11","29.98","10.00","58","VRB",,"13",,,,,,,,,,,,,,,,,,,,,,,,,,,,,,,,,,,,,"MET07608/04/20 21:55:01 METAR KSQL 050555Z 27011KT 10SM OVC011 15/14 A2999 RMK AO2","FM-15","7",,,,,,,,,,,,,,,,,,,,,,,,,,,,
"72493893231","2020-08-04T22:15:00","FM-15","7",,,,,,,,,,,,,,,,,,,,,,,,,,,,,,,,,,,,,,"29.99","57","59",,,,,"94",,"OVC:08 11","29.98","10.00","58","260","18","10",,,,,,,,,,,,,,,,,,,,,,,,,,,,,,,,,,,,,"MET07908/04/20 22:15:01 METAR KSQL 050615Z 26009G16KT 10SM OVC011 15/14 A2999 RMK AO2","FM-15","7",,,,,,,,,,,,,,,,,,,,,,,,,,,,
"72493893231","2020-08-04T22:35:00","FM-15","7",,,,,,,,,,,,,,,,,,,,,,,,,,,,,,,,,,,,,,"29.99","55","59",,,,,"88",,"OVC:08 11","29.98","10.00","57","260","18","8",,,,,,,,,,,,,,,,,,,,,,,,,,,,,,,,,,,,,"MET07908/04/20 22:35:01 METAR KSQL 050635Z 26007G16KT 10SM OVC011 15/13 A2999 RMK AO2","FM-15","7",,,,,,,,,,,,,,,,,,,,,,,,,,,,
"72493893231","2020-08-04T22:55:00","FM-15","7",,,,,,,,,,,,,,,,,,,,,,,,,,,,,,,,,,,,,,"29.99","55","59",,,,,"88",,"OVC:08 11","29.98","10.00","57","260",,"10",,,,,,,,,,,,,,,,,,,,,,,,,,,,,,,,,,,,,"MET07608/04/20 22:55:01 METAR KSQL 050655Z 26009KT 10SM OVC011 15/13 A2999 RMK AO2","FM-15","7",,,,,,,,,,,,,,,,,,,,,,,,,,,,
"72493893231","2020-08-04T23:15:00","FM-15","7",,,,,,,,,,,,,,,,,,,,,,,,,,,,,,,,,,,,,,"29.99","57","61",,,,,"88",,"OVC:08 11","29.98","10.00","59","260",,"7",,,,,,,,,,,,,,,,,,,,,,,,,,,,,,,,,,,,,"MET07608/04/20 23:15:01 METAR KSQL 050715Z 26006KT 10SM OVC011 16/14 A2999 RMK AO2","FM-15","7",,,,,,,,,,,,,,,,,,,,,,,,,,,,
"72493893231","2020-08-04T23:35:00","FM-15","7",,,,,,,,,,,,,,,,,,,,,,,,,,,,,,,,,,,,,,"29.99","55","61",,,,,"83",,"OVC:08 11","29.98","10.00","58","250",,"8",,,,,,,,,,,,,,,,,,,,,,,,,,,,,,,,,,,,,"MET07608/04/20 23:35:01 METAR KSQL 050735Z 25007KT 10SM OVC011 16/13 A2999 RMK AO2","FM-15","7",,,,,,,,,,,,,,,,,,,,,,,,,,,,
"72493893231","2020-08-04T23:55:00","FM-15","7",,,,,,,,,,,,,,,,,,,,,,,,,,,,,,,,,,,,,,"29.99","55","59",,,,,"88",,"OVC:08 11","29.98","10.00","57","250","16","10",,,,,,,,,,,,,,,,,,,,,,,,,,,,,,,,,,,,,"MET07908/04/20 23:55:01 METAR KSQL 050755Z 25009G14KT 10SM OVC011 15/13 A2999 RMK AO2","FM-15","7",,,,,,,,,,,,,,,,,,,,,,,,,,,,
"72493893231","2020-08-05T00:15:00","FM-15","7",,,,,,,,,,,,,,,,,,,,,,,,,,,,,,,,,,,,,,"29.99","55","59",,,,,"88",,"OVC:08 11","29.98","10.00","57","250",,"10",,,,,,,,,,,,,,,,,,,,,,,,,,,,,,,,,,,,,"MET07608/05/20 00:15:01 METAR KSQL 050815Z 25009KT 10SM OVC011 15/13 A2999 RMK AO2","FM-15","7",,,,,,,,,,,,,,,,,,,,,,,,,,,,
"72493893231","2020-08-05T00:35:00","FM-15","7",,,,,,,,,,,,,,,,,,,,,,,,,,,,,,,,,,,,,,"29.98","55","59",,,,,"88",,"OVC:08 11","29.97","10.00","57","250",,"11",,,,,,,,,,,,,,,,,,,,,,,,,,,,,,,,,,,,,"MET07608/05/20 00:35:01 METAR KSQL 050835Z 25010KT 10SM OVC011 15/13 A2998 RMK AO2","FM-15","7",,,,,,,,,,,,,,,,,,,,,,,,,,,,
"72493893231","2020-08-05T00:55:00","FM-15","7",,,,,,,,,,,,,,,,,,,,,,,,,,,,,,,,,,,,,,"29.98","55","59",,,,,"88",,"OVC:08 11","29.97","10.00","57","260",,"11",,,,,,,,,,,,,,,,,,,,,,,,,,,,,,,,,,,,,"MET07608/05/20 00:55:01 METAR KSQL 050855Z 26010KT 10SM OVC011 15/13 A2998 RMK AO2","FM-15","7",,,,,,,,,,,,,,,,,,,,,,,,,,,,
"72493893231","2020-08-05T01:15:00","FM-15","7",,,,,,,,,,,,,,,,,,,,,,,,,,,,,,,,,,,,,,"29.98","55","59",,,,,"88",,"OVC:08 11","29.97","10.00","57","230",,"10",,,,,,,,,,,,,,,,,,,,,,,,,,,,,,,,,,,,,"MET07608/05/20 01:15:01 METAR KSQL 050915Z 23009KT 10SM OVC011 15/13 A2998 RMK AO2","FM-15","7",,,,,,,,,,,,,,,,,,,,,,,,,,,,
"72493893231","2020-08-05T01:35:00","FM-15","7",,,,,,,,,,,,,,,,,,,,,,,,,,,,,,,,,,,,,,"29.98","55","59",,,,,"88",,"OVC:08 11","29.97","10.00","57","260",,"7",,,,,,,,,,,,,,,,,,,,,,,,,,,,,,,,,,,,,"MET07608/05/20 01:35:01 METAR KSQL 050935Z 26006KT 10SM OVC011 15/13 A2998 RMK AO2","FM-15","7",,,,,,,,,,,,,,,,,,,,,,,,,,,,
"72493893231","2020-08-05T01:55:00","FM-15","7",,,,,,,,,,,,,,,,,,,,,,,,,,,,,,,,,,,,,,"29.98","55","59",,,,,"88",,"OVC:08 11","29.97","10.00","57","260",,"10",,,,,,,,,,,,,,,,,,,,,,,,,,,,,,,,,,,,,"MET07608/05/20 01:55:01 METAR KSQL 050955Z 26009KT 10SM OVC011 15/13 A2998 RMK AO2","FM-15","7",,,,,,,,,,,,,,,,,,,,,,,,,,,,
"72493893231","2020-08-05T02:15:00","FM-15","7",,,,,,,,,,,,,,,,,,,,,,,,,,,,,,,,,,,,,,"29.98","55","59",,,,,"88",,"OVC:08 11","29.97","10.00","57","240",,"8",,,,,,,,,,,,,,,,,,,,,,,,,,,,,,,,,,,,,"MET07608/05/20 02:15:01 METAR KSQL 051015Z 24007KT 10SM OVC011 15/13 A2998 RMK AO2","FM-15","7",,,,,,,,,,,,,,,,,,,,,,,,,,,,
"72493893231","2020-08-05T02:35:00","FM-15","7",,,,,,,,,,,,,,,,,,,,,,,,,,,,,,,,,,,,,,"29.98","55","59",,,,,"88",,"OVC:08 11","29.97","10.00","57","240",,"10",,,,,,,,,,,,,,,,,,,,,,,,,,,,,,,,,,,,,"MET07608/05/20 02:35:01 METAR KSQL 051035Z 24009KT 10SM OVC011 15/13 A2998 RMK AO2","FM-15","7",,,,,,,,,,,,,,,,,,,,,,,,,,,,
"72493893231","2020-08-05T02:55:00","FM-15","7",,,,,,,,,,,,,,,,,,,,,,,,,,,,,,,,,,,,,,"29.98","55","59",,,,,"88",,"OVC:08 13","29.97","10.00","57","250",,"11",,,,,,,,,,,,,,,,,,,,,,,,,,,,,,,,,,,,,"MET07608/05/20 02:55:01 METAR KSQL 051055Z 25010KT 10SM OVC013 15/13 A2998 RMK AO2","FM-15","7",,,,,,,,,,,,,,,,,,,,,,,,,,,,
"72493893231","2020-08-05T03:15:00","FM-15","7",,,,,,,,,,,,,,,,,,,,,,,,,,,,,,,,,,,,,,"29.98","55","59",,,,,"88",,"OVC:08 11","29.97","10.00","57","230",,"8",,,,,,,,,,,,,,,,,,,,,,,,,,,,,,,,,,,,,"MET07608/05/20 03:15:01 METAR KSQL 051115Z 23007KT 10SM OVC011 15/13 A2998 RMK AO2","FM-15","7",,,,,,,,,,,,,,,,,,,,,,,,,,,,
"72493893231","2020-08-05T03:35:00","FM-15","7",,,,,,,,,,,,,,,,,,,,,,,,,,,,,,,,,,,,,,"29.97","55","59",,,,,"88",,"OVC:08 13","29.96","10.00","57","250",,"9",,,,,,,,,,,,,,,,,,,,,,,,,,,,,,,,,,,,,"MET07608/05/20 03:35:01 METAR KSQL 051135Z 25008KT 10SM OVC013 15/13 A2997 RMK AO2","FM-15","7",,,,,,,,,,,,,,,,,,,,,,,,,,,,
"72493893231","2020-08-05T03:55:00","FM-15","7",,,,,,,,,,,,,,,,,,,,,,,,,,,,,,,,,,,,,,"29.98","55","59",,,,,"88",,"BKN:07 9 OVC:08 15","29.97","10.00","57","240",,"7",,,,,,,,,,,,,,,,,,,,,,,,,,,,,,,,,,,,,"MET08308/05/20 03:55:01 METAR KSQL 051155Z 24006KT 10SM BKN009 OVC015 15/13 A2998 RMK AO2","FM-15","7",,,,,,,,,,,,,,,,,,,,,,,,,,,,
"72493893231","2020-08-05T04:15:00","FM-15","7",,,,,,,,,,,,,,,,,,,,,,,,,,,,,,,,,,,,,,"29.98","55","59",,,,,"88",,"OVC:08 11","29.97","10.00","57","240",,"6",,,,,,,,,,,,,,,,,,,,,,,,,,,,,,,,,,,,,"MET07608/05/20 04:15:01 METAR KSQL 051215Z 24005KT 10SM OVC011 15/13 A2998 RMK AO2","FM-15","7",,,,,,,,,,,,,,,,,,,,,,,,,,,,
"72493893231","2020-08-05T04:35:00","FM-15","7",,,,,,,,,,,,,,,,,,,,,,,,,,,,,,,,,,,,,,"29.98","55","59",,,,,"88",,"OVC:08 11","29.97","10.00","57","240",,"7",,,,,,,,,,,,,,,,,,,,,,,,,,,,,,,,,,,,,"MET07608/05/20 04:35:01 METAR KSQL 051235Z 24006KT 10SM OVC011 15/13 A2998 RMK AO2","FM-15","7",,,,,,,,,,,,,,,,,,,,,,,,,,,,
"72493893231","2020-08-05T04:55:00","FM-15","7",,,,,,,,,,,,,,,,,,,,,,,,,,,,,,,,,,,,,,"29.98","55","59",,,,,"88",,"BKN:07 9 OVC:08 13","29.97","10.00","57","240",,"9",,,,,,,,,,,,,,,,,,,,,,,,,,,,,,,,,,,,,"MET08308/05/20 04:55:01 METAR KSQL 051255Z 24008KT 10SM BKN009 OVC013 15/13 A2998 RMK AO2","FM-15","7",,,,,,,,,,,,,,,,,,,,,,,,,,,,
"72493893231","2020-08-05T05:15:00","FM-15","7",,,,,,,,,,,,,,,,,,,,,,,,,,,,,,,,,,,,,,"29.98","55","59",,,,,"88",,"OVC:08 9","29.97","10.00","57","240",,"13",,,,,,,,,,,,,,,,,,,,,,,,,,,,,,,,,,,,,"MET07608/05/20 05:15:01 METAR KSQL 051315Z 24011KT 10SM OVC009 15/13 A2998 RMK AO2","FM-15","7",,,,,,,,,,,,,,,,,,,,,,,,,,,,
"72493893231","2020-08-05T05:35:00","FM-15","7",,,,,,,,,,,,,,,,,,,,,,,,,,,,,,,,,,,,,,"29.98","55","59",,,,,"88",,"OVC:08 9","29.97","10.00","57","240",,"10",,,,,,,,,,,,,,,,,,,,,,,,,,,,,,,,,,,,,"MET07608/05/20 05:35:01 METAR KSQL 051335Z 24009KT 10SM OVC009 15/13 A2998 RMK AO2","FM-15","7",,,,,,,,,,,,,,,,,,,,,,,,,,,,
"72493893231","2020-08-05T05:55:00","FM-15","7",,,,,,,,,,,,,,,,,,,,,,,,,,,,,,,,,,,,,,"29.99","55","59",,,,,"88",,"OVC:08 9","29.98","10.00","57","VRB",,"8",,,,,,,,,,,,,,,,,,,,,,,,,,,,,,,,,,,,,"MET07608/05/20 05:55:01 METAR KSQL 051355Z 25007KT 10SM OVC009 15/13 A2999 RMK AO2","FM-15","7",,,,,,,,,,,,,,,,,,,,,,,,,,,,
"72493893231","2020-08-05T06:53:00","FM-15","7",,,,,,,,,,,,,,,,,,,,,,,,,,,,,,,,,,,,,,"29.99","55","59",,,,,"88",,"OVC:08 9","29.98","10.00","57","230",,"7",,,,,,,,,,,,,,,,,,,,,,,,,,,,,,,,,,,,,"MET07208/05/20 06:53:01 METAR KSQL 051453Z 23006KT 10SM OVC009 15/13 A2999 RMK","FM-15","7",,,,,,,,,,,,,,,,,,,,,,,,,,,,
"72493893231","2020-08-05T07:58:00","FM-15","7",,,,,,,,,,,,,,,,,,,,,,,,,,,,,,,,,,,,,,"30.00","55","59",,,,,"88",,"OVC:08 9","29.99","10.00","57","250",,"11",,,,,,,,,,,,,,,,,,,,,,,,,,,,,,,,,,,,,"MET07208/05/20 07:58:02 METAR KSQL 051558Z 25010KT 10SM OVC009 15/13 A3000 RMK","FM-15","7",,,,,,,,,,,,,,,,,,,,,,,,,,,,
"72493893231","2020-08-05T08:48:00","FM-15","7",,,,,,,,,,,,,,,,,,,,,,,,,,,,,,,,,,,,,,"30.00","55","59",,,,,"88",,"OVC:08 9","29.99","10.00","57","240",,"8",,,,,,,,,,,,,,,,,,,,,,,,,,,,,,,,,,,,,"MET07208/05/20 08:48:02 METAR KSQL 051648Z 24007KT 10SM OVC009 15/13 A3000 RMK","FM-15","7",,,,,,,,,,,,,,,,,,,,,,,,,,,,
"72493893231","2020-08-05T09:08:00","FM-15","7",,,,,,,,,,,,,,,,,,,,,,,,,,,,,,,,,,,,,,"30.00","55","61",,,,,"83",,"OVC:08 11","29.99","10.00","58","220",,"10",,,,,,,,,,,,,,,,,,,,,,,,,,,,,,,,,,,,,"MET07208/05/20 09:08:02 METAR KSQL 051708Z 22009KT 10SM OVC011 16/13 A3000 RMK","FM-15","7",,,,,,,,,,,,,,,,,,,,,,,,,,,,
"72493893231","2020-08-05T09:49:00","FM-15","7",,,,,,,,,,,,,,,,,,,,,,,,,,,,,,,,,,,,,,"30.01","55","63",,,,,"77",,"OVC:08 13","30.00","10.00","58","240",,"10",,,,,,,,,,,,,,,,,,,,,,,,,,,,,,,,,,,,,"MET07208/05/20 09:49:02 METAR KSQL 051749Z 24009KT 10SM OVC013 17/13 A3001 RMK","FM-15","7",,,,,,,,,,,,,,,,,,,,,,,,,,,,
"72493893231","2020-08-05T10:57:00","FM-15","7",,,,,,,,,,,,,,,,,,,,,,,,,,,,,,,,,,,,,,"30.01","55","64",,,,,"73",,"OVC:08 17","30.00","10.00","59","230",,"9",,,,,,,,,,,,,,,,,,,,,,,,,,,,,,,,,,,,,"MET07208/05/20 10:57:02 METAR KSQL 051857Z 23008KT 10SM OVC017 18/13 A3001 RMK","FM-15","7",,,,,,,,,,,,,,,,,,,,,,,,,,,,
"72493893231","2020-08-05T11:58:00","FM-15","7",,,,,,,,,,,,,,,,,,,,,,,,,,,,,,,,,,,,,,"30.00","55","64",,,,,"73",,"OVC:08 19","29.99","10.00","59","220",,"13",,,,,,,,,,,,,,,,,,,,,,,,,,,,,,,,,,,,,"MET07208/05/20 11:58:02 METAR KSQL 051958Z 22011KT 10SM OVC019 18/13 A3000 RMK","FM-15","7",,,,,,,,,,,,,,,,,,,,,,,,,,,,
"72493893231","2020-08-05T12:53:00","FM-15","7",,,,,,,,,,,,,,,,,,,,,,,,,,,,,,,,,,,,,,"30.00","55","64",,,,,"73",,"OVC:08 21","29.99","10.00","59","240",,"13",,,,,,,,,,,,,,,,,,,,,,,,,,,,,,,,,,,,,"MET07208/05/20 12:53:02 METAR KSQL 052053Z 24011KT 10SM OVC021 18/13 A3000 RMK","FM-15","7",,,,,,,,,,,,,,,,,,,,,,,,,,,,
"72493893231","2020-08-05T13:53:00","FM-15","7",,,,,,,,,,,,,,,,,,,,,,,,,,,,,,,,,,,,,,"30.00","55","64",,,,,"73",,"OVC:08 19","29.99","10.00","59","230",,"10",,,,,,,,,,,,,,,,,,,,,,,,,,,,,,,,,,,,,"MET07208/05/20 13:53:02 METAR KSQL 052153Z 23009KT 10SM OVC019 18/13 A3000 RMK","FM-15","7",,,,,,,,,,,,,,,,,,,,,,,,,,,,
"72493893231","2020-08-05T14:58:00","FM-15","7",,,,,,,,,,,,,,,,,,,,,,,,,,,,,,,,,,,,,,"29.99","55","64",,,,,"73",,"OVC:08 19","29.98","10.00","59","230",,"10",,,,,,,,,,,,,,,,,,,,,,,,,,,,,,,,,,,,,"MET07208/05/20 14:58:02 METAR KSQL 052258Z 23009KT 10SM OVC019 18/13 A2999 RMK","FM-15","7",,,,,,,,,,,,,,,,,,,,,,,,,,,,
"72493893231","2020-08-05T16:47:00","FM-15","7",,,,,,,,,,,,,,,,,,,,,,,,,,,,,,,,,,,,,,"29.97","55","64",,,,,"73",,"OVC:08 21","29.96","10.00","59","230",,"11",,,,,,,,,,,,,,,,,,,,,,,,,,,,,,,,,,,,,"MET07208/05/20 16:47:01 METAR KSQL 060047Z 23010KT 10SM OVC021 18/13 A2997 RMK","FM-15","7",,,,,,,,,,,,,,,,,,,,,,,,,,,,
"72493893231","2020-08-05T17:55:00","FM-15","7",,,,,,,,,,,,,,,,,,,,,,,,,,,,,,,,,,,,,,"29.96","55","63",,,,,"77",,"OVC:08 21","29.95","10.00","58","240",,"8",,,,,,,,,,,,,,,,,,,,,,,,,,,,,,,,,,,,,"MET07208/05/20 17:55:02 METAR KSQL 060155Z 24007KT 10SM OVC021 17/13 A2996 RMK","FM-15","7",,,,,,,,,,,,,,,,,,,,,,,,,,,,
"72493893231","2020-08-05T18:52:00","FM-15","7",,,,,,,,,,,,,,,,,,,,,,,,,,,,,,,,,,,,,,"29.96","54","63",,,,,"73",,"OVC:08 21","29.95","10.00","58","240",,"8",,,,,,,,,,,,,,,,,,,,,,,,,,,,,,,,,,,,,"MET07208/05/20 18:52:02 METAR KSQL 060252Z 24007KT 10SM OVC021 17/12 A2996 RMK","FM-15","7",,,,,,,,,,,,,,,,,,,,,,,,,,,,
"72493893231","2020-08-05T19:47:00","FM-15","7",,,,,,,,,,,,,,,,,,,,,,,,,,,,,,,,,,,,,,"29.96","55","63",,,,,"77",,"OVC:08 21","29.95","10.00","58","230",,"8",,,,,,,,,,,,,,,,,,,,,,,,,,,,,,,,,,,,,"MET07708/05/20 19:47:02 METAR KSQL 060347Z 23007KT 10SM OVC021 17/13 A2996 RMK LAST","FM-15","7",,,,,,,,,,,,,,,,,,,,,,,,,,,,
"72493893231","2020-08-05T20:15:00","FM-15","7",,,,,,,,,,,,,,,,,,,,,,,,,,,,,,,,,,,,,,"29.96","54","63",,,,,"73",,"OVC:08 21","29.95","10.00","58","240",,"9",,,,,,,,,,,,,,,,,,,,,,,,,,,,,,,,,,,,,"MET07608/05/20 20:15:02 METAR KSQL 060415Z 24008KT 10SM OVC021 17/12 A2996 RMK AO2","FM-15","7",,,,,,,,,,,,,,,,,,,,,,,,,,,,
"72493893231","2020-08-05T20:35:00","FM-15","7",,,,,,,,,,,,,,,,,,,,,,,,,,,,,,,,,,,,,,"29.97","55","63",,,,,"77",,"OVC:08 19","29.96","10.00","58","240",,"9",,,,,,,,,,,,,,,,,,,,,,,,,,,,,,,,,,,,,"MET07608/05/20 20:35:02 METAR KSQL 060435Z 24008KT 10SM OVC019 17/13 A2997 RMK AO2","FM-15","7",,,,,,,,,,,,,,,,,,,,,,,,,,,,
"72493893231","2020-08-05T20:55:00","FM-15","7",,,,,,,,,,,,,,,,,,,,,,,,,,,,,,,,,,,,,,"29.97","55","63",,,,,"77",,"OVC:08 19","29.96","10.00","58","260",,"9",,,,,,,,,,,,,,,,,,,,,,,,,,,,,,,,,,,,,"MET07608/05/20 20:55:02 METAR KSQL 060455Z 26008KT 10SM OVC019 17/13 A2997 RMK AO2","FM-15","7",,,,,,,,,,,,,,,,,,,,,,,,,,,,
"72493893231","2020-08-05T21:15:00","FM-15","7",,,,,,,,,,,,,,,,,,,,,,,,,,,,,,,,,,,,,,"29.97","55","63",,,,,"77",,"OVC:08 17","29.96","10.00","58","270",,"7",,,,,,,,,,,,,,,,,,,,,,,,,,,,,,,,,,,,,"MET07608/05/20 21:15:02 METAR KSQL 060515Z 27006KT 10SM OVC017 17/13 A2997 RMK AO2","FM-15","7",,,,,,,,,,,,,,,,,,,,,,,,,,,,
"72493893231","2020-08-05T21:35:00","FM-15","7",,,,,,,,,,,,,,,,,,,,,,,,,,,,,,,,,,,,,,"29.96","55","63",,,,,"77",,"OVC:08 15","29.95","10.00","58","270",,"7",,,,,,,,,,,,,,,,,,,,,,,,,,,,,,,,,,,,,"MET07608/05/20 21:35:02 METAR KSQL 060535Z 27006KT 10SM OVC015 17/13 A2996 RMK AO2","FM-15","7",,,,,,,,,,,,,,,,,,,,,,,,,,,,
"72493893231","2020-08-05T21:55:00","FM-15","7",,,,,,,,,,,,,,,,,,,,,,,,,,,,,,,,,,,,,,"29.96","55","61",,,,,"83",,"OVC:08 15","29.95","10.00","58","270",,"7",,,,,,,,,,,,,,,,,,,,,,,,,,,,,,,,,,,,,"MET07608/05/20 21:55:02 METAR KSQL 060555Z 27006KT 10SM OVC015 16/13 A2996 RMK AO2","FM-15","7",,,,,,,,,,,,,,,,,,,,,,,,,,,,
"72493893231","2020-08-05T22:15:00","FM-15","7",,,,,,,,,,,,,,,,,,,,,,,,,,,,,,,,,,,,,,"29.96","55","61",,,,,"83",,"OVC:08 15","29.95","10.00","58","250",,"9",,,,,,,,,,,,,,,,,,,,,,,,,,,,,,,,,,,,,"MET07608/05/20 22:15:02 METAR KSQL 060615Z 25008KT 10SM OVC015 16/13 A2996 RMK AO2","FM-15","7",,,,,,,,,,,,,,,,,,,,,,,,,,,,
"72493893231","2020-08-05T22:35:00","FM-15","7",,,,,,,,,,,,,,,,,,,,,,,,,,,,,,,,,,,,,,"29.95","55","61",,,,,"83",,"OVC:08 15","29.94","10.00","58","250",,"8",,,,,,,,,,,,,,,,,,,,,,,,,,,,,,,,,,,,,"MET07608/05/20 22:35:02 METAR KSQL 060635Z 25007KT 10SM OVC015 16/13 A2995 RMK AO2","FM-15","7",,,,,,,,,,,,,,,,,,,,,,,,,,,,
"72493893231","2020-08-05T22:55:00","FM-15","7",,,,,,,,,,,,,,,,,,,,,,,,,,,,,,,,,,,,,,"29.95","55","61",,,,,"83",,"OVC:08 13","29.94","10.00","58","240",,"8",,,,,,,,,,,,,,,,,,,,,,,,,,,,,,,,,,,,,"MET07608/05/20 22:55:02 METAR KSQL 060655Z 24007KT 10SM OVC013 16/13 A2995 RMK AO2","FM-15","7",,,,,,,,,,,,,,,,,,,,,,,,,,,,
"72493893231","2020-08-05T23:15:00","FM-15","7",,,,,,,,,,,,,,,,,,,,,,,,,,,,,,,,,,,,,,"29.95","55","61",,,,,"83",,"OVC:08 13","29.94","10.00","58","250","17","11",,,,,,,,,,,,,,,,,,,,,,,,,,,,,,,,,,,,,"MET07908/05/20 23:15:02 METAR KSQL 060715Z 25010G15KT 10SM OVC013 16/13 A2995 RMK AO2","FM-15","7",,,,,,,,,,,,,,,,,,,,,,,,,,,,
"72493893231","2020-08-05T23:35:00","FM-15","7",,,,,,,,,,,,,,,,,,,,,,,,,,,,,,,,,,,,,,"29.95","55","59",,,,,"88",,"OVC:08 13","29.94","10.00","57","240",,"7",,,,,,,,,,,,,,,,,,,,,,,,,,,,,,,,,,,,,"MET07608/05/20 23:35:02 METAR KSQL 060735Z 24006KT 10SM OVC013 15/13 A2995 RMK AO2","FM-15","7",,,,,,,,,,,,,,,,,,,,,,,,,,,,
"72493893231","2020-08-05T23:55:00","FM-15","7",,,,,,,,,,,,,,,,,,,,,,,,,,,,,,,,,,,,,,"29.95","55","59",,,,,"88",,"OVC:08 11","29.94","10.00","57","240",,"7",,,,,,,,,,,,,,,,,,,,,,,,,,,,,,,,,,,,,"MET07608/05/20 23:55:02 METAR KSQL 060755Z 24006KT 10SM OVC011 15/13 A2995 RMK AO2","FM-15","7",,,,,,,,,,,,,,,,,,,,,,,,,,,,
"72493893231","2020-08-06T00:15:00","FM-15","7",,,,,,,,,,,,,,,,,,,,,,,,,,,,,,,,,,,,,,"29.94","55","59",,,,,"88",,"OVC:08 11","29.93","10.00","57","250",,"9",,,,,,,,,,,,,,,,,,,,,,,,,,,,,,,,,,,,,"MET07608/06/20 00:15:02 METAR KSQL 060815Z 25008KT 10SM OVC011 15/13 A2994 RMK AO2","FM-15","7",,,,,,,,,,,,,,,,,,,,,,,,,,,,
"72493893231","2020-08-06T00:35:00","FM-15","7",,,,,,,,,,,,,,,,,,,,,,,,,,,,,,,,,,,,,,"29.94","55","59",,,,,"88",,"OVC:08 13","29.93","10.00","57","260",,"10",,,,,,,,,,,,,,,,,,,,,,,,,,,,,,,,,,,,,"MET07608/06/20 00:35:02 METAR KSQL 060835Z 26009KT 10SM OVC013 15/13 A2994 RMK AO2","FM-15","7",,,,,,,,,,,,,,,,,,,,,,,,,,,,
"72493893231","2020-08-06T00:55:00","FM-15","7",,,,,,,,,,,,,,,,,,,,,,,,,,,,,,,,,,,,,,"29.93","55","59",,,,,"88",,"OVC:08 13","29.92","10.00","57","270",,"7",,,,,,,,,,,,,,,,,,,,,,,,,,,,,,,,,,,,,"MET07608/06/20 00:55:02 METAR KSQL 060855Z 27006KT 10SM OVC013 15/13 A2993 RMK AO2","FM-15","7",,,,,,,,,,,,,,,,,,,,,,,,,,,,
"72493893231","2020-08-06T01:15:00","FM-15","7",,,,,,,,,,,,,,,,,,,,,,,,,,,,,,,,,,,,,,"29.93","55","59",,,,,"88",,"OVC:08 13","29.92","10.00","57","250",,"8",,,,,,,,,,,,,,,,,,,,,,,,,,,,,,,,,,,,,"MET07608/06/20 01:15:02 METAR KSQL 060915Z 25007KT 10SM OVC013 15/13 A2993 RMK AO2","FM-15","7",,,,,,,,,,,,,,,,,,,,,,,,,,,,
"72493893231","2020-08-06T01:35:00","FM-15","7",,,,,,,,,,,,,,,,,,,,,,,,,,,,,,,,,,,,,,"29.92","55","59",,,,,"88",,"OVC:08 13","29.91","10.00","57","290",,"8",,,,,,,,,,,,,,,,,,,,,,,,,,,,,,,,,,,,,"MET07608/06/20 01:35:02 METAR KSQL 060935Z 29007KT 10SM OVC013 15/13 A2992 RMK AO2","FM-15","7",,,,,,,,,,,,,,,,,,,,,,,,,,,,
"72493893231","2020-08-06T01:55:00","FM-15","7",,,,,,,,,,,,,,,,,,,,,,,,,,,,,,,,,,,,,,"29.92","55","59",,,,,"88",,"OVC:08 17","29.91","10.00","57","270",,"9",,,,,,,,,,,,,,,,,,,,,,,,,,,,,,,,,,,,,"MET07608/06/20 01:55:02 METAR KSQL 060955Z 27008KT 10SM OVC017 15/13 A2992 RMK AO2","FM-15","7",,,,,,,,,,,,,,,,,,,,,,,,,,,,
"72493893231","2020-08-06T02:15:00","FM-15","7",,,,,,,,,,,,,,,,,,,,,,,,,,,,,,,,,,,,,,"29.92","55","59",,,,,"88",,"OVC:08 17","29.91","10.00","57","270",,"10",,,,,,,,,,,,,,,,,,,,,,,,,,,,,,,,,,,,,"MET07608/06/20 02:15:02 METAR KSQL 061015Z 27009KT 10SM OVC017 15/13 A2992 RMK AO2","FM-15","7",,,,,,,,,,,,,,,,,,,,,,,,,,,,
"72493893231","2020-08-06T02:35:00","FM-15","7",,,,,,,,,,,,,,,,,,,,,,,,,,,,,,,,,,,,,,"29.91","55","59",,,,,"88",,"OVC:08 17","29.90","10.00","57","300",,"8",,,,,,,,,,,,,,,,,,,,,,,,,,,,,,,,,,,,,"MET07608/06/20 02:35:02 METAR KSQL 061035Z 30007KT 10SM OVC017 15/13 A2991 RMK AO2","FM-15","7",,,,,,,,,,,,,,,,,,,,,,,,,,,,
"72493893231","2020-08-06T02:55:00","FM-15","7",,,,,,,,,,,,,,,,,,,,,,,,,,,,,,,,,,,,,,"29.91","55","59",,,,,"88",,"OVC:08 17","29.90","10.00","57","290",,"5",,,,,,,,,,,,,,,,,,,,,,,,,,,,,,,,,,,,,"MET07608/06/20 02:55:02 METAR KSQL 061055Z 29004KT 10SM OVC017 15/13 A2991 RMK AO2","FM-15","7",,,,,,,,,,,,,,,,,,,,,,,,,,,,
"72493893231","2020-08-06T03:15:00","FM-15","7",,,,,,,,,,,,,,,,,,,,,,,,,,,,,,,,,,,,,,"29.91","55","59",,,,,"88",,"OVC:08 17","29.90","10.00","57","300",,"3",,,,,,,,,,,,,,,,,,,,,,,,,,,,,,,,,,,,,"MET07608/06/20 03:15:02 METAR KSQL 061115Z 30003KT 10SM OVC017 15/13 A2991 RMK AO2","FM-15","7",,,,,,,,,,,,,,,,,,,,,,,,,,,,
"72493893231","2020-08-06T03:35:00","FM-15","7",,,,,,,,,,,,,,,,,,,,,,,,,,,,,,,,,,,,,,"29.91","55","59",,,,,"88",,"OVC:08 19","29.90","10.00","57","280",,"6",,,,,,,,,,,,,,,,,,,,,,,,,,,,,,,,,,,,,"MET07608/06/20 03:35:02 METAR KSQL 061135Z 28005KT 10SM OVC019 15/13 A2991 RMK AO2","FM-15","7",,,,,,,,,,,,,,,,,,,,,,,,,,,,
"72493893231","2020-08-06T03:55:00","FM-15","7",,,,,,,,,,,,,,,,,,,,,,,,,,,,,,,,,,,,,,"29.91","55","59",,,,,"88",,"OVC:08 19","29.90","10.00","57","270",,"3",,,,,,,,,,,,,,,,,,,,,,,,,,,,,,,,,,,,,"MET07608/06/20 03:55:02 METAR KSQL 061155Z 27003KT 10SM OVC019 15/13 A2991 RMK AO2","FM-15","7",,,,,,,,,,,,,,,,,,,,,,,,,,,,
"72493893231","2020-08-06T04:15:00","FM-15","7",,,,,,,,,,,,,,,,,,,,,,,,,,,,,,,,,,,,,,"29.90","54","59",,,,,"82",,"OVC:08 19","29.89","10.00","56","280",,"6",,,,,,,,,,,,,,,,,,,,,,,,,,,,,,,,,,,,,"MET07608/06/20 04:15:02 METAR KSQL 061215Z 28005KT 10SM OVC019 15/12 A2990 RMK AO2","FM-15","7",,,,,,,,,,,,,,,,,,,,,,,,,,,,
"72493893231","2020-08-06T04:35:00","FM-15","7",,,,,,,,,,,,,,,,,,,,,,,,,,,,,,,,,,,,,,"29.90","55","59",,,,,"88",,"BKN:07 19 BKN:07 25","29.89","10.00","57","300",,"5",,,,,,,,,,,,,,,,,,,,,,,,,,,,,,,,,,,,,"MET08308/06/20 04:35:02 METAR KSQL 061235Z 30004KT 10SM BKN019 BKN025 15/13 A2990 RMK AO2","FM-15","7",,,,,,,,,,,,,,,,,,,,,,,,,,,,
"72493893231","2020-08-06T04:55:00","FM-15","7",,,,,,,,,,,,,,,,,,,,,,,,,,,,,,,,,,,,,,"29.90","54","59",,,,,"82",,"OVC:08 21","29.89","10.00","56","300",,"6",,,,,,,,,,,,,,,,,,,,,,,,,,,,,,,,,,,,,"MET07608/06/20 04:55:02 METAR KSQL 061255Z 30005KT 10SM OVC021 15/12 A2990 RMK AO2","FM-15","7",,,,,,,,,,,,,,,,,,,,,,,,,,,,
"72493893231","2020-08-06T05:15:00","FM-15","7",,,,,,,,,,,,,,,,,,,,,,,,,,,,,,,,,,,,,,"29.91","54","59",,,,,"82",,"OVC:08 19","29.90","10.00","56","290",,"3",,,,,,,,,,,,,,,,,,,,,,,,,,,,,,,,,,,,,"MET07608/06/20 05:15:02 METAR KSQL 061315Z 29003KT 10SM OVC019 15/12 A2991 RMK AO2","FM-15","7",,,,,,,,,,,,,,,,,,,,,,,,,,,,
"72493893231","2020-08-06T05:35:00","FM-15","7",,,,,,,,,,,,,,,,,,,,,,,,,,,,,,,,,,,,,,"29.91","54","59",,,,,"82",,"OVC:08 21","29.90","10.00","56","250",,"6",,,,,,,,,,,,,,,,,,,,,,,,,,,,,,,,,,,,,"MET07608/06/20 05:35:02 METAR KSQL 061335Z 25005KT 10SM OVC021 15/12 A2991 RMK AO2","FM-15","7",,,,,,,,,,,,,,,,,,,,,,,,,,,,
"72493893231","2020-08-06T05:55:00","FM-15","7",,,,,,,,,,,,,,,,,,,,,,,,,,,,,,,,,,,,,,"29.91","54","59",,,,,"82",,"OVC:08 23","29.90","10.00","56","250",,"3",,,,,,,,,,,,,,,,,,,,,,,,,,,,,,,,,,,,,"MET07608/06/20 05:55:02 METAR KSQL 061355Z 25003KT 10SM OVC023 15/12 A2991 RMK AO2","FM-15","7",,,,,,,,,,,,,,,,,,,,,,,,,,,,
"72493893231","2020-08-06T06:00:00","FM-15","4",,,,,,,,,,,,,,,,,,,,,,,,,,,,,,,,,,,,,,"29.91","54","59",,,,,"82",,,,"10.00",,"VRB",,"5",,,,,,,,,,,,,,,,,,,,,,,,,,,,,,,,,,,,,"MET051METAR KSQL 061400Z VRB04KT 10SM OVC021 15/12 A2991=","FM-15","4",,,,,,,,,,,,,,,,,,,,,,,,,,,,
"72493893231","2020-08-06T06:47:00","FM-15","7",,,,,,,,,,,,,,,,,,,,,,,,,,,,,,,,,,,,,,"29.91","54","59",,,,,"82",,"FEW:02 23","29.90",,"56","000",,"0",,,,,,,,,,,,,,,,,,,,,,,,,,,,,,,,,,,,,"MET06708/06/20 06:47:02 METAR KSQL 061447Z 00000KT FEW023 15/12 A2991 RMK","FM-15","7",,,,,,,,,,,,,,,,,,,,,,,,,,,,
"72493893231","2020-08-06T07:47:00","FM-15","7",,,,,,,,,,,,,,,,,,,,,,,,,,,,,,,,,,,,,,"29.92","55","64",,,,,"73",,"FEW:02 23","29.91","10.00","59","VRB",,"3",,,,,,,,,,,,,,,,,,,,,,,,,,,,,,,,,,,,,"MET07208/06/20 07:47:02 METAR KSQL 061547Z VRB03KT 10SM FEW023 18/13 A2992 RMK","FM-15","7",,,,,,,,,,,,,,,,,,,,,,,,,,,,
"72493893231","2020-08-06T08:47:00","FM-15","7",,,,,,,,,,,,,,,,,,,,,,,,,,,,,,,,,,,,,,"29.93","57","66",,,,,"73",,"FEW:02 11","29.92","10.00","61","VRB",,"3",,,,,,,,,,,,,,,,,,,,,,,,,,,,,,,,,,,,,"MET07208/06/20 08:47:02 METAR KSQL 061647Z VRB03KT 10SM FEW011 19/14 A2993 RMK","FM-15","7",,,,,,,,,,,,,,,,,,,,,,,,,,,,
"72493893231","2020-08-06T09:47:00","FM-15","7",,,,,,,,,,,,,,,,,,,,,,,,,,,,,,,,,,,,,,"29.93","59","66",,,,,"78",,"*","29.92","10.00","62","VRB",,"3",,,,,,,,,,,,,,,,,,,,,,,,,,,,,,,,,,,,,"MET06908/06/20 09:47:02 METAR KSQL 061747Z VRB03KT 10SM SKC 19/15 A2993 RMK","FM-15","7",,,,,,,,,,,,,,,,,,,,,,,,,,,,
"72493893231","2020-08-06T10:47:00","FM-15","7",,,,,,,,,,,,,,,,,,,,,,,,,,,,,,,,,,,,,,"29.94","57","70",,,,,"64",,"*","29.93","10.00","62","360",,"11",,,,,,,,,,,,,,,,,,,,,,,,,,,,,,,,,,,,,"MET06908/06/20 10:47:02 METAR KSQL 061847Z 36010KT 10SM SKC 21/14 A2994 RMK","FM-15","7",,,,,,,,,,,,,,,,,,,,,,,,,,,,
"72493893231","2020-08-06T11:47:00","FM-15","7",,,,,,,,,,,,,,,,,,,,,,,,,,,,,,,,,,,,,,"29.94","59","70",,,,,"69",,"*","29.93","10.00","63","010",,"7",,,,,,,,,,,,,,,,,,,,,,,,,,,,,,,,,,,,,"MET06908/06/20 11:47:02 METAR KSQL 061947Z 01006KT 10SM SKC 21/15 A2994 RMK","FM-15","7",,,,,,,,,,,,,,,,,,,,,,,,,,,,
"72493893231","2020-08-06T12:47:00","FM-15","7",,,,,,,,,,,,,,,,,,,,,,,,,,,,,,,,,,,,,,"29.93","57","73",,,,,"57",,"*","29.92","10.00","63","350",,"11",,,,,,,,,,,,,,,,,,,,,,,,,,,,,,,,,,,,,"MET06908/06/20 12:47:02 METAR KSQL 062047Z 35010KT 10SM SKC 23/14 A2993 RMK","FM-15","7",,,,,,,,,,,,,,,,,,,,,,,,,,,,
"72493893231","2020-08-06T13:47:00","FM-15","7",,,,,,,,,,,,,,,,,,,,,,,,,,,,,,,,,,,,,,"29.92","55","77",,,,,"47",,"*","29.91","10.00","64","240",,"13",,,,,,,,,,,,,,,,,,,,,,,,,,,,,,,,,,,,,"MET06908/06/20 13:47:02 METAR KSQL 062147Z 24011KT 10SM SKC 25/13 A2992 RMK","FM-15","7",,,,,,,,,,,,,,,,,,,,,,,,,,,,
"72493893231","2020-08-06T14:47:00","FM-15","7",,,,,,,,,,,,,,,,,,,,,,,,,,,,,,,,,,,,,,"29.91","55","75",,,,,"50",,"*","29.90","10.00","63","250","22","16",,,,,,,,,,,,,,,,,,,,,,,,,,,,,,,,,,,,,"MET07208/06/20 14:47:02 METAR KSQL 062247Z 25014G19KT 10SM SKC 24/13 A2991 RMK","FM-15","7",,,,,,,,,,,,,,,,,,,,,,,,,,,,
"72493893231","2020-08-06T15:47:00","FM-15","7",,,,,,,,,,,,,,,,,,,,,,,,,,,,,,,,,,,,,,"29.91","57","73",,,,,"57",,"*","29.90","10.00","63","250","24","17",,,,,,,,,,,,,,,,,,,,,,,,,,,,,,,,,,,,,"MET07208/06/20 15:47:02 METAR KSQL 062347Z 25015G21KT 10SM SKC 23/14 A2991 RMK","FM-15","7",,,,,,,,,,,,,,,,,,,,,,,,,,,,
"72493893231","2020-08-06T16:47:00","FM-15","7",,,,,,,,,,,,,,,,,,,,,,,,,,,,,,,,,,,,,,"29.91","57","73",,,,,"57",,"*","29.90","10.00","63","250","24","17",,,,,,,,,,,,,,,,,,,,,,,,,,,,,,,,,,,,,"MET07208/06/20 16:47:01 METAR KSQL 070047Z 25015G21KT 10SM SKC 23/14 A2991 RMK","FM-15","7",,,,,,,,,,,,,,,,,,,,,,,,,,,,
"72493893231","2020-08-06T17:47:00","FM-15","7",,,,,,,,,,,,,,,,,,,,,,,,,,,,,,,,,,,,,,"29.91","55","68",,,,,"64",,"*","29.90","10.00","60","240",,"11",,,,,,,,,,,,,,,,,,,,,,,,,,,,,,,,,,,,,"MET06908/06/20 17:47:01 METAR KSQL 070147Z 24010KT 10SM SKC 20/13 A2991 RMK","FM-15","7",,,,,,,,,,,,,,,,,,,,,,,,,,,,
"72493893231","2020-08-06T18:47:00","FM-15","7",,,,,,,,,,,,,,,,,,,,,,,,,,,,,,,,,,,,,,"29.91","55",,,,,,,,"*","29.90","10.00",,"230",,"10",,,,,,,,,,,,,,,,,,,,,,,,,,,,,,,,,,,,,"MET06908/06/20 18:47:02 METAR KSQL 070247Z 23009KT 10SM SKC 28/13 A2991 RMK","FM-15","7",,,,,,,,,,,,,,,,,,,,,,,,,,,,
"72493893231","2020-08-06T19:47:00","FM-15","7",,,,,,,,,,,,,,,,,,,,,,,,,,,,,,,,,,,,,,"29.92","55","63",,,,,"77",,"*","29.91","10.00","58","220","21","11",,,,,,,,,,,,,,,,,,,,,,,,,,,,,,,,,,,,,"MET07708/06/20 19:47:02 METAR KSQL 070347Z 22010G18KT 10SM SKC 17/13 A2992 RMK LAST","FM-15","7",,,,,,,,,,,,,,,,,,,,,,,,,,,,
"72493893231","2020-08-06T20:15:00","FM-15","7",,,,,,,,,,,,,,,,,,,,,,,,,,,,,,,,,,,,,,"29.93","55","63",,,,,"77",,"CLR:00","29.92","10.00","58","250",,"10",,,,,,,,,,,,,,,,,,,,,,,,,,,,,,,,,,,,,"MET07308/06/20 20:15:02 METAR KSQL 070415Z 25009KT 10SM CLR 17/13 A2993 RMK AO2","FM-15","7",,,,,,,,,,,,,,,,,,,,,,,,,,,,
"72493893231","2020-08-06T20:35:00","FM-15","7",,,,,,,,,,,,,,,,,,,,,,,,,,,,,,,,,,,,,,"29.93","55","61",,,,,"83",,"CLR:00","29.92","10.00","58","250","16","13",,,,,,,,,,,,,,,,,,,,,,,,,,,,,,,,,,,,,"MET07608/06/20 20:35:02 METAR KSQL 070435Z 25011G14KT 10SM CLR 16/13 A2993 RMK AO2","FM-15","7",,,,,,,,,,,,,,,,,,,,,,,,,,,,
"72493893231","2020-08-06T20:55:00","FM-15","7",,,,,,,,,,,,,,,,,,,,,,,,,,,,,,,,,,,,,,"29.94","55","61",,,,,"83",,"CLR:00","29.93","10.00","58","250",,"8",,,,,,,,,,,,,,,,,,,,,,,,,,,,,,,,,,,,,"MET07308/06/20 20:55:02 METAR KSQL 070455Z 25007KT 10SM CLR 16/13 A2994 RMK AO2","FM-15","7",,,,,,,,,,,,,,,,,,,,,,,,,,,,
"72493893231","2020-08-06T21:15:00","FM-15","7",,,,,,,,,,,,,,,,,,,,,,,,,,,,,,,,,,,,,,"29.94","55","59",,,,,"88",,"FEW:02 15","29.93","10.00","57","260","17","11",,,,,,,,,,,,,,,,,,,,,,,,,,,,,,,,,,,,,"MET07908/06/20 21:15:02 METAR KSQL 070515Z 26010G15KT 10SM FEW015 15/13 A2994 RMK AO2","FM-15","7",,,,,,,,,,,,,,,,,,,,,,,,,,,,
"72493893231","2020-08-06T21:35:00","FM-15","7",,,,,,,,,,,,,,,,,,,,,,,,,,,,,,,,,,,,,,"29.94","55","59",,,,,"88",,"FEW:02 15","29.93","10.00","57","250",,"9",,,,,,,,,,,,,,,,,,,,,,,,,,,,,,,,,,,,,"MET07608/06/20 21:35:02 METAR KSQL 070535Z 25008KT 10SM FEW015 15/13 A2994 RMK AO2","FM-15","7",,,,,,,,,,,,,,,,,,,,,,,,,,,,
"72493893231","2020-08-06T21:55:00","FM-15","7",,,,,,,,,,,,,,,,,,,,,,,,,,,,,,,,,,,,,,"29.94","55","59",,,,,"88",,"CLR:00","29.93","10.00","57","260",,"7",,,,,,,,,,,,,,,,,,,,,,,,,,,,,,,,,,,,,"MET07308/06/20 21:55:02 METAR KSQL 070555Z 26006KT 10SM CLR 15/13 A2994 RMK AO2","FM-15","7",,,,,,,,,,,,,,,,,,,,,,,,,,,,
"72493893231","2020-08-06T22:15:00","FM-15","7",,,,,,,,,,,,,,,,,,,,,,,,,,,,,,,,,,,,,,"29.94","54","59",,,,,"82",,"CLR:00","29.93","10.00","56","260",,"9",,,,,,,,,,,,,,,,,,,,,,,,,,,,,,,,,,,,,"MET07308/06/20 22:15:02 METAR KSQL 070615Z 26008KT 10SM CLR 15/12 A2994 RMK AO2","FM-15","7",,,,,,,,,,,,,,,,,,,,,,,,,,,,
"72493893231","2020-08-06T22:35:00","FM-15","7",,,,,,,,,,,,,,,,,,,,,,,,,,,,,,,,,,,,,,"29.94","54","59",,,,,"82",,"CLR:00","29.93","10.00","56","270",,"11",,,,,,,,,,,,,,,,,,,,,,,,,,,,,,,,,,,,,"MET07308/06/20 22:35:02 METAR KSQL 070635Z 27010KT 10SM CLR 15/12 A2994 RMK AO2","FM-15","7",,,,,,,,,,,,,,,,,,,,,,,,,,,,
"72493893231","2020-08-06T22:55:00","FM-15","7",,,,,,,,,,,,,,,,,,,,,,,,,,,,,,,,,,,,,,"29.93","54","59",,,,,"82",,"CLR:00","29.92","10.00","56","290",,"11",,,,,,,,,,,,,,,,,,,,,,,,,,,,,,,,,,,,,"MET07308/06/20 22:55:02 METAR KSQL 070655Z 29010KT 10SM CLR 15/12 A2993 RMK AO2","FM-15","7",,,,,,,,,,,,,,,,,,,,,,,,,,,,
"72493893231","2020-08-06T23:15:00","FM-15","7",,,,,,,,,,,,,,,,,,,,,,,,,,,,,,,,,,,,,,"29.93","54","59",,,,,"82",,"FEW:02 3","29.92","10.00","56","280",,"7",,,,,,,,,,,,,,,,,,,,,,,,,,,,,,,,,,,,,"MET07608/06/20 23:15:02 METAR KSQL 070715Z 28006KT 10SM FEW003 15/12 A2993 RMK AO2","FM-15","7",,,,,,,,,,,,,,,,,,,,,,,,,,,,
"72493893231","2020-08-06T23:35:00","FM-15","7",,,,,,,,,,,,,,,,,,,,,,,,,,,,,,,,,,,,,,"29.93","54","59",,,,,"82",,"CLR:00","29.92","10.00","56","270",,"3",,,,,,,,,,,,,,,,,,,,,,,,,,,,,,,,,,,,,"MET07308/06/20 23:35:02 METAR KSQL 070735Z 27003KT 10SM CLR 15/12 A2993 RMK AO2","FM-15","7",,,,,,,,,,,,,,,,,,,,,,,,,,,,
"72493893231","2020-08-06T23:55:00","FM-15","7",,,,,,,,,,,,,,,,,,,,,,,,,,,,,,,,,,,,,,"29.93","54","59",,,,,"82",,"CLR:00","29.92","10.00","56","000",,"0",,,,,,,,,,,,,,,,,,,,,,,,,,,,,,,,,,,,,"MET07308/06/20 23:55:02 METAR KSQL 070755Z 00000KT 10SM CLR 15/12 A2993 RMK AO2","FM-15","7",,,,,,,,,,,,,,,,,,,,,,,,,,,,
"72493893231","2020-08-07T00:15:00","FM-15","7",,,,,,,,,,,,,,,,,,,,,,,,,,,,,,,,,,,,,,"29.93","54","59",,,,,"82",,"CLR:00","29.92","10.00","56","000",,"0",,,,,,,,,,,,,,,,,,,,,,,,,,,,,,,,,,,,,"MET07308/07/20 00:15:02 METAR KSQL 070815Z 00000KT 10SM CLR 15/12 A2993 RMK AO2","FM-15","7",,,,,,,,,,,,,,,,,,,,,,,,,,,,
"72493893231","2020-08-07T00:35:00","FM-15","7",,,,,,,,,,,,,,,,,,,,,,,,,,,,,,,,,,,,,,"29.92","54","59",,,,,"82",,"CLR:00","29.91","10.00","56","000",,"0",,,,,,,,,,,,,,,,,,,,,,,,,,,,,,,,,,,,,"MET07308/07/20 00:35:02 METAR KSQL 070835Z 00000KT 10SM CLR 15/12 A2992 RMK AO2","FM-15","7",,,,,,,,,,,,,,,,,,,,,,,,,,,,
"72493893231","2020-08-07T00:55:00","FM-15","7",,,,,,,,,,,,,,,,,,,,,,,,,,,,,,,,,,,,,,"29.92","54","59",,,,,"82",,"CLR:00","29.91","10.00","56","280",,"3",,,,,,,,,,,,,,,,,,,,,,,,,,,,,,,,,,,,,"MET07308/07/20 00:55:02 METAR KSQL 070855Z 28003KT 10SM CLR 15/12 A2992 RMK AO2","FM-15","7",,,,,,,,,,,,,,,,,,,,,,,,,,,,
"72493893231","2020-08-07T01:15:00","FM-15","7",,,,,,,,,,,,,,,,,,,,,,,,,,,,,,,,,,,,,,"29.92","54","59",,,,,"82",,"CLR:00","29.91","10.00","56","000",,"0",,,,,,,,,,,,,,,,,,,,,,,,,,,,,,,,,,,,,"MET07308/07/20 01:15:02 METAR KSQL 070915Z 00000KT 10SM CLR 15/12 A2992 RMK AO2","FM-15","7",,,,,,,,,,,,,,,,,,,,,,,,,,,,
"72493893231","2020-08-07T01:35:00","FM-15","7",,,,,,,,,,,,,,,,,,,,,,,,,,,,,,,,,,,,,,"29.91","54","59",,,,,"82",,"CLR:00","29.90","10.00","56","000",,"0",,,,,,,,,,,,,,,,,,,,,,,,,,,,,,,,,,,,,"MET07308/07/20 01:35:02 METAR KSQL 070935Z 00000KT 10SM CLR 15/12 A2991 RMK AO2","FM-15","7",,,,,,,,,,,,,,,,,,,,,,,,,,,,
"72493893231","2020-08-07T01:55:00","FM-15","7",,,,,,,,,,,,,,,,,,,,,,,,,,,,,,,,,,,,,,"29.92","54","59",,,,,"82",,"CLR:00","29.91","10.00","56","000",,"0",,,,,,,,,,,,,,,,,,,,,,,,,,,,,,,,,,,,,"MET07308/07/20 01:55:02 METAR KSQL 070955Z 00000KT 10SM CLR 15/12 A2992 RMK AO2","FM-15","7",,,,,,,,,,,,,,,,,,,,,,,,,,,,
"72493893231","2020-08-07T02:15:00","FM-15","7",,,,,,,,,,,,,,,,,,,,,,,,,,,,,,,,,,,,,,"29.91","54","59",,,,,"82",,"CLR:00","29.90","10.00","56","000",,"0",,,,,,,,,,,,,,,,,,,,,,,,,,,,,,,,,,,,,"MET07308/07/20 02:15:02 METAR KSQL 071015Z 00000KT 10SM CLR 15/12 A2991 RMK AO2","FM-15","7",,,,,,,,,,,,,,,,,,,,,,,,,,,,
"72493893231","2020-08-07T02:35:00","FM-15","7",,,,,,,,,,,,,,,,,,,,,,,,,,,,,,,,,,,,,,"29.92","54","59",,,,,"82",,"CLR:00","29.91","10.00","56","330",,"3",,,,,,,,,,,,,,,,,,,,,,,,,,,,,,,,,,,,,"MET07308/07/20 02:35:02 METAR KSQL 071035Z 33003KT 10SM CLR 15/12 A2992 RMK AO2","FM-15","7",,,,,,,,,,,,,,,,,,,,,,,,,,,,
"72493893231","2020-08-07T02:55:00","FM-15","7",,,,,,,,,,,,,,,,,,,,,,,,,,,,,,,,,,,,,,"29.92","54","59",,,,,"82",,"CLR:00","29.91","10.00","56","000",,"0",,,,,,,,,,,,,,,,,,,,,,,,,,,,,,,,,,,,,"MET07308/07/20 02:55:02 METAR KSQL 071055Z 00000KT 10SM CLR 15/12 A2992 RMK AO2","FM-15","7",,,,,,,,,,,,,,,,,,,,,,,,,,,,
"72493893231","2020-08-07T03:15:00","FM-15","7",,,,,,,,,,,,,,,,,,,,,,,,,,,,,,,,,,,,,,"29.91","54","59",,,,,"82",,"CLR:00","29.90","10.00","56","000",,"0",,,,,,,,,,,,,,,,,,,,,,,,,,,,,,,,,,,,,"MET07308/07/20 03:15:02 METAR KSQL 071115Z 00000KT 10SM CLR 15/12 A2991 RMK AO2","FM-15","7",,,,,,,,,,,,,,,,,,,,,,,,,,,,
"72493893231","2020-08-07T03:35:00","FM-15","7",,,,,,,,,,,,,,,,,,,,,,,,,,,,,,,,,,,,,,"29.91","54","59",,,,,"82",,"CLR:00","29.90","10.00","56","000",,"0",,,,,,,,,,,,,,,,,,,,,,,,,,,,,,,,,,,,,"MET07308/07/20 03:35:02 METAR KSQL 071135Z 00000KT 10SM CLR 15/12 A2991 RMK AO2","FM-15","7",,,,,,,,,,,,,,,,,,,,,,,,,,,,
"72493893231","2020-08-07T03:55:00","FM-15","7",,,,,,,,,,,,,,,,,,,,,,,,,,,,,,,,,,,,,,"29.91","54","57",,,,,"88",,"CLR:00","29.90","10.00","55","000",,"0",,,,,,,,,,,,,,,,,,,,,,,,,,,,,,,,,,,,,"MET07308/07/20 03:55:02 METAR KSQL 071155Z 00000KT 10SM CLR 14/12 A2991 RMK AO2","FM-15","7",,,,,,,,,,,,,,,,,,,,,,,,,,,,
"72493893231","2020-08-07T04:15:00","FM-15","7",,,,,,,,,,,,,,,,,,,,,,,,,,,,,,,,,,,,,,"29.91","54","57",,,,,"88",,"CLR:00","29.90","10.00","55","000",,"0",,,,,,,,,,,,,,,,,,,,,,,,,,,,,,,,,,,,,"MET07308/07/20 04:15:02 METAR KSQL 071215Z 00000KT 10SM CLR 14/12 A2991 RMK AO2","FM-15","7",,,,,,,,,,,,,,,,,,,,,,,,,,,,
"72493893231","2020-08-07T04:35:00","FM-15","7",,,,,,,,,,,,,,,,,,,,,,,,,,,,,,,,,,,,,,"29.91","54","59",,,,,"82",,"CLR:00","29.90","10.00","56","000",,"0",,,,,,,,,,,,,,,,,,,,,,,,,,,,,,,,,,,,,"MET07308/07/20 04:35:02 METAR KSQL 071235Z 00000KT 10SM CLR 15/12 A2991 RMK AO2","FM-15","7",,,,,,,,,,,,,,,,,,,,,,,,,,,,
"72493893231","2020-08-07T04:55:00","FM-15","7",,,,,,,,,,,,,,,,,,,,,,,,,,,,,,,,,,,,,,"29.92","54","59",,,,,"82",,"CLR:00","29.91","10.00","56","000",,"0",,,,,,,,,,,,,,,,,,,,,,,,,,,,,,,,,,,,,"MET07308/07/20 04:55:02 METAR KSQL 071255Z 00000KT 10SM CLR 15/12 A2992 RMK AO2","FM-15","7",,,,,,,,,,,,,,,,,,,,,,,,,,,,
"72493893231","2020-08-07T05:15:00","FM-15","7",,,,,,,,,,,,,,,,,,,,,,,,,,,,,,,,,,,,,,"29.92","54","57",,,,,"88",,"CLR:00","29.91","10.00","55","160",,"5",,,,,,,,,,,,,,,,,,,,,,,,,,,,,,,,,,,,,"MET07308/07/20 05:15:02 METAR KSQL 071315Z 16004KT 10SM CLR 14/12 A2992 RMK AO2","FM-15","7",,,,,,,,,,,,,,,,,,,,,,,,,,,,
"72493893231","2020-08-07T05:35:00","FM-15","7",,,,,,,,,,,,,,,,,,,,,,,,,,,,,,,,,,,,,,"29.93","54","57",,,,,"88",,"CLR:00","29.92","10.00","55","000",,"0",,,,,,,,,,,,,,,,,,,,,,,,,,,,,,,,,,,,,"MET07308/07/20 05:35:02 METAR KSQL 071335Z 00000KT 10SM CLR 14/12 A2993 RMK AO2","FM-15","7",,,,,,,,,,,,,,,,,,,,,,,,,,,,
"72493893231","2020-08-07T05:55:00","FM-15","7",,,,,,,,,,,,,,,,,,,,,,,,,,,,,,,,,,,,,,"29.93","54","57",,,,,"88",,"CLR:00","29.92","10.00","55","000",,"0",,,,,,,,,,,,,,,,,,,,,,,,,,,,,,,,,,,,,"MET07308/07/20 05:55:02 METAR KSQL 071355Z 00000KT 10SM CLR 14/12 A2993 RMK AO2","FM-15","7",,,,,,,,,,,,,,,,,,,,,,,,,,,,
"72493893231","2020-08-07T06:00:00","FM-15","4",,,,,,,,,,,,,,,,,,,,,,,,,,,,,,,,,,,,,,"29.93","54","57",,,,,"88",,,,"10.00",,"000",,"0",,,,,,,,,,,,,,,,,,,,,,,,,,,,,,,,,,,,,"MET051METAR KSQL 071400Z 00000KT 10SM FEW012 14/12 A2993=","FM-15","4",,,,,,,,,,,,,,,,,,,,,,,,,,,,
"72493893231","2020-08-07T06:47:00","FM-15","7",,,,,,,,,,,,,,,,,,,,,,,,,,,,,,,,,,,,,,"29.95","54","59",,,,,"82",,"OVC:08 14","29.94","10.00","56","000",,"0",,,,,,,,,,,,,,,,,,,,,,,,,,,,,,,,,,,,,"MET07208/07/20 06:47:02 METAR KSQL 071447Z 00000KT 10SM OVC014 15/12 A2995 RMK","FM-15","7",,,,,,,,,,,,,,,,,,,,,,,,,,,,
"72493893231","2020-08-07T07:47:00","FM-15","7",,,,,,,,,,,,,,,,,,,,,,,,,,,,,,,,,,,,,,"29.95","55","64",,,,,"73",,"OVC:08 14","29.94","10.00","59","000",,"0",,,,,,,,,,,,,,,,,,,,,,,,,,,,,,,,,,,,,"MET07208/07/20 07:47:02 METAR KSQL 071547Z 00000KT 10SM OVC014 18/13 A2995 RMK","FM-15","7",,,,,,,,,,,,,,,,,,,,,,,,,,,,
"72493893231","2020-08-07T08:47:00","FM-15","7",,,,,,,,,,,,,,,,,,,,,,,,,,,,,,,,,,,,,,"29.95","57","66",,,,,"73",,"*","29.94","10.00","61","VRB",,"3",,,,,,,,,,,,,,,,,,,,,,,,,,,,,,,,,,,,,"MET06908/07/20 08:47:02 METAR KSQL 071647Z VRB03KT 10SM SKC 19/14 A2995 RMK","FM-15","7",,,,,,,,,,,,,,,,,,,,,,,,,,,,
"72493893231","2020-08-07T09:47:00","FM-15","7",,,,,,,,,,,,,,,,,,,,,,,,,,,,,,,,,,,,,,"29.95","57","68",,,,,"69",,"*","29.94","10.00","62","000",,"0",,,,,,,,,,,,,,,,,,,,,,,,,,,,,,,,,,,,,"MET06908/07/20 09:47:02 METAR KSQL 071747Z 00000KT 10SM SKC 20/14 A2995 RMK","FM-15","7",,,,,,,,,,,,,,,,,,,,,,,,,,,,
"72493893231","2020-08-07T10:47:00","FM-15","7",,,,,,,,,,,,,,,,,,,,,,,,,,,,,,,,,,,,,,"29.95","59","72",,,,,"65",,"*","29.94","10.00","64","350",,"14",,,,,,,,,,,,,,,,,,,,,,,,,,,,,,,,,,,,,"MET06908/07/20 10:47:02 METAR KSQL 071847Z 35012KT 10SM SKC 22/15 A2995 RMK","FM-15","7",,,,,,,,,,,,,,,,,,,,,,,,,,,,
"72493893231","2020-08-07T11:47:00","FM-15","7",,,,,,,,,,,,,,,,,,,,,,,,,,,,,,,,,,,,,,"29.94","59","72",,,,,"65",,"*","29.93","10.00","64","020",,"9",,,,,,,,,,,,,,,,,,,,,,,,,,,,,,,,,,,,,"MET06908/07/20 11:47:01 METAR KSQL 071947Z 02008KT 10SM SKC 22/15 A2994 RMK","FM-15","7",,,,,,,,,,,,,,,,,,,,,,,,,,,,
"72493893231","2020-08-07T12:47:00","FM-15","7",,,,,,,,,,,,,,,,,,,,,,,,,,,,,,,,,,,,,,"29.93","59","73",,,,,"61",,"*","29.92","10.00","64","360",,"17",,,,,,,,,,,,,,,,,,,,,,,,,,,,,,,,,,,,,"MET06908/07/20 12:47:02 METAR KSQL 072047Z 36015KT 10SM SKC 23/15 A2993 RMK","FM-15","7",,,,,,,,,,,,,,,,,,,,,,,,,,,,
"72493893231","2020-08-07T15:47:00","FM-15","7",,,,,,,,,,,,,,,,,,,,,,,,,,,,,,,,,,,,,,"29.90","55","75",,,,,"50",,"*","29.89","10.00","63","260",,"14",,,,,,,,,,,,,,,,,,,,,,,,,,,,,,,,,,,,,"MET06908/07/20 15:47:02 METAR KSQL 072347Z 26012KT 10SM SKC 24/13 A2990 RMK","FM-15","7",,,,,,,,,,,,,,,,,,,,,,,,,,,,
"72493893231","2020-08-07T16:47:00","FM-15","7",,,,,,,,,,,,,,,,,,,,,,,,,,,,,,,,,,,,,,"29.90","55","75",,,,,"50",,"*","29.89","10.00","63","280",,"14",,,,,,,,,,,,,,,,,,,,,,,,,,,,,,,,,,,,,"MET06908/07/20 16:47:01 METAR KSQL 080047Z 28012KT 10SM SKC 24/13 A2990 RMK","FM-15","7",,,,,,,,,,,,,,,,,,,,,,,,,,,,
"72493893231","2020-08-07T17:47:00","FM-15","7",,,,,,,,,,,,,,,,,,,,,,,,,,,,,,,,,,,,,,"29.90","55","73",,,,,"53",,"*","29.89","10.00","62","310",,"14",,,,,,,,,,,,,,,,,,,,,,,,,,,,,,,,,,,,,"MET06908/07/20 17:47:01 METAR KSQL 080147Z 31012KT 10SM SKC 23/13 A2990 RMK","FM-15","7",,,,,,,,,,,,,,,,,,,,,,,,,,,,
"72493893231","2020-08-07T18:47:00","FM-15","7",,,,,,,,,,,,,,,,,,,,,,,,,,,,,,,,,,,,,,"29.91","55","68",,,,,"64",,"*","29.90","10.00","60","310",,"11",,,,,,,,,,,,,,,,,,,,,,,,,,,,,,,,,,,,,"MET06908/07/20 18:47:01 METAR KSQL 080247Z 31010KT 10SM SKC 20/13 A2991 RMK","FM-15","7",,,,,,,,,,,,,,,,,,,,,,,,,,,,
"72493893231","2020-08-07T19:47:00","FM-15","7",,,,,,,,,,,,,,,,,,,,,,,,,,,,,,,,,,,,,,"29.92","55","66",,,,,"68",,"*","29.91","10.00","60","330",,"11",,,,,,,,,,,,,,,,,,,,,,,,,,,,,,,,,,,,,"MET07408/07/20 19:47:02 METAR KSQL 080347Z 33010KT 10SM SKC 19/13 A2992 RMK LAST","FM-15","7",,,,,,,,,,,,,,,,,,,,,,,,,,,,
"72493893231","2020-08-07T20:15:00","FM-15","7",,,,,,,,,,,,,,,,,,,,,,,,,,,,,,,,,,,,,,"29.94","55","66",,,,,"68",,"CLR:00","29.93","10.00","60","310",,"7",,,,,,,,,,,,,,,,,,,,,,,,,,,,,,,,,,,,,"MET07308/07/20 20:15:02 METAR KSQL 080415Z 31006KT 10SM CLR 19/13 A2994 RMK AO2","FM-15","7",,,,,,,,,,,,,,,,,,,,,,,,,,,,
"72493893231","2020-08-07T20:35:00","FM-15","7",,,,,,,,,,,,,,,,,,,,,,,,,,,,,,,,,,,,,,"29.94","54","64",,,,,"68",,"CLR:00","29.93","10.00","58","320",,"3",,,,,,,,,,,,,,,,,,,,,,,,,,,,,,,,,,,,,"MET07308/07/20 20:35:02 METAR KSQL 080435Z 32003KT 10SM CLR 18/12 A2994 RMK AO2","FM-15","7",,,,,,,,,,,,,,,,,,,,,,,,,,,,
"72493893231","2020-08-07T20:55:00","FM-15","7",,,,,,,,,,,,,,,,,,,,,,,,,,,,,,,,,,,,,,"29.95","55","64",,,,,"73",,"CLR:00","29.94","10.00","59","000",,"0",,,,,,,,,,,,,,,,,,,,,,,,,,,,,,,,,,,,,"MET07308/07/20 20:55:02 METAR KSQL 080455Z 00000KT 10SM CLR 18/13 A2995 RMK AO2","FM-15","7",,,,,,,,,,,,,,,,,,,,,,,,,,,,
"72493893231","2020-08-07T21:15:00","FM-15","7",,,,,,,,,,,,,,,,,,,,,,,,,,,,,,,,,,,,,,"29.95","55","64",,,,,"73",,"CLR:00","29.94","10.00","59","000",,"0",,,,,,,,,,,,,,,,,,,,,,,,,,,,,,,,,,,,,"MET07308/07/20 21:15:02 METAR KSQL 080515Z 00000KT 10SM CLR 18/13 A2995 RMK AO2","FM-15","7",,,,,,,,,,,,,,,,,,,,,,,,,,,,
"72493893231","2020-08-07T21:35:00","FM-15","7",,,,,,,,,,,,,,,,,,,,,,,,,,,,,,,,,,,,,,"29.94","57","64",,,,,"78",,"CLR:00","29.93","10.00","60","000",,"0",,,,,,,,,,,,,,,,,,,,,,,,,,,,,,,,,,,,,"MET07308/07/20 21:35:02 METAR KSQL 080535Z 00000KT 10SM CLR 18/14 A2994 RMK AO2","FM-15","7",,,,,,,,,,,,,,,,,,,,,,,,,,,,
"72493893231","2020-08-07T21:55:00","FM-15","7",,,,,,,,,,,,,,,,,,,,,,,,,,,,,,,,,,,,,,"29.95","59","64",,,,,"83",,"CLR:00","29.94","10.00","61","070",,"3",,,,,,,,,,,,,,,,,,,,,,,,,,,,,,,,,,,,,"MET07308/07/20 21:55:02 METAR KSQL 080555Z 07003KT 10SM CLR 18/15 A2995 RMK AO2","FM-15","7",,,,,,,,,,,,,,,,,,,,,,,,,,,,
"72493893231","2020-08-07T22:15:00","FM-15","7",,,,,,,,,,,,,,,,,,,,,,,,,,,,,,,,,,,,,,"29.95","59","64",,,,,"83",,"CLR:00","29.94","10.00","61","000",,"0",,,,,,,,,,,,,,,,,,,,,,,,,,,,,,,,,,,,,"MET07308/07/20 22:15:02 METAR KSQL 080615Z 00000KT 10SM CLR 18/15 A2995 RMK AO2","FM-15","7",,,,,,,,,,,,,,,,,,,,,,,,,,,,
"72493893231","2020-08-07T22:35:00","FM-15","7",,,,,,,,,,,,,,,,,,,,,,,,,,,,,,,,,,,,,,"29.95","59","64",,,,,"83",,"CLR:00","29.94","10.00","61","000",,"0",,,,,,,,,,,,,,,,,,,,,,,,,,,,,,,,,,,,,"MET07308/07/20 22:35:02 METAR KSQL 080635Z 00000KT 10SM CLR 18/15 A2995 RMK AO2","FM-15","7",,,,,,,,,,,,,,,,,,,,,,,,,,,,
"72493893231","2020-08-07T22:55:00","FM-15","7",,,,,,,,,,,,,,,,,,,,,,,,,,,,,,,,,,,,,,"29.95","57","64",,,,,"78",,"FEW:02 14","29.94","10.00","60","000",,"0",,,,,,,,,,,,,,,,,,,,,,,,,,,,,,,,,,,,,"MET07608/07/20 22:55:02 METAR KSQL 080655Z 00000KT 10SM FEW014 18/14 A2995 RMK AO2","FM-15","7",,,,,,,,,,,,,,,,,,,,,,,,,,,,
"72493893231","2020-08-07T23:15:00","FM-15","7",,,,,,,,,,,,,,,,,,,,,,,,,,,,,,,,,,,,,,"29.95","57","63",,,,,"83",,"SCT:04 18","29.94","10.00","60","050",,"3",,,,,,,,,,,,,,,,,,,,,,,,,,,,,,,,,,,,,"MET07608/07/20 23:15:02 METAR KSQL 080715Z 05003KT 10SM SCT018 17/14 A2995 RMK AO2","FM-15","7",,,,,,,,,,,,,,,,,,,,,,,,,,,,
"72493893231","2020-08-07T23:35:00","FM-15","7",,,,,,,,,,,,,,,,,,,,,,,,,,,,,,,,,,,,,,"29.95","59","63",,,,,"88",,"FEW:02 18","29.94","10.00","61","030",,"3",,,,,,,,,,,,,,,,,,,,,,,,,,,,,,,,,,,,,"MET07608/07/20 23:35:02 METAR KSQL 080735Z 03003KT 10SM FEW018 17/15 A2995 RMK AO2","FM-15","7",,,,,,,,,,,,,,,,,,,,,,,,,,,,
"72493893231","2020-08-07T23:55:00","FM-15","7",,,,,,,,,,,,,,,,,,,,,,,,,,,,,,,,,,,,,,"29.95","57","63",,,,,"83",,"FEW:02 15","29.94","10.00","60","350",,"3",,,,,,,,,,,,,,,,,,,,,,,,,,,,,,,,,,,,,"MET07608/07/20 23:55:02 METAR KSQL 080755Z 35003KT 10SM FEW015 17/14 A2995 RMK AO2","FM-15","7",,,,,,,,,,,,,,,,,,,,,,,,,,,,
"72493893231","2020-08-08T00:15:00","FM-15","7",,,,,,,,,,,,,,,,,,,,,,,,,,,,,,,,,,,,,,"29.95","57","63",,,,,"83",,"FEW:02 15","29.94","10.00","60","000",,"0",,,,,,,,,,,,,,,,,,,,,,,,,,,,,,,,,,,,,"MET07608/08/20 00:15:02 METAR KSQL 080815Z 00000KT 10SM FEW015 17/14 A2995 RMK AO2","FM-15","7",,,,,,,,,,,,,,,,,,,,,,,,,,,,
"72493893231","2020-08-08T00:35:00","FM-15","7",,,,,,,,,,,,,,,,,,,,,,,,,,,,,,,,,,,,,,"29.95","57","63",,,,,"83",,"CLR:00","29.94","10.00","60","000",,"0",,,,,,,,,,,,,,,,,,,,,,,,,,,,,,,,,,,,,"MET07308/08/20 00:35:02 METAR KSQL 080835Z 00000KT 10SM CLR 17/14 A2995 RMK AO2","FM-15","7",,,,,,,,,,,,,,,,,,,,,,,,,,,,
"72493893231","2020-08-08T00:55:00","FM-15","7",,,,,,,,,,,,,,,,,,,,,,,,,,,,,,,,,,,,,,"29.94","57","63",,,,,"83",,"CLR:00","29.93","10.00","60","000",,"0",,,,,,,,,,,,,,,,,,,,,,,,,,,,,,,,,,,,,"MET07308/08/20 00:55:02 METAR KSQL 080855Z 00000KT 10SM CLR 17/14 A2994 RMK AO2","FM-15","7",,,,,,,,,,,,,,,,,,,,,,,,,,,,
"72493893231","2020-08-08T01:15:00","FM-15","7",,,,,,,,,,,,,,,,,,,,,,,,,,,,,,,,,,,,,,"29.95","55","61",,,,,"83",,"CLR:00","29.94","10.00","58","350",,"3",,,,,,,,,,,,,,,,,,,,,,,,,,,,,,,,,,,,,"MET07308/08/20 01:15:02 METAR KSQL 080915Z 35003KT 10SM CLR 16/13 A2995 RMK AO2","FM-15","7",,,,,,,,,,,,,,,,,,,,,,,,,,,,
"72493893231","2020-08-08T01:35:00","FM-15","7",,,,,,,,,,,,,,,,,,,,,,,,,,,,,,,,,,,,,,"29.95","55","61",,,,,"83",,"BKN:07 12","29.94","10.00","58","320",,"3",,,,,,,,,,,,,,,,,,,,,,,,,,,,,,,,,,,,,"MET07608/08/20 01:35:02 METAR KSQL 080935Z 32003KT 10SM BKN012 16/13 A2995 RMK AO2","FM-15","7",,,,,,,,,,,,,,,,,,,,,,,,,,,,
"72493893231","2020-08-08T01:55:00","FM-15","7",,,,,,,,,,,,,,,,,,,,,,,,,,,,,,,,,,,,,,"29.95","55","59",,,,,"88",,"BKN:07 12","29.94","10.00","57","310",,"3",,,,,,,,,,,,,,,,,,,,,,,,,,,,,,,,,,,,,"MET07608/08/20 01:55:02 METAR KSQL 080955Z 31003KT 10SM BKN012 15/13 A2995 RMK AO2","FM-15","7",,,,,,,,,,,,,,,,,,,,,,,,,,,,
"72493893231","2020-08-08T02:15:00","FM-15","7",,,,,,,,,,,,,,,,,,,,,,,,,,,,,,,,,,,,,,"29.95","55","59",,,,,"88",,"BKN:07 12","29.94","10.00","57","300",,"3",,,,,,,,,,,,,,,,,,,,,,,,,,,,,,,,,,,,,"MET07608/08/20 02:15:02 METAR KSQL 081015Z 30003KT 10SM BKN012 15/13 A2995 RMK AO2","FM-15","7",,,,,,,,,,,,,,,,,,,,,,,,,,,,
"72493893231","2020-08-08T02:35:00","FM-15","7",,,,,,,,,,,,,,,,,,,,,,,,,,,,,,,,,,,,,,"29.95","55","59",,,,,"88",,"OVC:08 12","29.94","10.00","57","000",,"0",,,,,,,,,,,,,,,,,,,,,,,,,,,,,,,,,,,,,"MET07608/08/20 02:35:02 METAR KSQL 081035Z 00000KT 10SM OVC012 15/13 A2995 RMK AO2","FM-15","7",,,,,,,,,,,,,,,,,,,,,,,,,,,,
"72493893231","2020-08-08T02:55:00","FM-15","7",,,,,,,,,,,,,,,,,,,,,,,,,,,,,,,,,,,,,,"29.95","55","59",,,,,"88",,"OVC:08 10","29.94","10.00","57","000",,"0",,,,,,,,,,,,,,,,,,,,,,,,,,,,,,,,,,,,,"MET07608/08/20 02:55:02 METAR KSQL 081055Z 00000KT 10SM OVC010 15/13 A2995 RMK AO2","FM-15","7",,,,,,,,,,,,,,,,,,,,,,,,,,,,
"72493893231","2020-08-08T03:15:00","FM-15","7",,,,,,,,,,,,,,,,,,,,,,,,,,,,,,,,,,,,,,"29.95","55","61",,,,,"83",,"OVC:08 10","29.94","10.00","58","000",,"0",,,,,,,,,,,,,,,,,,,,,,,,,,,,,,,,,,,,,"MET07608/08/20 03:15:02 METAR KSQL 081115Z 00000KT 10SM OVC010 16/13 A2995 RMK AO2","FM-15","7",,,,,,,,,,,,,,,,,,,,,,,,,,,,
"72493893231","2020-08-08T03:35:00","FM-15","7",,,,,,,,,,,,,,,,,,,,,,,,,,,,,,,,,,,,,,"29.95","55","61",,,,,"83",,"OVC:08 10","29.94","10.00","58","000",,"0",,,,,,,,,,,,,,,,,,,,,,,,,,,,,,,,,,,,,"MET07608/08/20 03:35:02 METAR KSQL 081135Z 00000KT 10SM OVC010 16/13 A2995 RMK AO2","FM-15","7",,,,,,,,,,,,,,,,,,,,,,,,,,,,
"72493893231","2020-08-08T03:55:00","FM-15","7",,,,,,,,,,,,,,,,,,,,,,,,,,,,,,,,,,,,,,"29.95","57","61",,,,,"88",,"OVC:08 10","29.94","10.00","59","000",,"0",,,,,,,,,,,,,,,,,,,,,,,,,,,,,,,,,,,,,"MET07608/08/20 03:55:02 METAR KSQL 081155Z 00000KT 10SM OVC010 16/14 A2995 RMK AO2","FM-15","7",,,,,,,,,,,,,,,,,,,,,,,,,,,,
"72493893231","2020-08-08T04:15:00","FM-15","7",,,,,,,,,,,,,,,,,,,,,,,,,,,,,,,,,,,,,,"29.95","57","63",,,,,"83",,"OVC:08 10","29.94","10.00","60","200",,"3",,,,,,,,,,,,,,,,,,,,,,,,,,,,,,,,,,,,,"MET07608/08/20 04:15:02 METAR KSQL 081215Z 20003KT 10SM OVC010 17/14 A2995 RMK AO2","FM-15","7",,,,,,,,,,,,,,,,,,,,,,,,,,,,
"72493893231","2020-08-08T04:35:00","FM-15","7",,,,,,,,,,,,,,,,,,,,,,,,,,,,,,,,,,,,,,"29.95","59","63",,,,,"88",,"OVC:08 10","29.94","9.00","61","200",,"3",,,,,,,,,,,,,,,,,,,,,,,,,,,,,,,,,,,,,"MET07508/08/20 04:35:02 METAR KSQL 081235Z 20003KT 9SM OVC010 17/15 A2995 RMK AO2","FM-15","7",,,,,,,,,,,,,,,,,,,,,,,,,,,,
"72493893231","2020-08-08T04:55:00","FM-15","7",,,,,,,,,,,,,,,,,,,,,,,,,,,,,,,,,,,,,,"29.95","59","63",,,,,"88",,"OVC:08 10","29.94","9.00","61","200",,"5",,,,,,,,,,,,,,,,,,,,,,,,,,,,,,,,,,,,,"MET07508/08/20 04:55:02 METAR KSQL 081255Z 20004KT 9SM OVC010 17/15 A2995 RMK AO2","FM-15","7",,,,,,,,,,,,,,,,,,,,,,,,,,,,
"72493893231","2020-08-08T05:15:00","FM-15","7",,,,,,,,,,,,,,,,,,,,,,,,,,,,,,,,,,,,,,"29.96","59","63",,,,,"88",,"OVC:08 10","29.95","10.00","61","000",,"0",,,,,,,,,,,,,,,,,,,,,,,,,,,,,,,,,,,,,"MET07608/08/20 05:15:02 METAR KSQL 081315Z 00000KT 10SM OVC010 17/15 A2996 RMK AO2","FM-15","7",,,,,,,,,,,,,,,,,,,,,,,,,,,,
"72493893231","2020-08-08T05:35:00","FM-15","7",,,,,,,,,,,,,,,,,,,,,,,,,,,,,,,,,,,,,,"29.97","59","63",,,,,"88",,"OVC:08 10","29.96","8.00","61","110",,"3",,,,,,,,,,,,,,,,,,,,,,,,,,,,,,,,,,,,,"MET07508/08/20 05:35:02 METAR KSQL 081335Z 11003KT 8SM OVC010 17/15 A2997 RMK AO2","FM-15","7",,,,,,,,,,,,,,,,,,,,,,,,,,,,
"72493893231","2020-08-08T05:55:00","FM-15","7",,,,,,,,,,,,,,,,,,,,,,,,,,,,,,,,,,,,,,"29.97","57","63",,,,,"83",,"OVC:08 10","29.96","9.00","60","000",,"0",,,,,,,,,,,,,,,,,,,,,,,,,,,,,,,,,,,,,"MET07508/08/20 05:55:02 METAR KSQL 081355Z 00000KT 9SM OVC010 17/14 A2997 RMK AO2","FM-15","7",,,,,,,,,,,,,,,,,,,,,,,,,,,,
"72493893231","2020-08-08T06:00:00","FM-15","4",,,,,,,,,,,,,,,,,,,,,,,,,,,,,,,,,,,,,,"29.97","59","63",,,,,"88",,,,"10.00",,"000",,"0",,,,,,,,,,,,,,,,,,,,,,,,,,,,,,,,,,,,,"MET051METAR KSQL 081400Z 00000KT 10SM OVC010 17/15 A2997=","FM-15","4",,,,,,,,,,,,,,,,,,,,,,,,,,,,
"72493893231","2020-08-08T06:50:00","FM-15","7",,,,,,,,,,,,,,,,,,,,,,,,,,,,,,,,,,,,,,"29.98","59","63",,,,,"88",,"OVC:08 10","29.97","10.00","61","000",,"0",,,,,,,,,,,,,,,,,,,,,,,,,,,,,,,,,,,,,"MET07208/08/20 06:50:02 METAR KSQL 081450Z 00000KT 10SM OVC010 17/15 A2998 RMK","FM-15","7",,,,,,,,,,,,,,,,,,,,,,,,,,,,
"72493893231","2020-08-08T07:50:00","FM-15","7",,,,,,,,,,,,,,,,,,,,,,,,,,,,,,,,,,,,,,"29.99","57","64",,,,,"78",,"OVC:08 12","29.98","10.00","60","VRB",,"3",,,,,,,,,,,,,,,,,,,,,,,,,,,,,,,,,,,,,"MET07208/08/20 07:50:02 METAR KSQL 081550Z VRB03KT 10SM OVC012 18/14 A2999 RMK","FM-15","7",,,,,,,,,,,,,,,,,,,,,,,,,,,,
"72493893231","2020-08-08T08:47:00","FM-15","7",,,,,,,,,,,,,,,,,,,,,,,,,,,,,,,,,,,,,,"29.99","59","66",,,,,"78",,"FEW:02 14","29.98","10.00","62","000",,"0",,,,,,,,,,,,,,,,,,,,,,,,,,,,,,,,,,,,,"MET07208/08/20 08:47:02 METAR KSQL 081647Z 00000KT 10SM FEW014 19/15 A2999 RMK","FM-15","7",,,,,,,,,,,,,,,,,,,,,,,,,,,,
"72493893231","2020-08-08T09:47:00","FM-15","7",,,,,,,,,,,,,,,,,,,,,,,,,,,,,,,,,,,,,,"29.98","59","70",,,,,"69",,"*","29.97","10.00","63","360",,"6",,,,,,,,,,,,,,,,,,,,,,,,,,,,,,,,,,,,,"MET06908/08/20 09:47:02 METAR KSQL 081747Z 36005KT 10SM SKC 21/15 A2998 RMK","FM-15","7",,,,,,,,,,,,,,,,,,,,,,,,,,,,
"72493893231","2020-08-08T10:47:00","FM-15","7",,,,,,,,,,,,,,,,,,,,,,,,,,,,,,,,,,,,,,"29.97","63","70",,,,,"78",,"*","29.96","10.00","66","010",,"8",,,,,,,,,,,,,,,,,,,,,,,,,,,,,,,,,,,,,"MET06908/08/20 10:47:02 METAR KSQL 081847Z 01007KT 10SM SKC 21/17 A2997 RMK","FM-15","7",,,,,,,,,,,,,,,,,,,,,,,,,,,,
"72493893231","2020-08-08T11:47:00","FM-15","7",,,,,,,,,,,,,,,,,,,,,,,,,,,,,,,,,,,,,,"29.96","57","75",,,,,"54",,"*","29.95","10.00","64","300",,"8",,,,,,,,,,,,,,,,,,,,,,,,,,,,,,,,,,,,,"MET06908/08/20 11:47:02 METAR KSQL 081947Z 30007KT 10SM SKC 24/14 A2996 RMK","FM-15","7",,,,,,,,,,,,,,,,,,,,,,,,,,,,
"72493893231","2020-08-08T12:47:00","FM-15","7",,,,,,,,,,,,,,,,,,,,,,,,,,,,,,,,,,,,,,"29.96","59","75",,,,,"57",,"*","29.95","10.00","65","320",,"9",,,,,,,,,,,,,,,,,,,,,,,,,,,,,,,,,,,,,"MET06908/08/20 12:47:02 METAR KSQL 082047Z 32008KT 10SM SKC 24/15 A2996 RMK","FM-15","7",,,,,,,,,,,,,,,,,,,,,,,,,,,,
"72493893231","2020-08-08T13:52:00","FM-15","7",,,,,,,,,,,,,,,,,,,,,,,,,,,,,,,,,,,,,,"29.94","61","73",,,,,"65",,"*","29.93","10.00","66","010",,"14",,,,,,,,,,,,,,,,,,,,,,,,,,,,,,,,,,,,,"MET06908/08/20 13:52:02 METAR KSQL 082152Z 01012KT 10SM SKC 23/16 A2994 RMK","FM-15","7",,,,,,,,,,,,,,,,,,,,,,,,,,,,
"72493893231","2020-08-08T14:52:00","FM-15","7",,,,,,,,,,,,,,,,,,,,,,,,,,,,,,,,,,,,,,"29.93","63","72",,,,,"73",,"*","29.92","10.00","66","360",,"14",,,,,,,,,,,,,,,,,,,,,,,,,,,,,,,,,,,,,"MET06908/08/20 14:52:02 METAR KSQL 082252Z 36012KT 10SM SKC 22/17 A2993 RMK","FM-15","7",,,,,,,,,,,,,,,,,,,,,,,,,,,,
"72493893231","2020-08-08T15:58:00","FM-15","7",,,,,,,,,,,,,,,,,,,,,,,,,,,,,,,,,,,,,,"29.92","59","73",,,,,"61",,"*","29.91","10.00","64","340",,"10",,,,,,,,,,,,,,,,,,,,,,,,,,,,,,,,,,,,,"MET06908/08/20 15:58:02 METAR KSQL 082358Z 34009KT 10SM SKC 23/15 A2992 RMK","FM-15","7",,,,,,,,,,,,,,,,,,,,,,,,,,,,
"72493893231","2020-08-08T16:47:00","FM-15","7",,,,,,,,,,,,,,,,,,,,,,,,,,,,,,,,,,,,,,"29.91","63","73",,,,,"69",,"*","29.90","10.00","67","360",,"14",,,,,,,,,,,,,,,,,,,,,,,,,,,,,,,,,,,,,"MET06908/08/20 16:47:01 METAR KSQL 090047Z 36012KT 10SM SKC 23/17 A2991 RMK","FM-15","7",,,,,,,,,,,,,,,,,,,,,,,,,,,,
"72493893231","2020-08-08T17:49:00","FM-15","7",,,,,,,,,,,,,,,,,,,,,,,,,,,,,,,,,,,,,,"29.90","59","72",,,,,"65",,"*","29.89","10.00","64","350",,"8",,,,,,,,,,,,,,,,,,,,,,,,,,,,,,,,,,,,,"MET06908/08/20 17:49:01 METAR KSQL 090149Z 35007KT 10SM SKC 22/15 A2990 RMK","FM-15","7",,,,,,,,,,,,,,,,,,,,,,,,,,,,
"72493893231","2020-08-08T18:58:00","FM-15","7",,,,,,,,,,,,,,,,,,,,,,,,,,,,,,,,,,,,,,"29.92","57","66",,,,,"73",,"*","29.91","10.00","61","340",,"7",,,,,,,,,,,,,,,,,,,,,,,,,,,,,,,,,,,,,"MET06908/08/20 18:58:02 METAR KSQL 090258Z 34006KT 10SM SKC 19/14 A2992 RMK","FM-15","7",,,,,,,,,,,,,,,,,,,,,,,,,,,,
"72493893231","2020-08-08T19:52:00","FM-15","7",,,,,,,,,,,,,,,,,,,,,,,,,,,,,,,,,,,,,,"29.93","55","66",,,,,"68",,"*","29.92","10.00","60","330",,"5",,,,,,,,,,,,,,,,,,,,,,,,,,,,,,,,,,,,,"MET07408/08/20 19:52:02 METAR KSQL 090352Z 33004KT 10SM SKC 19/13 A2993 RMK LAST","FM-15","7",,,,,,,,,,,,,,,,,,,,,,,,,,,,
"72493893231","2020-08-08T20:15:00","FM-15","7",,,,,,,,,,,,,,,,,,,,,,,,,,,,,,,,,,,,,,"29.93","55","64",,,,,"73",,"CLR:00","29.92","10.00","59","010",,"6",,,,,,,,,,,,,,,,,,,,,,,,,,,,,,,,,,,,,"MET07308/08/20 20:15:02 METAR KSQL 090415Z 01005KT 10SM CLR 18/13 A2993 RMK AO2","FM-15","7",,,,,,,,,,,,,,,,,,,,,,,,,,,,
"72493893231","2020-08-08T20:35:00","FM-15","7",,,,,,,,,,,,,,,,,,,,,,,,,,,,,,,,,,,,,,"29.94","57","64",,,,,"78",,"CLR:00","29.93","10.00","60","360",,"6",,,,,,,,,,,,,,,,,,,,,,,,,,,,,,,,,,,,,"MET07308/08/20 20:35:02 METAR KSQL 090435Z 36005KT 10SM CLR 18/14 A2994 RMK AO2","FM-15","7",,,,,,,,,,,,,,,,,,,,,,,,,,,,
"72493893231","2020-08-08T20:55:00","FM-15","7",,,,,,,,,,,,,,,,,,,,,,,,,,,,,,,,,,,,,,"29.94","57","64",,,,,"78",,"CLR:00","29.93","10.00","60","010",,"5",,,,,,,,,,,,,,,,,,,,,,,,,,,,,,,,,,,,,"MET07308/08/20 20:55:02 METAR KSQL 090455Z 01004KT 10SM CLR 18/14 A2994 RMK AO2","FM-15","7",,,,,,,,,,,,,,,,,,,,,,,,,,,,
"72493893231","2020-08-08T21:15:00","FM-15","7",,,,,,,,,,,,,,,,,,,,,,,,,,,,,,,,,,,,,,"29.95","57","63",,,,,"83",,"CLR:00","29.94","10.00","60","350",,"5",,,,,,,,,,,,,,,,,,,,,,,,,,,,,,,,,,,,,"MET07308/08/20 21:15:02 METAR KSQL 090515Z 35004KT 10SM CLR 17/14 A2995 RMK AO2","FM-15","7",,,,,,,,,,,,,,,,,,,,,,,,,,,,
"72493893231","2020-08-08T21:35:00","FM-15","7",,,,,,,,,,,,,,,,,,,,,,,,,,,,,,,,,,,,,,"29.95","55","63",,,,,"77",,"CLR:00","29.94","10.00","58","010",,"5",,,,,,,,,,,,,,,,,,,,,,,,,,,,,,,,,,,,,"MET07308/08/20 21:35:02 METAR KSQL 090535Z 01004KT 10SM CLR 17/13 A2995 RMK AO2","FM-15","7",,,,,,,,,,,,,,,,,,,,,,,,,,,,
"72493893231","2020-08-08T21:55:00","FM-15","7",,,,,,,,,,,,,,,,,,,,,,,,,,,,,,,,,,,,,,"29.94","57","63",,,,,"83",,"CLR:00","29.93","10.00","60","020",,"3",,,,,,,,,,,,,,,,,,,,,,,,,,,,,,,,,,,,,"MET07308/08/20 21:55:02 METAR KSQL 090555Z 02003KT 10SM CLR 17/14 A2994 RMK AO2","FM-15","7",,,,,,,,,,,,,,,,,,,,,,,,,,,,
"72493893231","2020-08-08T22:15:00","FM-15","7",,,,,,,,,,,,,,,,,,,,,,,,,,,,,,,,,,,,,,"29.95","57","63",,,,,"83",,"CLR:00","29.94","10.00","60","000",,"0",,,,,,,,,,,,,,,,,,,,,,,,,,,,,,,,,,,,,"MET07308/08/20 22:15:02 METAR KSQL 090615Z 00000KT 10SM CLR 17/14 A2995 RMK AO2","FM-15","7",,,,,,,,,,,,,,,,,,,,,,,,,,,,
"72493893231","2020-08-08T22:35:00","FM-15","7",,,,,,,,,,,,,,,,,,,,,,,,,,,,,,,,,,,,,,"29.94","57","63",,,,,"83",,"CLR:00","29.93","10.00","60","360",,"3",,,,,,,,,,,,,,,,,,,,,,,,,,,,,,,,,,,,,"MET07308/08/20 22:35:02 METAR KSQL 090635Z 36003KT 10SM CLR 17/14 A2994 RMK AO2","FM-15","7",,,,,,,,,,,,,,,,,,,,,,,,,,,,
"72493893231","2020-08-08T22:55:00","FM-15","7",,,,,,,,,,,,,,,,,,,,,,,,,,,,,,,,,,,,,,"29.94","57","63",,,,,"83",,"CLR:00","29.93","10.00","60","000",,"0",,,,,,,,,,,,,,,,,,,,,,,,,,,,,,,,,,,,,"MET07308/08/20 22:55:02 METAR KSQL 090655Z 00000KT 10SM CLR 17/14 A2994 RMK AO2","FM-15","7",,,,,,,,,,,,,,,,,,,,,,,,,,,,
"72493893231","2020-08-08T23:15:00","FM-15","7",,,,,,,,,,,,,,,,,,,,,,,,,,,,,,,,,,,,,,"29.94","57","63",,,,,"83",,"CLR:00","29.93","10.00","60","000",,"0",,,,,,,,,,,,,,,,,,,,,,,,,,,,,,,,,,,,,"MET07308/08/20 23:15:02 METAR KSQL 090715Z 00000KT 10SM CLR 17/14 A2994 RMK AO2","FM-15","7",,,,,,,,,,,,,,,,,,,,,,,,,,,,
"72493893231","2020-08-08T23:35:00","FM-15","7",,,,,,,,,,,,,,,,,,,,,,,,,,,,,,,,,,,,,,"29.94","57","63",,,,,"83",,"CLR:00","29.93","10.00","60","010",,"3",,,,,,,,,,,,,,,,,,,,,,,,,,,,,,,,,,,,,"MET07308/08/20 23:35:02 METAR KSQL 090735Z 01003KT 10SM CLR 17/14 A2994 RMK AO2","FM-15","7",,,,,,,,,,,,,,,,,,,,,,,,,,,,
"72493893231","2020-08-08T23:55:00","FM-15","7",,,,,,,,,,,,,,,,,,,,,,,,,,,,,,,,,,,,,,"29.94","57","63",,,,,"83",,"CLR:00","29.93","10.00","60","000",,"0",,,,,,,,,,,,,,,,,,,,,,,,,,,,,,,,,,,,,"MET07308/08/20 23:55:02 METAR KSQL 090755Z 00000KT 10SM CLR 17/14 A2994 RMK AO2","FM-15","7",,,,,,,,,,,,,,,,,,,,,,,,,,,,
"72493893231","2020-08-09T00:15:00","FM-15","7",,,,,,,,,,,,,,,,,,,,,,,,,,,,,,,,,,,,,,"29.94","57","63",,,,,"83",,"CLR:00","29.93","10.00","60","000",,"0",,,,,,,,,,,,,,,,,,,,,,,,,,,,,,,,,,,,,"MET07308/09/20 00:15:02 METAR KSQL 090815Z 00000KT 10SM CLR 17/14 A2994 RMK AO2","FM-15","7",,,,,,,,,,,,,,,,,,,,,,,,,,,,
"72493893231","2020-08-09T00:35:00","FM-15","7",,,,,,,,,,,,,,,,,,,,,,,,,,,,,,,,,,,,,,"29.93","57","63",,,,,"83",,"CLR:00","29.92","10.00","60","000",,"0",,,,,,,,,,,,,,,,,,,,,,,,,,,,,,,,,,,,,"MET07308/09/20 00:35:02 METAR KSQL 090835Z 00000KT 10SM CLR 17/14 A2993 RMK AO2","FM-15","7",,,,,,,,,,,,,,,,,,,,,,,,,,,,
"72493893231","2020-08-09T00:55:00","FM-15","7",,,,,,,,,,,,,,,,,,,,,,,,,,,,,,,,,,,,,,"29.93","57","63",,,,,"83",,"CLR:00","29.92","10.00","60","000",,"0",,,,,,,,,,,,,,,,,,,,,,,,,,,,,,,,,,,,,"MET07308/09/20 00:55:02 METAR KSQL 090855Z 00000KT 10SM CLR 17/14 A2993 RMK AO2","FM-15","7",,,,,,,,,,,,,,,,,,,,,,,,,,,,
"72493893231","2020-08-09T01:15:00","FM-15","7",,,,,,,,,,,,,,,,,,,,,,,,,,,,,,,,,,,,,,"29.93","57","63",,,,,"83",,"CLR:00","29.92","10.00","60","000",,"0",,,,,,,,,,,,,,,,,,,,,,,,,,,,,,,,,,,,,"MET07308/09/20 01:15:02 METAR KSQL 090915Z 00000KT 10SM CLR 17/14 A2993 RMK AO2","FM-15","7",,,,,,,,,,,,,,,,,,,,,,,,,,,,
"72493893231","2020-08-09T01:35:00","FM-15","7",,,,,,,,,,,,,,,,,,,,,,,,,,,,,,,,,,,,,,"29.93","55","61",,,,,"83",,"FEW:02 14","29.92","10.00","58","310",,"3",,,,,,,,,,,,,,,,,,,,,,,,,,,,,,,,,,,,,"MET07608/09/20 01:35:02 METAR KSQL 090935Z 31003KT 10SM FEW014 16/13 A2993 RMK AO2","FM-15","7",,,,,,,,,,,,,,,,,,,,,,,,,,,,
"72493893231","2020-08-09T01:55:00","FM-15","7",,,,,,,,,,,,,,,,,,,,,,,,,,,,,,,,,,,,,,"29.93","57","63",,,,,"83",,"CLR:00","29.92","10.00","60","000",,"0",,,,,,,,,,,,,,,,,,,,,,,,,,,,,,,,,,,,,"MET07308/09/20 01:55:02 METAR KSQL 090955Z 00000KT 10SM CLR 17/14 A2993 RMK AO2","FM-15","7",,,,,,,,,,,,,,,,,,,,,,,,,,,,
"72493893231","2020-08-09T02:15:00","FM-15","7",,,,,,,,,,,,,,,,,,,,,,,,,,,,,,,,,,,,,,"29.92","57","63",,,,,"83",,"CLR:00","29.91","10.00","60","000",,"0",,,,,,,,,,,,,,,,,,,,,,,,,,,,,,,,,,,,,"MET07308/09/20 02:15:02 METAR KSQL 091015Z 00000KT 10SM CLR 17/14 A2992 RMK AO2","FM-15","7",,,,,,,,,,,,,,,,,,,,,,,,,,,,
"72493893231","2020-08-09T02:35:00","FM-15","7",,,,,,,,,,,,,,,,,,,,,,,,,,,,,,,,,,,,,,"29.92","55","61",,,,,"83",,"CLR:00","29.91","10.00","58","300",,"3",,,,,,,,,,,,,,,,,,,,,,,,,,,,,,,,,,,,,"MET07308/09/20 02:35:02 METAR KSQL 091035Z 30003KT 10SM CLR 16/13 A2992 RMK AO2","FM-15","7",,,,,,,,,,,,,,,,,,,,,,,,,,,,
"72493893231","2020-08-09T02:55:00","FM-15","7",,,,,,,,,,,,,,,,,,,,,,,,,,,,,,,,,,,,,,"29.93","55","61",,,,,"83",,"SCT:04 11","29.92","10.00","58","000",,"0",,,,,,,,,,,,,,,,,,,,,,,,,,,,,,,,,,,,,"MET07608/09/20 02:55:02 METAR KSQL 091055Z 00000KT 10SM SCT011 16/13 A2993 RMK AO2","FM-15","7",,,,,,,,,,,,,,,,,,,,,,,,,,,,
"72493893231","2020-08-09T03:15:00","FM-15","7",,,,,,,,,,,,,,,,,,,,,,,,,,,,,,,,,,,,,,"29.93","55","61",,,,,"83",,"OVC:08 11","29.92","10.00","58","000",,"0",,,,,,,,,,,,,,,,,,,,,,,,,,,,,,,,,,,,,"MET07608/09/20 03:15:02 METAR KSQL 091115Z 00000KT 10SM OVC011 16/13 A2993 RMK AO2","FM-15","7",,,,,,,,,,,,,,,,,,,,,,,,,,,,
"72493893231","2020-08-09T03:35:00","FM-15","7",,,,,,,,,,,,,,,,,,,,,,,,,,,,,,,,,,,,,,"29.92","55","61",,,,,"83",,"OVC:08 11","29.91","10.00","58","000",,"0",,,,,,,,,,,,,,,,,,,,,,,,,,,,,,,,,,,,,"MET07608/09/20 03:35:02 METAR KSQL 091135Z 00000KT 10SM OVC011 16/13 A2992 RMK AO2","FM-15","7",,,,,,,,,,,,,,,,,,,,,,,,,,,,
"72493893231","2020-08-09T03:55:00","FM-15","7",,,,,,,,,,,,,,,,,,,,,,,,,,,,,,,,,,,,,,"29.93","55","59",,,,,"88",,"BKN:07 11","29.92","10.00","57","300",,"3",,,,,,,,,,,,,,,,,,,,,,,,,,,,,,,,,,,,,"MET07608/09/20 03:55:02 METAR KSQL 091155Z 30003KT 10SM BKN011 15/13 A2993 RMK AO2","FM-15","7",,,,,,,,,,,,,,,,,,,,,,,,,,,,
"72493893231","2020-08-09T04:15:00","FM-15","7",,,,,,,,,,,,,,,,,,,,,,,,,,,,,,,,,,,,,,"29.93","55","59",,,,,"88",,"SCT:04 13","29.92","10.00","57","000",,"0",,,,,,,,,,,,,,,,,,,,,,,,,,,,,,,,,,,,,"MET07608/09/20 04:15:02 METAR KSQL 091215Z 00000KT 10SM SCT013 15/13 A2993 RMK AO2","FM-15","7",,,,,,,,,,,,,,,,,,,,,,,,,,,,
"72493893231","2020-08-09T04:35:00","FM-15","7",,,,,,,,,,,,,,,,,,,,,,,,,,,,,,,,,,,,,,"29.93","55","59",,,,,"88",,"BKN:07 13","29.92","10.00","57","310",,"3",,,,,,,,,,,,,,,,,,,,,,,,,,,,,,,,,,,,,"MET07608/09/20 04:35:02 METAR KSQL 091235Z 31003KT 10SM BKN013 15/13 A2993 RMK AO2","FM-15","7",,,,,,,,,,,,,,,,,,,,,,,,,,,,
"72493893231","2020-08-09T04:55:00","FM-15","7",,,,,,,,,,,,,,,,,,,,,,,,,,,,,,,,,,,,,,"29.93","55","59",,,,,"88",,"BKN:07 8 OVC:08 11","29.92","10.00","57","290",,"3",,,,,,,,,,,,,,,,,,,,,,,,,,,,,,,,,,,,,"MET08308/09/20 04:55:02 METAR KSQL 091255Z 29003KT 10SM BKN008 OVC011 15/13 A2993 RMK AO2","FM-15","7",,,,,,,,,,,,,,,,,,,,,,,,,,,,
"72493893231","2020-08-09T05:15:00","FM-15","7",,,,,,,,,,,,,,,,,,,,,,,,,,,,,,,,,,,,,,"29.94","57","61",,,,,"88",,"OVC:08 9","29.93","10.00","59","000",,"0",,,,,,,,,,,,,,,,,,,,,,,,,,,,,,,,,,,,,"MET07608/09/20 05:15:02 METAR KSQL 091315Z 00000KT 10SM OVC009 16/14 A2994 RMK AO2","FM-15","7",,,,,,,,,,,,,,,,,,,,,,,,,,,,
"72493893231","2020-08-09T05:35:00","FM-15","7",,,,,,,,,,,,,,,,,,,,,,,,,,,,,,,,,,,,,,"29.94","57","63",,,,,"83",,"OVC:08 9","29.93","10.00","60","000",,"0",,,,,,,,,,,,,,,,,,,,,,,,,,,,,,,,,,,,,"MET07608/09/20 05:35:02 METAR KSQL 091335Z 00000KT 10SM OVC009 17/14 A2994 RMK AO2","FM-15","7",,,,,,,,,,,,,,,,,,,,,,,,,,,,
"72493893231","2020-08-09T05:55:00","FM-15","7",,,,,,,,,,,,,,,,,,,,,,,,,,,,,,,,,,,,,,"29.94","59","63",,,,,"88",,"OVC:08 9","29.93","8.00","61","000",,"0",,,,,,,,,,,,,,,,,,,,,,,,,,,,,,,,,,,,,"MET07508/09/20 05:55:02 METAR KSQL 091355Z 00000KT 8SM OVC009 17/15 A2994 RMK AO2","FM-15","7",,,,,,,,,,,,,,,,,,,,,,,,,,,,
"72493893231","2020-08-09T06:00:00","FM-15","4",,,,,,,,,,,,,,,,,,,,,,,,,,,,,,,,,,,,,,"29.94","59","63",,,,,"88",,,,"10.00",,"VRB",,"3",,,,,,,,,,,,,,,,,,,,,,,,,,,,,,,,,,,,,"MET051METAR KSQL 091400Z VRB03KT 10SM OVC009 17/15 A2994=","FM-15","4",,,,,,,,,,,,,,,,,,,,,,,,,,,,
"72493893231","2020-08-09T06:47:00","FM-15","7",,,,,,,,,,,,,,,,,,,,,,,,,,,,,,,,,,,,,,"29.95","59","63",,,,,"88",,"OVC:08 9","29.94","10.00","61","000",,"0",,,,,,,,,,,,,,,,,,,,,,,,,,,,,,,,,,,,,"MET07208/09/20 06:47:02 METAR KSQL 091447Z 00000KT 10SM OVC009 17/15 A2995 RMK","FM-15","7",,,,,,,,,,,,,,,,,,,,,,,,,,,,
"72493893231","2020-08-09T07:47:00","FM-15","7",,,,,,,,,,,,,,,,,,,,,,,,,,,,,,,,,,,,,,"29.95","59","64",,,,,"83",,"SCT:04 11","29.94","10.00","61","VRB",,"3",,,,,,,,,,,,,,,,,,,,,,,,,,,,,,,,,,,,,"MET07208/09/20 07:47:02 METAR KSQL 091547Z VRB03KT 10SM SCT011 18/15 A2995 RMK","FM-15","7",,,,,,,,,,,,,,,,,,,,,,,,,,,,
"72493893231","2020-08-09T08:47:00","FM-15","7",,,,,,,,,,,,,,,,,,,,,,,,,,,,,,,,,,,,,,,"59","66",,,,,"78",,"*",,"10.00",,"VRB",,"3",,,,,,,,,,,,,,,,,,,,,,,,,,,,,,,,,,,,,"MET06908/09/20 08:47:02 METAR KSQL 091647Z VRB03KT 10SM SKC 19/15 A2296 RMK","FM-15","7",,,,,,,,,,,,,,,,,,,,,,,,,,,,
"72493893231","2020-08-09T09:47:00","FM-15","7",,,,,,,,,,,,,,,,,,,,,,,,,,,,,,,,,,,,,,"29.95","63","68",,,,,"83",,"*","29.94","10.00","65","360",,"7",,,,,,,,,,,,,,,,,,,,,,,,,,,,,,,,,,,,,"MET06908/09/20 09:47:02 METAR KSQL 091747Z 36006KT 10SM SKC 20/17 A2995 RMK","FM-15","7",,,,,,,,,,,,,,,,,,,,,,,,,,,,
"72493893231","2020-08-09T10:47:00","FM-15","7",,,,,,,,,,,,,,,,,,,,,,,,,,,,,,,,,,,,,,"29.94","63","68",,,,,"83",,"*","29.93","10.00","65","020",,"8",,,,,,,,,,,,,,,,,,,,,,,,,,,,,,,,,,,,,"MET06908/09/20 10:47:02 METAR KSQL 091847Z 02007KT 10SM SKC 20/17 A2994 RMK","FM-15","7",,,,,,,,,,,,,,,,,,,,,,,,,,,,
"72493893231","2020-08-09T12:47:00","FM-15","7",,,,,,,,,,,,,,,,,,,,,,,,,,,,,,,,,,,,,,"29.92","57","77",,,,,"51",,"*","29.91","10.00","65","320",,"10",,,,,,,,,,,,,,,,,,,,,,,,,,,,,,,,,,,,,"MET06908/09/20 12:47:02 METAR KSQL 092047Z 32009KT 10SM SKC 25/14 A2992 RMK","FM-15","7",,,,,,,,,,,,,,,,,,,,,,,,,,,,
"72493893231","2020-08-09T13:55:00","FM-15","7",,,,,,,,,,,,,,,,,,,,,,,,,,,,,,,,,,,,,,"29.89","59","81",,,,,"48",,"*","29.88","10.00","67","360",,"10",,,,,,,,,,,,,,,,,,,,,,,,,,,,,,,,,,,,,"MET06908/09/20 13:55:02 METAR KSQL 092155Z 36009KT 10SM SKC 27/15 A2989 RMK","FM-15","7",,,,,,,,,,,,,,,,,,,,,,,,,,,,
"72493893231","2020-08-09T14:54:00","FM-15","7",,,,,,,,,,,,,,,,,,,,,,,,,,,,,,,,,,,,,,"29.88","59","79",,,,,"51",,"*","29.87","10.00","67","360",,"13",,,,,,,,,,,,,,,,,,,,,,,,,,,,,,,,,,,,,"MET06908/09/20 14:54:02 METAR KSQL 092254Z 36011KT 10SM SKC 26/15 A2988 RMK","FM-15","7",,,,,,,,,,,,,,,,,,,,,,,,,,,,
"72493893231","2020-08-09T15:47:00","FM-15","7",,,,,,,,,,,,,,,,,,,,,,,,,,,,,,,,,,,,,,"29.87","57","81",,,,,"45",,"*","29.86","10.00","66","350",,"16",,,,,,,,,,,,,,,,,,,,,,,,,,,,,,,,,,,,,"MET06908/09/20 15:47:02 METAR KSQL 092347Z 35014KT 10SM SKC 27/14 A2987 RMK","FM-15","7",,,,,,,,,,,,,,,,,,,,,,,,,,,,
"72493893231","2020-08-09T16:47:00","FM-15","7",,,,,,,,,,,,,,,,,,,,,,,,,,,,,,,,,,,,,,"29.87","57","77",,,,,"51",,"*","29.86","10.00","65","350",,"11",,,,,,,,,,,,,,,,,,,,,,,,,,,,,,,,,,,,,"MET06908/09/20 16:47:01 METAR KSQL 100047Z 35010KT 10SM SKC 25/14 A2987 RMK","FM-15","7",,,,,,,,,,,,,,,,,,,,,,,,,,,,
"72493893231","2020-08-09T17:58:00","FM-15","7",,,,,,,,,,,,,,,,,,,,,,,,,,,,,,,,,,,,,,"29.87","59","73",,,,,"61",,"*","29.86","10.00","64","360",,"8",,,,,,,,,,,,,,,,,,,,,,,,,,,,,,,,,,,,,"MET06908/09/20 17:58:01 METAR KSQL 100158Z 36007KT 10SM SKC 23/15 A2987 RMK","FM-15","7",,,,,,,,,,,,,,,,,,,,,,,,,,,,
"72493893231","2020-08-09T18:47:00","FM-15","7",,,,,,,,,,,,,,,,,,,,,,,,,,,,,,,,,,,,,,"29.87","59","68",,,,,"73",,"*","29.86","10.00","63","330",,"7",,,,,,,,,,,,,,,,,,,,,,,,,,,,,,,,,,,,,"MET06908/09/20 18:47:02 METAR KSQL 100247Z 33006KT 10SM SKC 20/15 A2987 RMK","FM-15","7",,,,,,,,,,,,,,,,,,,,,,,,,,,,
"72493893231","2020-08-09T19:58:00","FM-15","7",,,,,,,,,,,,,,,,,,,,,,,,,,,,,,,,,,,,,,"29.90","55","64",,,,,"73",,"*","29.89","10.00","59","300",,"6",,,,,,,,,,,,,,,,,,,,,,,,,,,,,,,,,,,,,"MET07408/09/20 19:58:02 METAR KSQL 100358Z 30005KT 10SM SKC 18/13 A2990 RMK LAST","FM-15","7",,,,,,,,,,,,,,,,,,,,,,,,,,,,
"72493893231","2020-08-09T20:15:00","FM-15","7",,,,,,,,,,,,,,,,,,,,,,,,,,,,,,,,,,,,,,"29.90","55","64",,,,,"73",,"CLR:00","29.89","10.00","59","350",,"5",,,,,,,,,,,,,,,,,,,,,,,,,,,,,,,,,,,,,"MET07308/09/20 20:15:02 METAR KSQL 100415Z 35004KT 10SM CLR 18/13 A2990 RMK AO2","FM-15","7",,,,,,,,,,,,,,,,,,,,,,,,,,,,
"72493893231","2020-08-09T20:35:00","FM-15","7",,,,,,,,,,,,,,,,,,,,,,,,,,,,,,,,,,,,,,"29.91","57","64",,,,,"78",,"CLR:00","29.90","10.00","60","020",,"5",,,,,,,,,,,,,,,,,,,,,,,,,,,,,,,,,,,,,"MET07308/09/20 20:35:02 METAR KSQL 100435Z 02004KT 10SM CLR 18/14 A2991 RMK AO2","FM-15","7",,,,,,,,,,,,,,,,,,,,,,,,,,,,
"72493893231","2020-08-09T20:55:00","FM-15","7",,,,,,,,,,,,,,,,,,,,,,,,,,,,,,,,,,,,,,"29.91","57","64",,,,,"78",,"CLR:00","29.90","10.00","60","000",,"0",,,,,,,,,,,,,,,,,,,,,,,,,,,,,,,,,,,,,"MET07308/09/20 20:55:02 METAR KSQL 100455Z 00000KT 10SM CLR 18/14 A2991 RMK AO2","FM-15","7",,,,,,,,,,,,,,,,,,,,,,,,,,,,
"72493893231","2020-08-09T21:15:00","FM-15","7",,,,,,,,,,,,,,,,,,,,,,,,,,,,,,,,,,,,,,"29.92","57","64",,,,,"78",,"CLR:00","29.91","10.00","60","000",,"0",,,,,,,,,,,,,,,,,,,,,,,,,,,,,,,,,,,,,"MET07308/09/20 21:15:02 METAR KSQL 100515Z 00000KT 10SM CLR 18/14 A2992 RMK AO2","FM-15","7",,,,,,,,,,,,,,,,,,,,,,,,,,,,
"72493893231","2020-08-09T21:35:00","FM-15","7",,,,,,,,,,,,,,,,,,,,,,,,,,,,,,,,,,,,,,"29.92","55","64",,,,,"73",,"CLR:00","29.91","10.00","59","340",,"3",,,,,,,,,,,,,,,,,,,,,,,,,,,,,,,,,,,,,"MET07308/09/20 21:35:02 METAR KSQL 100535Z 34003KT 10SM CLR 18/13 A2992 RMK AO2","FM-15","7",,,,,,,,,,,,,,,,,,,,,,,,,,,,
"72493893231","2020-08-09T21:55:00","FM-15","7",,,,,,,,,,,,,,,,,,,,,,,,,,,,,,,,,,,,,,"29.92","57","64",,,,,"78",,"CLR:00","29.91","10.00","60","170",,"3",,,,,,,,,,,,,,,,,,,,,,,,,,,,,,,,,,,,,"MET07308/09/20 21:55:02 METAR KSQL 100555Z 17003KT 10SM CLR 18/14 A2992 RMK AO2","FM-15","7",,,,,,,,,,,,,,,,,,,,,,,,,,,,
"72493893231","2020-08-09T22:15:00","FM-15","7",,,,,,,,,,,,,,,,,,,,,,,,,,,,,,,,,,,,,,"29.92","57","64",,,,,"78",,"CLR:00","29.91","10.00","60","040",,"3",,,,,,,,,,,,,,,,,,,,,,,,,,,,,,,,,,,,,"MET07308/09/20 22:15:02 METAR KSQL 100615Z 04003KT 10SM CLR 18/14 A2992 RMK AO2","FM-15","7",,,,,,,,,,,,,,,,,,,,,,,,,,,,
"72493893231","2020-08-09T22:35:00","FM-15","7",,,,,,,,,,,,,,,,,,,,,,,,,,,,,,,,,,,,,,"29.92","57","64",,,,,"78",,"CLR:00","29.91","10.00","60","000",,"0",,,,,,,,,,,,,,,,,,,,,,,,,,,,,,,,,,,,,"MET07308/09/20 22:35:02 METAR KSQL 100635Z 00000KT 10SM CLR 18/14 A2992 RMK AO2","FM-15","7",,,,,,,,,,,,,,,,,,,,,,,,,,,,
"72493893231","2020-08-09T22:55:00","FM-15","7",,,,,,,,,,,,,,,,,,,,,,,,,,,,,,,,,,,,,,"29.91","59","64",,,,,"83",,"CLR:00","29.90","10.00","61","090",,"3",,,,,,,,,,,,,,,,,,,,,,,,,,,,,,,,,,,,,"MET07308/09/20 22:55:02 METAR KSQL 100655Z 09003KT 10SM CLR 18/15 A2991 RMK AO2","FM-15","7",,,,,,,,,,,,,,,,,,,,,,,,,,,,
"72493893231","2020-08-09T23:15:00","FM-15","7",,,,,,,,,,,,,,,,,,,,,,,,,,,,,,,,,,,,,,"29.91","59","63",,,,,"88",,"CLR:00","29.90","10.00","61","070",,"3",,,,,,,,,,,,,,,,,,,,,,,,,,,,,,,,,,,,,"MET07308/09/20 23:15:02 METAR KSQL 100715Z 07003KT 10SM CLR 17/15 A2991 RMK AO2","FM-15","7",,,,,,,,,,,,,,,,,,,,,,,,,,,,
"72493893231","2020-08-09T23:35:00","FM-15","7",,,,,,,,,,,,,,,,,,,,,,,,,,,,,,,,,,,,,,"29.91","59","63",,,,,"88",,"CLR:00","29.90","10.00","61","040",,"5",,,,,,,,,,,,,,,,,,,,,,,,,,,,,,,,,,,,,"MET07308/09/20 23:35:02 METAR KSQL 100735Z 04004KT 10SM CLR 17/15 A2991 RMK AO2","FM-15","7",,,,,,,,,,,,,,,,,,,,,,,,,,,,
"72493893231","2020-08-09T23:55:00","FM-15","7",,,,,,,,,,,,,,,,,,,,,,,,,,,,,,,,,,,,,,"29.91","59","63",,,,,"88",,"CLR:00","29.90","10.00","61","040",,"3",,,,,,,,,,,,,,,,,,,,,,,,,,,,,,,,,,,,,"MET07308/09/20 23:55:02 METAR KSQL 100755Z 04003KT 10SM CLR 17/15 A2991 RMK AO2","FM-15","7",,,,,,,,,,,,,,,,,,,,,,,,,,,,
"72493893231","2020-08-10T00:15:00","FM-15","7",,,,,,,,,,,,,,,,,,,,,,,,,,,,,,,,,,,,,,"29.90","59","63",,,,,"88",,"CLR:00","29.89","10.00","61","360",,"3",,,,,,,,,,,,,,,,,,,,,,,,,,,,,,,,,,,,,"MET07308/10/20 00:15:02 METAR KSQL 100815Z 36003KT 10SM CLR 17/15 A2990 RMK AO2","FM-15","7",,,,,,,,,,,,,,,,,,,,,,,,,,,,
"72493893231","2020-08-10T00:35:00","FM-15","7",,,,,,,,,,,,,,,,,,,,,,,,,,,,,,,,,,,,,,"29.90","59","63",,,,,"88",,"CLR:00","29.89","10.00","61","000",,"0",,,,,,,,,,,,,,,,,,,,,,,,,,,,,,,,,,,,,"MET07308/10/20 00:35:02 METAR KSQL 100835Z 00000KT 10SM CLR 17/15 A2990 RMK AO2","FM-15","7",,,,,,,,,,,,,,,,,,,,,,,,,,,,
"72493893231","2020-08-10T00:55:00","FM-15","7",,,,,,,,,,,,,,,,,,,,,,,,,,,,,,,,,,,,,,"29.90","57","63",,,,,"83",,"CLR:00","29.89","10.00","60","000",,"0",,,,,,,,,,,,,,,,,,,,,,,,,,,,,,,,,,,,,"MET07308/10/20 00:55:02 METAR KSQL 100855Z 00000KT 10SM CLR 17/14 A2990 RMK AO2","FM-15","7",,,,,,,,,,,,,,,,,,,,,,,,,,,,
"72493893231","2020-08-10T01:15:00","FM-15","7",,,,,,,,,,,,,,,,,,,,,,,,,,,,,,,,,,,,,,"29.90","57","63",,,,,"83",,"CLR:00","29.89","10.00","60","000",,"0",,,,,,,,,,,,,,,,,,,,,,,,,,,,,,,,,,,,,"MET07308/10/20 01:15:02 METAR KSQL 100915Z 00000KT 10SM CLR 17/14 A2990 RMK AO2","FM-15","7",,,,,,,,,,,,,,,,,,,,,,,,,,,,
"72493893231","2020-08-10T01:35:00","FM-15","7",,,,,,,,,,,,,,,,,,,,,,,,,,,,,,,,,,,,,,"29.90","57","63",,,,,"83",,"CLR:00","29.89","10.00","60","000",,"0",,,,,,,,,,,,,,,,,,,,,,,,,,,,,,,,,,,,,"MET07308/10/20 01:35:02 METAR KSQL 100935Z 00000KT 10SM CLR 17/14 A2990 RMK AO2","FM-15","7",,,,,,,,,,,,,,,,,,,,,,,,,,,,
"72493893231","2020-08-10T01:55:00","FM-15","7",,,,,,,,,,,,,,,,,,,,,,,,,,,,,,,,,,,,,,"29.90","57","63",,,,,"83",,"CLR:00","29.89","10.00","60","310",,"3",,,,,,,,,,,,,,,,,,,,,,,,,,,,,,,,,,,,,"MET07308/10/20 01:55:02 METAR KSQL 100955Z 31003KT 10SM CLR 17/14 A2990 RMK AO2","FM-15","7",,,,,,,,,,,,,,,,,,,,,,,,,,,,
"72493893231","2020-08-10T02:15:00","FM-15","7",,,,,,,,,,,,,,,,,,,,,,,,,,,,,,,,,,,,,,"29.90","57","63",,,,,"83",,"SCT:04 9","29.89","10.00","60","000",,"0",,,,,,,,,,,,,,,,,,,,,,,,,,,,,,,,,,,,,"MET07608/10/20 02:15:02 METAR KSQL 101015Z 00000KT 10SM SCT009 17/14 A2990 RMK AO2","FM-15","7",,,,,,,,,,,,,,,,,,,,,,,,,,,,
"72493893231","2020-08-10T02:35:00","FM-15","7",,,,,,,,,,,,,,,,,,,,,,,,,,,,,,,,,,,,,,"29.90","57","63",,,,,"83",,"BKN:07 9","29.89","10.00","60","000",,"0",,,,,,,,,,,,,,,,,,,,,,,,,,,,,,,,,,,,,"MET07608/10/20 02:35:02 METAR KSQL 101035Z 00000KT 10SM BKN009 17/14 A2990 RMK AO2","FM-15","7",,,,,,,,,,,,,,,,,,,,,,,,,,,,
"72493893231","2020-08-10T02:55:00","FM-15","7",,,,,,,,,,,,,,,,,,,,,,,,,,,,,,,,,,,,,,"29.90","57","61",,,,,"88",,"BKN:07 7","29.89","10.00","59","000",,"0",,,,,,,,,,,,,,,,,,,,,,,,,,,,,,,,,,,,,"MET07608/10/20 02:55:02 METAR KSQL 101055Z 00000KT 10SM BKN007 16/14 A2990 RMK AO2","FM-15","7",,,,,,,,,,,,,,,,,,,,,,,,,,,,
"72493893231","2020-08-10T03:15:00","FM-15","7",,,,,,,,,,,,,,,,,,,,,,,,,,,,,,,,,,,,,,"29.90","57","61",,,,,"88",,"BKN:07 9","29.89","10.00","59","000",,"0",,,,,,,,,,,,,,,,,,,,,,,,,,,,,,,,,,,,,"MET07608/10/20 03:15:02 METAR KSQL 101115Z 00000KT 10SM BKN009 16/14 A2990 RMK AO2","FM-15","7",,,,,,,,,,,,,,,,,,,,,,,,,,,,
"72493893231","2020-08-10T03:35:00","FM-15","7",,,,,,,,,,,,,,,,,,,,,,,,,,,,,,,,,,,,,,"29.90","57","61",,,,,"88",,"OVC:08 9","29.89","10.00","59","350",,"3",,,,,,,,,,,,,,,,,,,,,,,,,,,,,,,,,,,,,"MET07608/10/20 03:35:02 METAR KSQL 101135Z 35003KT 10SM OVC009 16/14 A2990 RMK AO2","FM-15","7",,,,,,,,,,,,,,,,,,,,,,,,,,,,
"72493893231","2020-08-10T03:55:00","FM-15","7",,,,,,,,,,,,,,,,,,,,,,,,,,,,,,,,,,,,,,"29.90","57","63",,,,,"83",,"OVC:08 9","29.89","10.00","60","040",,"3",,,,,,,,,,,,,,,,,,,,,,,,,,,,,,,,,,,,,"MET07608/10/20 03:55:02 METAR KSQL 101155Z 04003KT 10SM OVC009 17/14 A2990 RMK AO2","FM-15","7",,,,,,,,,,,,,,,,,,,,,,,,,,,,
"72493893231","2020-08-10T04:15:00","FM-15","7",,,,,,,,,,,,,,,,,,,,,,,,,,,,,,,,,,,,,,"29.90","59","63",,,,,"88",,"OVC:08 9","29.89","10.00","61","080",,"3",,,,,,,,,,,,,,,,,,,,,,,,,,,,,,,,,,,,,"MET07608/10/20 04:15:02 METAR KSQL 101215Z 08003KT 10SM OVC009 17/15 A2990 RMK AO2","FM-15","7",,,,,,,,,,,,,,,,,,,,,,,,,,,,
"72493893231","2020-08-10T04:35:00","FM-15","7",,,,,,,,,,,,,,,,,,,,,,,,,,,,,,,,,,,,,,"29.90","59","63",,,,,"88",,"OVC:08 9","29.89","10.00","61","060",,"5",,,,,,,,,,,,,,,,,,,,,,,,,,,,,,,,,,,,,"MET07608/10/20 04:35:02 METAR KSQL 101235Z 06004KT 10SM OVC009 17/15 A2990 RMK AO2","FM-15","7",,,,,,,,,,,,,,,,,,,,,,,,,,,,
"72493893231","2020-08-10T04:55:00","FM-15","7",,,,,,,,,,,,,,,,,,,,,,,,,,,,,,,,,,,,,,"29.91","59","63",,,,,"88",,"OVC:08 9","29.90","10.00","61","040",,"6",,,,,,,,,,,,,,,,,,,,,,,,,,,,,,,,,,,,,"MET07608/10/20 04:55:02 METAR KSQL 101255Z 04005KT 10SM OVC009 17/15 A2991 RMK AO2","FM-15","7",,,,,,,,,,,,,,,,,,,,,,,,,,,,
"72493893231","2020-08-10T05:15:00","FM-15","7",,,,,,,,,,,,,,,,,,,,,,,,,,,,,,,,,,,,,,"29.91","59","63",,,,,"88",,"OVC:08 9","29.90","10.00","61","040",,"5",,,,,,,,,,,,,,,,,,,,,,,,,,,,,,,,,,,,,"MET07608/10/20 05:15:02 METAR KSQL 101315Z 04004KT 10SM OVC009 17/15 A2991 RMK AO2","FM-15","7",,,,,,,,,,,,,,,,,,,,,,,,,,,,
"72493893231","2020-08-10T05:35:00","FM-15","7",,,,,,,,,,,,,,,,,,,,,,,,,,,,,,,,,,,,,,"29.92","59","63",,,,,"88",,"OVC:08 9","29.91","9.00","61","050",,"5",,,,,,,,,,,,,,,,,,,,,,,,,,,,,,,,,,,,,"MET07508/10/20 05:35:02 METAR KSQL 101335Z 05004KT 9SM OVC009 17/15 A2992 RMK AO2","FM-15","7",,,,,,,,,,,,,,,,,,,,,,,,,,,,
"72493893231","2020-08-10T05:47:00","FM-15","4",,,,,,,,,,,,,,,,,,,,,,,,,,,,,,,,,,,,,,"29.92","59","63",,,,,"88",,,,"10.00",,"VRB",,"3",,,,,,,,,,,,,,,,,,,,,,,,,,,,,,,,,,,,,"MET051METAR KSQL 101347Z VRB03KT 10SM OVC011 17/15 A2992=","FM-15","4",,,,,,,,,,,,,,,,,,,,,,,,,,,,
"72493893231","2020-08-10T05:55:00","FM-15","7",,,,,,,,,,,,,,,,,,,,,,,,,,,,,,,,,,,,,,"29.92","59","63",,,,,"88",,"OVC:08 9","29.91","9.00","61","080",,"3",,,,,,,,,,,,,,,,,,,,,,,,,,,,,,,,,,,,,"MET07508/10/20 05:55:02 METAR KSQL 101355Z 08003KT 9SM OVC009 17/15 A2992 RMK AO2","FM-15","7",,,,,,,,,,,,,,,,,,,,,,,,,,,,
"72493893231","2020-08-10T06:47:00","FM-15","7",,,,,,,,,,,,,,,,,,,,,,,,,,,,,,,,,,,,,,"29.93","59","63",,,,,"88",,"OVC:08 11","29.92","10.00","61","000",,"0",,,,,,,,,,,,,,,,,,,,,,,,,,,,,,,,,,,,,"MET07208/10/20 06:47:02 METAR KSQL 101447Z 00000KT 10SM OVC011 17/15 A2993 RMK","FM-15","7",,,,,,,,,,,,,,,,,,,,,,,,,,,,
"72493893231","2020-08-10T06:57:00","FM-15","7",,,,,,,,,,,,,,,,,,,,,,,,,,,,,,,,,,,,,,"29.93","59","63",,,,,"88",,"OVC:08 8","29.92","10.00","61","000",,"0",,,,,,,,,,,,,,,,,,,,,,,,,,,,,,,,,,,,,"MET07208/10/20 06:57:02 METAR KSQL 101457Z 00000KT 10SM OVC008 17/15 A2993 RMK","FM-15","7",,,,,,,,,,,,,,,,,,,,,,,,,,,,
"72493893231","2020-08-10T07:47:00","FM-15","7",,,,,,,,,,,,,,,,,,,,,,,,,,,,,,,,,,,,,,"29.94","59","63",,,,,"88",,"OVC:08 8","29.93","10.00","61","000",,"0",,,,,,,,,,,,,,,,,,,,,,,,,,,,,,,,,,,,,"MET07208/10/20 07:47:02 METAR KSQL 101547Z 00000KT 10SM OVC008 17/15 A2994 RMK","FM-15","7",,,,,,,,,,,,,,,,,,,,,,,,,,,,
"72493893231","2020-08-10T08:47:00","FM-15","7",,,,,,,,,,,,,,,,,,,,,,,,,,,,,,,,,,,,,,"29.94","59","64",,,,,"83",,"BKN:07 11","29.93","10.00","61","000",,"0",,,,,,,,,,,,,,,,,,,,,,,,,,,,,,,,,,,,,"MET07208/10/20 08:47:02 METAR KSQL 101647Z 00000KT 10SM BKN011 18/15 A2994 RMK","FM-15","7",,,,,,,,,,,,,,,,,,,,,,,,,,,,
"72493893231","2020-08-10T09:47:00","FM-15","7",,,,,,,,,,,,,,,,,,,,,,,,,,,,,,,,,,,,,,"29.94","63","68",,,,,"83",,"SCT:04 11","29.93","10.00","65","360",,"9",,,,,,,,,,,,,,,,,,,,,,,,,,,,,,,,,,,,,"MET07208/10/20 09:47:02 METAR KSQL 101747Z 36008KT 10SM SCT011 20/17 A2994 RMK","FM-15","7",,,,,,,,,,,,,,,,,,,,,,,,,,,,
"72493893231","2020-08-10T10:56:00","FM-15","7",,,,,,,,,,,,,,,,,,,,,,,,,,,,,,,,,,,,,,"29.93","63","68",,,,,"83",,"FEW:02 11","29.92","10.00","65","010",,"9",,,,,,,,,,,,,,,,,,,,,,,,,,,,,,,,,,,,,"MET07208/10/20 10:56:02 METAR KSQL 101856Z 01008KT 10SM FEW011 20/17 A2993 RMK","FM-15","7",,,,,,,,,,,,,,,,,,,,,,,,,,,,
"72493893231","2020-08-10T11:56:00","FM-15","7",,,,,,,,,,,,,,,,,,,,,,,,,,,,,,,,,,,,,,"29.92","59","72",,,,,"65",,"*","29.91","10.00","64","340",,"9",,,,,,,,,,,,,,,,,,,,,,,,,,,,,,,,,,,,,"MET06908/10/20 11:56:02 METAR KSQL 101956Z 34008KT 10SM SKC 22/15 A2992 RMK","FM-15","7",,,,,,,,,,,,,,,,,,,,,,,,,,,,
"72493893231","2020-08-10T12:47:00","FM-15","7",,,,,,,,,,,,,,,,,,,,,,,,,,,,,,,,,,,,,,"29.91","59","75",,,,,"57",,"*","29.90","10.00","65","340",,"11",,,,,,,,,,,,,,,,,,,,,,,,,,,,,,,,,,,,,"MET06908/10/20 12:47:02 METAR KSQL 102047Z 34010KT 10SM SKC 24/15 A2991 RMK","FM-15","7",,,,,,,,,,,,,,,,,,,,,,,,,,,,
"72493893231","2020-08-10T13:47:00","FM-15","7",,,,,,,,,,,,,,,,,,,,,,,,,,,,,,,,,,,,,,"29.89","59","77",,,,,"54",,"*","29.88","10.00","66","330",,"13",,,,,,,,,,,,,,,,,,,,,,,,,,,,,,,,,,,,,"MET06908/10/20 13:47:02 METAR KSQL 102147Z 33011KT 10SM SKC 25/15 A2989 RMK","FM-15","7",,,,,,,,,,,,,,,,,,,,,,,,,,,,
"72493893231","2020-08-10T14:47:00","FM-15","7",,,,,,,,,,,,,,,,,,,,,,,,,,,,,,,,,,,,,,"29.87","55","79",,,,,"45",,"*","29.86","10.00","65","330",,"13",,,,,,,,,,,,,,,,,,,,,,,,,,,,,,,,,,,,,"MET06908/10/20 14:47:02 METAR KSQL 102247Z 33011KT 10SM SKC 26/13 A2987 RMK","FM-15","7",,,,,,,,,,,,,,,,,,,,,,,,,,,,
"72493893231","2020-08-10T15:58:00","FM-15","7",,,,,,,,,,,,,,,,,,,,,,,,,,,,,,,,,,,,,,"29.87","55","79",,,,,"45",,"*","29.86","10.00","65","300",,"13",,,,,,,,,,,,,,,,,,,,,,,,,,,,,,,,,,,,,"MET06908/10/20 15:58:02 METAR KSQL 102358Z 30011KT 10SM SKC 26/13 A2987 RMK","FM-15","7",,,,,,,,,,,,,,,,,,,,,,,,,,,,
"72493893231","2020-08-10T16:57:00","FM-15","7",,,,,,,,,,,,,,,,,,,,,,,,,,,,,,,,,,,,,,"29.87","55","75",,,,,"50",,"*","29.86","10.00","63","310",,"8",,,,,,,,,,,,,,,,,,,,,,,,,,,,,,,,,,,,,"MET06908/10/20 16:57:01 METAR KSQL 110057Z 31007KT 10SM SKC 24/13 A2987 RMK","FM-15","7",,,,,,,,,,,,,,,,,,,,,,,,,,,,
"72493893231","2020-08-10T17:48:00","FM-15","7",,,,,,,,,,,,,,,,,,,,,,,,,,,,,,,,,,,,,,"29.87","55","72",,,,,"57",,"*","29.86","10.00","62","330",,"9",,,,,,,,,,,,,,,,,,,,,,,,,,,,,,,,,,,,,"MET06908/10/20 17:48:01 METAR KSQL 110148Z 33008KT 10SM SKC 22/13 A2987 RMK","FM-15","7",,,,,,,,,,,,,,,,,,,,,,,,,,,,
"72493893231","2020-08-10T18:55:00","FM-15","7",,,,,,,,,,,,,,,,,,,,,,,,,,,,,,,,,,,,,,"29.88","57","72",,,,,"61",,"*","29.87","10.00","63","340",,"6",,,,,,,,,,,,,,,,,,,,,,,,,,,,,,,,,,,,,"MET06908/10/20 18:55:01 METAR KSQL 110255Z 34005KT 10SM SKC 22/14 A2988 RMK","FM-15","7",,,,,,,,,,,,,,,,,,,,,,,,,,,,
"72493893231","2020-08-10T19:50:00","FM-15","7",,,,,,,,,,,,,,,,,,,,,,,,,,,,,,,,,,,,,,"29.89","55","66",,,,,"68",,"*","29.88","10.00","60","290",,"7",,,,,,,,,,,,,,,,,,,,,,,,,,,,,,,,,,,,,"MET07408/10/20 19:50:01 METAR KSQL 110350Z 29006KT 10SM SKC 19/13 A2989 RMK LAST","FM-15","7",,,,,,,,,,,,,,,,,,,,,,,,,,,,
"72493893231","2020-08-10T20:15:00","FM-15","7",,,,,,,,,,,,,,,,,,,,,,,,,,,,,,,,,,,,,,"29.90","55","66",,,,,"68",,"CLR:00","29.89","10.00","60","000",,"0",,,,,,,,,,,,,,,,,,,,,,,,,,,,,,,,,,,,,"MET07308/10/20 20:15:01 METAR KSQL 110415Z 00000KT 10SM CLR 19/13 A2990 RMK AO2","FM-15","7",,,,,,,,,,,,,,,,,,,,,,,,,,,,
"72493893231","2020-08-10T20:35:00","FM-15","7",,,,,,,,,,,,,,,,,,,,,,,,,,,,,,,,,,,,,,"29.91","57","66",,,,,"73",,"CLR:00","29.90","10.00","61","190",,"5",,,,,,,,,,,,,,,,,,,,,,,,,,,,,,,,,,,,,"MET07308/10/20 20:35:01 METAR KSQL 110435Z 19004KT 10SM CLR 19/14 A2991 RMK AO2","FM-15","7",,,,,,,,,,,,,,,,,,,,,,,,,,,,
"72493893231","2020-08-10T20:55:00","FM-15","7",,,,,,,,,,,,,,,,,,,,,,,,,,,,,,,,,,,,,,"29.92","57","66",,,,,"73",,"CLR:00","29.91","10.00","61","000",,"0",,,,,,,,,,,,,,,,,,,,,,,,,,,,,,,,,,,,,"MET07308/10/20 20:55:01 METAR KSQL 110455Z 00000KT 10SM CLR 19/14 A2992 RMK AO2","FM-15","7",,,,,,,,,,,,,,,,,,,,,,,,,,,,
"72493893231","2020-08-10T21:15:00","FM-15","7",,,,,,,,,,,,,,,,,,,,,,,,,,,,,,,,,,,,,,"29.92","57","64",,,,,"78",,"CLR:00","29.91","10.00","60","180",,"6",,,,,,,,,,,,,,,,,,,,,,,,,,,,,,,,,,,,,"MET07308/10/20 21:15:01 METAR KSQL 110515Z 18005KT 10SM CLR 18/14 A2992 RMK AO2","FM-15","7",,,,,,,,,,,,,,,,,,,,,,,,,,,,
"72493893231","2020-08-10T21:35:00","FM-15","7",,,,,,,,,,,,,,,,,,,,,,,,,,,,,,,,,,,,,,"29.92","57","64",,,,,"78",,"CLR:00","29.91","10.00","60","170",,"6",,,,,,,,,,,,,,,,,,,,,,,,,,,,,,,,,,,,,"MET07308/10/20 21:35:01 METAR KSQL 110535Z 17005KT 10SM CLR 18/14 A2992 RMK AO2","FM-15","7",,,,,,,,,,,,,,,,,,,,,,,,,,,,
"72493893231","2020-08-10T21:55:00","FM-15","7",,,,,,,,,,,,,,,,,,,,,,,,,,,,,,,,,,,,,,"29.92","57","64",,,,,"78",,"CLR:00","29.91","10.00","60","170",,"6",,,,,,,,,,,,,,,,,,,,,,,,,,,,,,,,,,,,,"MET07308/10/20 21:55:01 METAR KSQL 110555Z 17005KT 10SM CLR 18/14 A2992 RMK AO2","FM-15","7",,,,,,,,,,,,,,,,,,,,,,,,,,,,
"72493893231","2020-08-10T22:15:00","FM-15","7",,,,,,,,,,,,,,,,,,,,,,,,,,,,,,,,,,,,,,"29.92","57","64",,,,,"78",,"CLR:00","29.91","10.00","60","160",,"3",,,,,,,,,,,,,,,,,,,,,,,,,,,,,,,,,,,,,"MET07308/10/20 22:15:01 METAR KSQL 110615Z 16003KT 10SM CLR 18/14 A2992 RMK AO2","FM-15","7",,,,,,,,,,,,,,,,,,,,,,,,,,,,
"72493893231","2020-08-10T22:35:00","FM-15","7",,,,,,,,,,,,,,,,,,,,,,,,,,,,,,,,,,,,,,"29.92","57","63",,,,,"83",,"CLR:00","29.91","10.00","60","150",,"6",,,,,,,,,,,,,,,,,,,,,,,,,,,,,,,,,,,,,"MET07308/10/20 22:35:01 METAR KSQL 110635Z 15005KT 10SM CLR 17/14 A2992 RMK AO2","FM-15","7",,,,,,,,,,,,,,,,,,,,,,,,,,,,
"72493893231","2020-08-10T22:55:00","FM-15","7",,,,,,,,,,,,,,,,,,,,,,,,,,,,,,,,,,,,,,"29.92","57","63",,,,,"83",,"CLR:00","29.91","10.00","60","170",,"3",,,,,,,,,,,,,,,,,,,,,,,,,,,,,,,,,,,,,"MET07308/10/20 22:55:01 METAR KSQL 110655Z 17003KT 10SM CLR 17/14 A2992 RMK AO2","FM-15","7",,,,,,,,,,,,,,,,,,,,,,,,,,,,
"72493893231","2020-08-10T23:15:00","FM-15","7",,,,,,,,,,,,,,,,,,,,,,,,,,,,,,,,,,,,,,"29.92","57","63",,,,,"83",,"CLR:00","29.91","10.00","60","170",,"6",,,,,,,,,,,,,,,,,,,,,,,,,,,,,,,,,,,,,"MET07308/10/20 23:15:01 METAR KSQL 110715Z 17005KT 10SM CLR 17/14 A2992 RMK AO2","FM-15","7",,,,,,,,,,,,,,,,,,,,,,,,,,,,
"72493893231","2020-08-10T23:35:00","FM-15","7",,,,,,,,,,,,,,,,,,,,,,,,,,,,,,,,,,,,,,"29.91","57","63",,,,,"83",,"CLR:00","29.90","10.00","60","170",,"3",,,,,,,,,,,,,,,,,,,,,,,,,,,,,,,,,,,,,"MET07308/10/20 23:35:01 METAR KSQL 110735Z 17003KT 10SM CLR 17/14 A2991 RMK AO2","FM-15","7",,,,,,,,,,,,,,,,,,,,,,,,,,,,
"72493893231","2020-08-10T23:55:00","FM-15","7",,,,,,,,,,,,,,,,,,,,,,,,,,,,,,,,,,,,,,"29.92","59","63",,,,,"88",,"CLR:00","29.91","10.00","61","200",,"3",,,,,,,,,,,,,,,,,,,,,,,,,,,,,,,,,,,,,"MET07308/10/20 23:55:01 METAR KSQL 110755Z 20003KT 10SM CLR 17/15 A2992 RMK AO2","FM-15","7",,,,,,,,,,,,,,,,,,,,,,,,,,,,
"72493893231","2020-08-11T00:15:00","FM-15","7",,,,,,,,,,,,,,,,,,,,,,,,,,,,,,,,,,,,,,"29.92","57","63",,,,,"83",,"CLR:00","29.91","10.00","60","000",,"0",,,,,,,,,,,,,,,,,,,,,,,,,,,,,,,,,,,,,"MET07308/11/20 00:15:01 METAR KSQL 110815Z 00000KT 10SM CLR 17/14 A2992 RMK AO2","FM-15","7",,,,,,,,,,,,,,,,,,,,,,,,,,,,
"72493893231","2020-08-11T00:35:00","FM-15","7",,,,,,,,,,,,,,,,,,,,,,,,,,,,,,,,,,,,,,"29.92","57","63",,,,,"83",,"CLR:00","29.91","10.00","60","290",,"3",,,,,,,,,,,,,,,,,,,,,,,,,,,,,,,,,,,,,"MET07308/11/20 00:35:01 METAR KSQL 110835Z 29003KT 10SM CLR 17/14 A2992 RMK AO2","FM-15","7",,,,,,,,,,,,,,,,,,,,,,,,,,,,
"72493893231","2020-08-11T00:55:00","FM-15","7",,,,,,,,,,,,,,,,,,,,,,,,,,,,,,,,,,,,,,"29.91","57","61",,,,,"88",,"SCT:04 11","29.90","10.00","59","300",,"6",,,,,,,,,,,,,,,,,,,,,,,,,,,,,,,,,,,,,"MET07608/11/20 00:55:01 METAR KSQL 110855Z 30005KT 10SM SCT011 16/14 A2991 RMK AO2","FM-15","7",,,,,,,,,,,,,,,,,,,,,,,,,,,,
"72493893231","2020-08-11T01:15:00","FM-15","7",,,,,,,,,,,,,,,,,,,,,,,,,,,,,,,,,,,,,,"29.92","57","61",,,,,"88",,"OVC:08 11","29.91","10.00","59","280",,"5",,,,,,,,,,,,,,,,,,,,,,,,,,,,,,,,,,,,,"MET07608/11/20 01:15:01 METAR KSQL 110915Z 28004KT 10SM OVC011 16/14 A2992 RMK AO2","FM-15","7",,,,,,,,,,,,,,,,,,,,,,,,,,,,
"72493893231","2020-08-11T01:35:00","FM-15","7",,,,,,,,,,,,,,,,,,,,,,,,,,,,,,,,,,,,,,"29.91","57","61",,,,,"88",,"OVC:08 11","29.90","10.00","59","280",,"6",,,,,,,,,,,,,,,,,,,,,,,,,,,,,,,,,,,,,"MET07608/11/20 01:35:01 METAR KSQL 110935Z 28005KT 10SM OVC011 16/14 A2991 RMK AO2","FM-15","7",,,,,,,,,,,,,,,,,,,,,,,,,,,,
"72493893231","2020-08-11T01:55:00","FM-15","7",,,,,,,,,,,,,,,,,,,,,,,,,,,,,,,,,,,,,,"29.91","57","61",,,,,"88",,"OVC:08 11","29.90","10.00","59","300",,"5",,,,,,,,,,,,,,,,,,,,,,,,,,,,,,,,,,,,,"MET07608/11/20 01:55:01 METAR KSQL 110955Z 30004KT 10SM OVC011 16/14 A2991 RMK AO2","FM-15","7",,,,,,,,,,,,,,,,,,,,,,,,,,,,
"72493893231","2020-08-11T02:15:00","FM-15","7",,,,,,,,,,,,,,,,,,,,,,,,,,,,,,,,,,,,,,"29.91","57","61",,,,,"88",,"OVC:08 11","29.90","10.00","59","300",,"6",,,,,,,,,,,,,,,,,,,,,,,,,,,,,,,,,,,,,"MET07608/11/20 02:15:01 METAR KSQL 111015Z 30005KT 10SM OVC011 16/14 A2991 RMK AO2","FM-15","7",,,,,,,,,,,,,,,,,,,,,,,,,,,,
"72493893231","2020-08-11T02:35:00","FM-15","7",,,,,,,,,,,,,,,,,,,,,,,,,,,,,,,,,,,,,,"29.91","57","61",,,,,"88",,"OVC:08 11","29.90","10.00","59","310",,"5",,,,,,,,,,,,,,,,,,,,,,,,,,,,,,,,,,,,,"MET07608/11/20 02:35:01 METAR KSQL 111035Z 31004KT 10SM OVC011 16/14 A2991 RMK AO2","FM-15","7",,,,,,,,,,,,,,,,,,,,,,,,,,,,
"72493893231","2020-08-11T02:55:00","FM-15","7",,,,,,,,,,,,,,,,,,,,,,,,,,,,,,,,,,,,,,"29.91","57","61",,,,,"88",,"OVC:08 11","29.90","10.00","59","310",,"5",,,,,,,,,,,,,,,,,,,,,,,,,,,,,,,,,,,,,"MET07608/11/20 02:55:01 METAR KSQL 111055Z 31004KT 10SM OVC011 16/14 A2991 RMK AO2","FM-15","7",,,,,,,,,,,,,,,,,,,,,,,,,,,,
"72493893231","2020-08-11T03:15:00","FM-15","7",,,,,,,,,,,,,,,,,,,,,,,,,,,,,,,,,,,,,,"29.91","57","61",,,,,"88",,"OVC:08 11","29.90","10.00","59","310",,"5",,,,,,,,,,,,,,,,,,,,,,,,,,,,,,,,,,,,,"MET07608/11/20 03:15:01 METAR KSQL 111115Z 31004KT 10SM OVC011 16/14 A2991 RMK AO2","FM-15","7",,,,,,,,,,,,,,,,,,,,,,,,,,,,
"72493893231","2020-08-11T03:35:00","FM-15","7",,,,,,,,,,,,,,,,,,,,,,,,,,,,,,,,,,,,,,"29.91","55","61",,,,,"83",,"OVC:08 11","29.90","10.00","58","320",,"6",,,,,,,,,,,,,,,,,,,,,,,,,,,,,,,,,,,,,"MET07608/11/20 03:35:01 METAR KSQL 111135Z 32005KT 10SM OVC011 16/13 A2991 RMK AO2","FM-15","7",,,,,,,,,,,,,,,,,,,,,,,,,,,,
"72493893231","2020-08-11T03:55:00","FM-15","7",,,,,,,,,,,,,,,,,,,,,,,,,,,,,,,,,,,,,,"29.91","55","61",,,,,"83",,"OVC:08 11","29.90","10.00","58","320",,"5",,,,,,,,,,,,,,,,,,,,,,,,,,,,,,,,,,,,,"MET07608/11/20 03:55:01 METAR KSQL 111155Z 32004KT 10SM OVC011 16/13 A2991 RMK AO2","FM-15","7",,,,,,,,,,,,,,,,,,,,,,,,,,,,
"72493893231","2020-08-11T04:15:00","FM-15","7",,,,,,,,,,,,,,,,,,,,,,,,,,,,,,,,,,,,,,"29.91","55","61",,,,,"83",,"OVC:08 11","29.90","10.00","58","330",,"5",,,,,,,,,,,,,,,,,,,,,,,,,,,,,,,,,,,,,"MET07608/11/20 04:15:01 METAR KSQL 111215Z 33004KT 10SM OVC011 16/13 A2991 RMK AO2","FM-15","7",,,,,,,,,,,,,,,,,,,,,,,,,,,,
"72493893231","2020-08-11T04:35:00","FM-15","7",,,,,,,,,,,,,,,,,,,,,,,,,,,,,,,,,,,,,,"29.91","55","61",,,,,"83",,"OVC:08 11","29.90","10.00","58","330",,"5",,,,,,,,,,,,,,,,,,,,,,,,,,,,,,,,,,,,,"MET07608/11/20 04:35:01 METAR KSQL 111235Z 33004KT 10SM OVC011 16/13 A2991 RMK AO2","FM-15","7",,,,,,,,,,,,,,,,,,,,,,,,,,,,
"72493893231","2020-08-11T04:55:00","FM-15","7",,,,,,,,,,,,,,,,,,,,,,,,,,,,,,,,,,,,,,"29.91","55","61",,,,,"83",,"OVC:08 11","29.90","10.00","58","320",,"6",,,,,,,,,,,,,,,,,,,,,,,,,,,,,,,,,,,,,"MET07608/11/20 04:55:01 METAR KSQL 111255Z 32005KT 10SM OVC011 16/13 A2991 RMK AO2","FM-15","7",,,,,,,,,,,,,,,,,,,,,,,,,,,,
"72493893231","2020-08-11T05:15:00","FM-15","7",,,,,,,,,,,,,,,,,,,,,,,,,,,,,,,,,,,,,,"29.92","55","61",,,,,"83",,"OVC:08 11","29.91","10.00","58","330",,"5",,,,,,,,,,,,,,,,,,,,,,,,,,,,,,,,,,,,,"MET07608/11/20 05:15:01 METAR KSQL 111315Z 33004KT 10SM OVC011 16/13 A2992 RMK AO2","FM-15","7",,,,,,,,,,,,,,,,,,,,,,,,,,,,
"72493893231","2020-08-11T05:35:00","FM-15","7",,,,,,,,,,,,,,,,,,,,,,,,,,,,,,,,,,,,,,"29.93","55","61",,,,,"83",,"OVC:08 13","29.92","10.00","58","320",,"3",,,,,,,,,,,,,,,,,,,,,,,,,,,,,,,,,,,,,"MET07608/11/20 05:35:01 METAR KSQL 111335Z 32003KT 10SM OVC013 16/13 A2993 RMK AO2","FM-15","7",,,,,,,,,,,,,,,,,,,,,,,,,,,,
"72493893231","2020-08-11T05:47:00","FM-15","4",,,,,,,,,,,,,,,,,,,,,,,,,,,,,,,,,,,,,,"29.93","55","61",,,,,"83",,,,"10.00",,"VRB",,"3",,,,,,,,,,,,,,,,,,,,,,,,,,,,,,,,,,,,,"MET051METAR KSQL 111347Z VRB03KT 10SM OVC013 16/13 A2993=","FM-15","4",,,,,,,,,,,,,,,,,,,,,,,,,,,,
"72493893231","2020-08-11T05:55:00","FM-15","7",,,,,,,,,,,,,,,,,,,,,,,,,,,,,,,,,,,,,,"29.93","55","61",,,,,"83",,"OVC:08 13","29.92","10.00","58","320",,"5",,,,,,,,,,,,,,,,,,,,,,,,,,,,,,,,,,,,,"MET07608/11/20 05:55:01 METAR KSQL 111355Z 32004KT 10SM OVC013 16/13 A2993 RMK AO2","FM-15","7",,,,,,,,,,,,,,,,,,,,,,,,,,,,
"72493893231","2020-08-11T07:47:00","FM-15","7",,,,,,,,,,,,,,,,,,,,,,,,,,,,,,,,,,,,,,"29.96","55","63",,,,,"77",,"OVC:08 15","29.95","10.00","58","260",,"7",,,,,,,,,,,,,,,,,,,,,,,,,,,,,,,,,,,,,"MET07208/11/20 07:47:01 METAR KSQL 111547Z 26006KT 10SM OVC015 17/13 A2996 RMK","FM-15","7",,,,,,,,,,,,,,,,,,,,,,,,,,,,
"72493893231","2020-08-11T08:47:00","FM-15","7",,,,,,,,,,,,,,,,,,,,,,,,,,,,,,,,,,,,,,"29.96","55","64",,,,,"73",,"SCT:04 15","29.95","10.00","59","290",,"6",,,,,,,,,,,,,,,,,,,,,,,,,,,,,,,,,,,,,"MET07208/11/20 08:47:01 METAR KSQL 111647Z 29005KT 10SM SCT015 18/13 A2996 RMK","FM-15","7",,,,,,,,,,,,,,,,,,,,,,,,,,,,
"72493893231","2020-08-11T09:47:00","FM-15","7",,,,,,,,,,,,,,,,,,,,,,,,,,,,,,,,,,,,,,"29.96","55","68",,,,,"64",,"*","29.95","10.00","60","290",,"7",,,,,,,,,,,,,,,,,,,,,,,,,,,,,,,,,,,,,"MET06908/11/20 09:47:01 METAR KSQL 111747Z 29006KT 10SM SKC 20/13 A2996 RMK","FM-15","7",,,,,,,,,,,,,,,,,,,,,,,,,,,,
"72493893231","2020-08-11T10:47:00","FM-15","7",,,,,,,,,,,,,,,,,,,,,,,,,,,,,,,,,,,,,,"29.95","55","72",,,,,"57",,"*","29.94","10.00","62","320",,"8",,,,,,,,,,,,,,,,,,,,,,,,,,,,,,,,,,,,,"MET06908/11/20 10:47:01 METAR KSQL 111847Z 32007KT 10SM SKC 22/13 A2995 RMK","FM-15","7",,,,,,,,,,,,,,,,,,,,,,,,,,,,
"72493893231","2020-08-11T11:57:00","FM-15","7",,,,,,,,,,,,,,,,,,,,,,,,,,,,,,,,,,,,,,"29.95","59","68",,,,,"73",,"*","29.94","10.00","63","010",,"11",,,,,,,,,,,,,,,,,,,,,,,,,,,,,,,,,,,,,"MET06908/11/20 11:57:02 METAR KSQL 111957Z 01010KT 10SM SKC 20/15 A2995 RMK","FM-15","7",,,,,,,,,,,,,,,,,,,,,,,,,,,,
"72493893231","2020-08-11T12:47:00","FM-15","7",,,,,,,,,,,,,,,,,,,,,,,,,,,,,,,,,,,,,,"29.94","57","73",,,,,"57",,"*","29.93","10.00","63","290",,"8",,,,,,,,,,,,,,,,,,,,,,,,,,,,,,,,,,,,,"MET06908/11/20 12:47:02 METAR KSQL 112047Z 29007KT 10SM SKC 23/14 A2994 RMK","FM-15","7",,,,,,,,,,,,,,,,,,,,,,,,,,,,
"72493893231","2020-08-11T13:47:00","FM-15","7",,,,,,,,,,,,,,,,,,,,,,,,,,,,,,,,,,,,,,"29.91","55","75",,,,,"50",,"*","29.90","10.00","63","280",,"9",,,,,,,,,,,,,,,,,,,,,,,,,,,,,,,,,,,,,"MET06908/11/20 13:47:02 METAR KSQL 112147Z 28008KT 10SM SKC 24/13 A2991 RMK","FM-15","7",,,,,,,,,,,,,,,,,,,,,,,,,,,,
"72493893231","2020-08-11T14:58:00","FM-15","7",,,,,,,,,,,,,,,,,,,,,,,,,,,,,,,,,,,,,,"29.89","55","75",,,,,"50",,"*","29.88","10.00","63","280",,"10",,,,,,,,,,,,,,,,,,,,,,,,,,,,,,,,,,,,,"MET06908/11/20 14:58:02 METAR KSQL 112258Z 28009KT 10SM SKC 24/13 A2989 RMK","FM-15","7",,,,,,,,,,,,,,,,,,,,,,,,,,,,
"72493893231","2020-08-11T15:49:00","FM-15","7",,,,,,,,,,,,,,,,,,,,,,,,,,,,,,,,,,,,,,"29.89","57","77",,,,,"51",,"*","29.88","10.00","65","290",,"9",,,,,,,,,,,,,,,,,,,,,,,,,,,,,,,,,,,,,"MET06908/11/20 15:49:02 METAR KSQL 112349Z 29008KT 10SM SKC 25/14 A2989 RMK","FM-15","7",,,,,,,,,,,,,,,,,,,,,,,,,,,,
"72493893231","2020-08-11T16:47:00","FM-15","7",,,,,,,,,,,,,,,,,,,,,,,,,,,,,,,,,,,,,,"29.98","57","75",,,,,"54",,"*","29.97","10.00","64","290",,"9",,,,,,,,,,,,,,,,,,,,,,,,,,,,,,,,,,,,,"MET06908/11/20 16:47:01 METAR KSQL 120047Z 29008KT 10SM SKC 24/14 A2998 RMK","FM-15","7",,,,,,,,,,,,,,,,,,,,,,,,,,,,
"72493893231","2020-08-11T17:47:00","FM-15","7",,,,,,,,,,,,,,,,,,,,,,,,,,,,,,,,,,,,,,"29.89","57","72",,,,,"61",,"*","29.88","10.00","63","310",,"8",,,,,,,,,,,,,,,,,,,,,,,,,,,,,,,,,,,,,"MET06908/11/20 17:47:01 METAR KSQL 120147Z 31007KT 10SM SKC 22/14 A2989 RMK","FM-15","7",,,,,,,,,,,,,,,,,,,,,,,,,,,,
"72493893231","2020-08-11T18:47:00","FM-15","7",,,,,,,,,,,,,,,,,,,,,,,,,,,,,,,,,,,,,,"29.98","57","68",,,,,"69",,"*","29.97","10.00","62","290",,"9",,,,,,,,,,,,,,,,,,,,,,,,,,,,,,,,,,,,,"MET06908/11/20 18:47:01 METAR KSQL 120247Z 29008KT 10SM SKC 20/14 A2998 RMK","FM-15","7",,,,,,,,,,,,,,,,,,,,,,,,,,,,
"72493893231","2020-08-11T19:47:00","FM-15","7",,,,,,,,,,,,,,,,,,,,,,,,,,,,,,,,,,,,,,"29.91","55","64",,,,,"73",,"*","29.90","10.00","59","290",,"8",,,,,,,,,,,,,,,,,,,,,,,,,,,,,,,,,,,,,"MET07408/11/20 19:47:01 METAR KSQL 120347Z 29007KT 10SM SKC 18/13 A2991 RMK LAST","FM-15","7",,,,,,,,,,,,,,,,,,,,,,,,,,,,
"72493893231","2020-08-11T20:15:00","FM-15","7",,,,,,,,,,,,,,,,,,,,,,,,,,,,,,,,,,,,,,"29.92","55","64",,,,,"73",,"CLR:00","29.91","10.00","59","300",,"6",,,,,,,,,,,,,,,,,,,,,,,,,,,,,,,,,,,,,"MET07308/11/20 20:15:01 METAR KSQL 120415Z 30005KT 10SM CLR 18/13 A2992 RMK AO2","FM-15","7",,,,,,,,,,,,,,,,,,,,,,,,,,,,
"72493893231","2020-08-11T20:35:00","FM-15","7",,,,,,,,,,,,,,,,,,,,,,,,,,,,,,,,,,,,,,"29.93","55","64",,,,,"73",,"CLR:00","29.92","10.00","59","320",,"6",,,,,,,,,,,,,,,,,,,,,,,,,,,,,,,,,,,,,"MET07308/11/20 20:35:01 METAR KSQL 120435Z 32005KT 10SM CLR 18/13 A2993 RMK AO2","FM-15","7",,,,,,,,,,,,,,,,,,,,,,,,,,,,
"72493893231","2020-08-11T20:55:00","FM-15","7",,,,,,,,,,,,,,,,,,,,,,,,,,,,,,,,,,,,,,"29.93","55","64",,,,,"73",,"FEW:02 2","29.92","10.00","59","330",,"6",,,,,,,,,,,,,,,,,,,,,,,,,,,,,,,,,,,,,"MET07608/11/20 20:55:01 METAR KSQL 120455Z 33005KT 10SM FEW002 18/13 A2993 RMK AO2","FM-15","7",,,,,,,,,,,,,,,,,,,,,,,,,,,,
"72493893231","2020-08-11T21:15:00","FM-15","7",,,,,,,,,,,,,,,,,,,,,,,,,,,,,,,,,,,,,,"29.93","55","63",,,,,"77",,"CLR:00","29.92","10.00","58","320",,"6",,,,,,,,,,,,,,,,,,,,,,,,,,,,,,,,,,,,,"MET07308/11/20 21:15:01 METAR KSQL 120515Z 32005KT 10SM CLR 17/13 A2993 RMK AO2","FM-15","7",,,,,,,,,,,,,,,,,,,,,,,,,,,,
"72493893231","2020-08-11T21:35:00","FM-15","7",,,,,,,,,,,,,,,,,,,,,,,,,,,,,,,,,,,,,,"29.93","55","64",,,,,"73",,"CLR:00","29.92","10.00","59","300",,"3",,,,,,,,,,,,,,,,,,,,,,,,,,,,,,,,,,,,,"MET07308/11/20 21:35:01 METAR KSQL 120535Z 30003KT 10SM CLR 18/13 A2993 RMK AO2","FM-15","7",,,,,,,,,,,,,,,,,,,,,,,,,,,,
"72493893231","2020-08-11T21:55:00","FM-15","7",,,,,,,,,,,,,,,,,,,,,,,,,,,,,,,,,,,,,,"29.93","57","64",,,,,"78",,"CLR:00","29.92","10.00","60","000",,"0",,,,,,,,,,,,,,,,,,,,,,,,,,,,,,,,,,,,,"MET07308/11/20 21:55:01 METAR KSQL 120555Z 00000KT 10SM CLR 18/14 A2993 RMK AO2","FM-15","7",,,,,,,,,,,,,,,,,,,,,,,,,,,,
"72493893231","2020-08-11T22:15:00","FM-15","7",,,,,,,,,,,,,,,,,,,,,,,,,,,,,,,,,,,,,,"29.93","57","64",,,,,"78",,"CLR:00","29.92","10.00","60","200",,"5",,,,,,,,,,,,,,,,,,,,,,,,,,,,,,,,,,,,,"MET07308/11/20 22:15:01 METAR KSQL 120615Z 20004KT 10SM CLR 18/14 A2993 RMK AO2","FM-15","7",,,,,,,,,,,,,,,,,,,,,,,,,,,,
"72493893231","2020-08-11T22:35:00","FM-15","7",,,,,,,,,,,,,,,,,,,,,,,,,,,,,,,,,,,,,,"29.93","57","64",,,,,"78",,"CLR:00","29.92","10.00","60","160",,"3",,,,,,,,,,,,,,,,,,,,,,,,,,,,,,,,,,,,,"MET07308/11/20 22:35:01 METAR KSQL 120635Z 16003KT 10SM CLR 18/14 A2993 RMK AO2","FM-15","7",,,,,,,,,,,,,,,,,,,,,,,,,,,,
"72493893231","2020-08-11T22:55:00","FM-15","7",,,,,,,,,,,,,,,,,,,,,,,,,,,,,,,,,,,,,,"29.94","57","63",,,,,"83",,"CLR:00","29.93","10.00","60","000",,"0",,,,,,,,,,,,,,,,,,,,,,,,,,,,,,,,,,,,,"MET07308/11/20 22:55:01 METAR KSQL 120655Z 00000KT 10SM CLR 17/14 A2994 RMK AO2","FM-15","7",,,,,,,,,,,,,,,,,,,,,,,,,,,,
"72493893231","2020-08-11T23:15:00","FM-15","7",,,,,,,,,,,,,,,,,,,,,,,,,,,,,,,,,,,,,,"29.94","55","63",,,,,"77",,"FEW:02 15","29.93","10.00","58","310",,"3",,,,,,,,,,,,,,,,,,,,,,,,,,,,,,,,,,,,,"MET07608/11/20 23:15:01 METAR KSQL 120715Z 31003KT 10SM FEW015 17/13 A2994 RMK AO2","FM-15","7",,,,,,,,,,,,,,,,,,,,,,,,,,,,
"72493893231","2020-08-11T23:35:00","FM-15","7",,,,,,,,,,,,,,,,,,,,,,,,,,,,,,,,,,,,,,"29.94","57","63",,,,,"83",,"FEW:02 15","29.93","10.00","60","000",,"0",,,,,,,,,,,,,,,,,,,,,,,,,,,,,,,,,,,,,"MET07608/11/20 23:35:01 METAR KSQL 120735Z 00000KT 10SM FEW015 17/14 A2994 RMK AO2","FM-15","7",,,,,,,,,,,,,,,,,,,,,,,,,,,,
"72493893231","2020-08-11T23:55:00","FM-15","7",,,,,,,,,,,,,,,,,,,,,,,,,,,,,,,,,,,,,,"29.94","55","63",,,,,"77",,"CLR:00","29.93","10.00","58","310",,"5",,,,,,,,,,,,,,,,,,,,,,,,,,,,,,,,,,,,,"MET07308/11/20 23:55:01 METAR KSQL 120755Z 31004KT 10SM CLR 17/13 A2994 RMK AO2","FM-15","7",,,,,,,,,,,,,,,,,,,,,,,,,,,,
"72493893231","2020-08-12T00:15:00","FM-15","7",,,,,,,,,,,,,,,,,,,,,,,,,,,,,,,,,,,,,,"29.93","55","63",,,,,"77",,"CLR:00","29.92","10.00","58","300",,"3",,,,,,,,,,,,,,,,,,,,,,,,,,,,,,,,,,,,,"MET07308/12/20 00:15:01 METAR KSQL 120815Z 30003KT 10SM CLR 17/13 A2993 RMK AO2","FM-15","7",,,,,,,,,,,,,,,,,,,,,,,,,,,,
"72493893231","2020-08-12T00:35:00","FM-15","7",,,,,,,,,,,,,,,,,,,,,,,,,,,,,,,,,,,,,,"29.93","57","63",,,,,"83",,"CLR:00","29.92","10.00","60","000",,"0",,,,,,,,,,,,,,,,,,,,,,,,,,,,,,,,,,,,,"MET07308/12/20 00:35:01 METAR KSQL 120835Z 00000KT 10SM CLR 17/14 A2993 RMK AO2","FM-15","7",,,,,,,,,,,,,,,,,,,,,,,,,,,,
"72493893231","2020-08-12T00:55:00","FM-15","7",,,,,,,,,,,,,,,,,,,,,,,,,,,,,,,,,,,,,,"29.93","57","63",,,,,"83",,"FEW:02 13","29.92","10.00","60","310",,"3",,,,,,,,,,,,,,,,,,,,,,,,,,,,,,,,,,,,,"MET07608/12/20 00:55:01 METAR KSQL 120855Z 31003KT 10SM FEW013 17/14 A2993 RMK AO2","FM-15","7",,,,,,,,,,,,,,,,,,,,,,,,,,,,
"72493893231","2020-08-12T01:15:00","FM-15","7",,,,,,,,,,,,,,,,,,,,,,,,,,,,,,,,,,,,,,"29.93","57","61",,,,,"88",,"BKN:07 13","29.92","10.00","59","320",,"3",,,,,,,,,,,,,,,,,,,,,,,,,,,,,,,,,,,,,"MET07608/12/20 01:15:01 METAR KSQL 120915Z 32003KT 10SM BKN013 16/14 A2993 RMK AO2","FM-15","7",,,,,,,,,,,,,,,,,,,,,,,,,,,,
"72493893231","2020-08-12T01:35:00","FM-15","7",,,,,,,,,,,,,,,,,,,,,,,,,,,,,,,,,,,,,,"29.93","57","61",,,,,"88",,"OVC:08 13","29.92","10.00","59","310",,"5",,,,,,,,,,,,,,,,,,,,,,,,,,,,,,,,,,,,,"MET07608/12/20 01:35:01 METAR KSQL 120935Z 31004KT 10SM OVC013 16/14 A2993 RMK AO2","FM-15","7",,,,,,,,,,,,,,,,,,,,,,,,,,,,
"72493893231","2020-08-12T01:55:00","FM-15","7",,,,,,,,,,,,,,,,,,,,,,,,,,,,,,,,,,,,,,"29.92","57","63",,,,,"83",,"OVC:08 13","29.91","10.00","60","310",,"3",,,,,,,,,,,,,,,,,,,,,,,,,,,,,,,,,,,,,"MET07608/12/20 01:55:01 METAR KSQL 120955Z 31003KT 10SM OVC013 17/14 A2992 RMK AO2","FM-15","7",,,,,,,,,,,,,,,,,,,,,,,,,,,,
"72493893231","2020-08-12T02:15:00","FM-15","7",,,,,,,,,,,,,,,,,,,,,,,,,,,,,,,,,,,,,,"29.92","57","63",,,,,"83",,"OVC:08 13","29.91","10.00","60","300",,"5",,,,,,,,,,,,,,,,,,,,,,,,,,,,,,,,,,,,,"MET07608/12/20 02:15:01 METAR KSQL 121015Z 30004KT 10SM OVC013 17/14 A2992 RMK AO2","FM-15","7",,,,,,,,,,,,,,,,,,,,,,,,,,,,
"72493893231","2020-08-12T02:35:00","FM-15","7",,,,,,,,,,,,,,,,,,,,,,,,,,,,,,,,,,,,,,"29.92","57","63",,,,,"83",,"OVC:08 13","29.91","10.00","60","290",,"6",,,,,,,,,,,,,,,,,,,,,,,,,,,,,,,,,,,,,"MET07608/12/20 02:35:01 METAR KSQL 121035Z 29005KT 10SM OVC013 17/14 A2992 RMK AO2","FM-15","7",,,,,,,,,,,,,,,,,,,,,,,,,,,,
"72493893231","2020-08-12T02:55:00","FM-15","7",,,,,,,,,,,,,,,,,,,,,,,,,,,,,,,,,,,,,,"29.92","57","63",,,,,"83",,"OVC:08 13","29.91","10.00","60","300",,"5",,,,,,,,,,,,,,,,,,,,,,,,,,,,,,,,,,,,,"MET07608/12/20 02:55:01 METAR KSQL 121055Z 30004KT 10SM OVC013 17/14 A2992 RMK AO2","FM-15","7",,,,,,,,,,,,,,,,,,,,,,,,,,,,
"72493893231","2020-08-12T03:15:00","FM-15","7",,,,,,,,,,,,,,,,,,,,,,,,,,,,,,,,,,,,,,"29.93","57","63",,,,,"83",,"OVC:08 13","29.92","10.00","60","290",,"5",,,,,,,,,,,,,,,,,,,,,,,,,,,,,,,,,,,,,"MET07608/12/20 03:15:01 METAR KSQL 121115Z 29004KT 10SM OVC013 17/14 A2993 RMK AO2","FM-15","7",,,,,,,,,,,,,,,,,,,,,,,,,,,,
"72493893231","2020-08-12T03:35:00","FM-15","7",,,,,,,,,,,,,,,,,,,,,,,,,,,,,,,,,,,,,,"29.93","57","63",,,,,"83",,"OVC:08 13","29.92","10.00","60","300",,"5",,,,,,,,,,,,,,,,,,,,,,,,,,,,,,,,,,,,,"MET07608/12/20 03:35:01 METAR KSQL 121135Z 30004KT 10SM OVC013 17/14 A2993 RMK AO2","FM-15","7",,,,,,,,,,,,,,,,,,,,,,,,,,,,
"72493893231","2020-08-12T03:55:00","FM-15","7",,,,,,,,,,,,,,,,,,,,,,,,,,,,,,,,,,,,,,"29.92","57","61",,,,,"88",,"OVC:08 13","29.91","10.00","59","300",,"5",,,,,,,,,,,,,,,,,,,,,,,,,,,,,,,,,,,,,"MET07608/12/20 03:55:01 METAR KSQL 121155Z 30004KT 10SM OVC013 16/14 A2992 RMK AO2","FM-15","7",,,,,,,,,,,,,,,,,,,,,,,,,,,,
"72493893231","2020-08-12T04:15:00","FM-15","7",,,,,,,,,,,,,,,,,,,,,,,,,,,,,,,,,,,,,,"29.92","57","63",,,,,"83",,"OVC:08 13","29.91","10.00","60","320",,"5",,,,,,,,,,,,,,,,,,,,,,,,,,,,,,,,,,,,,"MET07608/12/20 04:15:01 METAR KSQL 121215Z 32004KT 10SM OVC013 17/14 A2992 RMK AO2","FM-15","7",,,,,,,,,,,,,,,,,,,,,,,,,,,,
"72493893231","2020-08-12T04:35:00","FM-15","7",,,,,,,,,,,,,,,,,,,,,,,,,,,,,,,,,,,,,,"29.93","57","63",,,,,"83",,"OVC:08 13","29.92","10.00","60","330",,"3",,,,,,,,,,,,,,,,,,,,,,,,,,,,,,,,,,,,,"MET07608/12/20 04:35:01 METAR KSQL 121235Z 33003KT 10SM OVC013 17/14 A2993 RMK AO2","FM-15","7",,,,,,,,,,,,,,,,,,,,,,,,,,,,
"72493893231","2020-08-12T04:55:00","FM-15","7",,,,,,,,,,,,,,,,,,,,,,,,,,,,,,,,,,,,,,"29.93","57","63",,,,,"83",,"OVC:08 13","29.92","10.00","60","000",,"0",,,,,,,,,,,,,,,,,,,,,,,,,,,,,,,,,,,,,"MET07608/12/20 04:55:01 METAR KSQL 121255Z 00000KT 10SM OVC013 17/14 A2993 RMK AO2","FM-15","7",,,,,,,,,,,,,,,,,,,,,,,,,,,,
"72493893231","2020-08-12T05:15:00","FM-15","7",,,,,,,,,,,,,,,,,,,,,,,,,,,,,,,,,,,,,,"29.93","57","63",,,,,"83",,"OVC:08 13","29.92","10.00","60","040",,"3",,,,,,,,,,,,,,,,,,,,,,,,,,,,,,,,,,,,,"MET07608/12/20 05:15:01 METAR KSQL 121315Z 04003KT 10SM OVC013 17/14 A2993 RMK AO2","FM-15","7",,,,,,,,,,,,,,,,,,,,,,,,,,,,
"72493893231","2020-08-12T05:35:00","FM-15","7",,,,,,,,,,,,,,,,,,,,,,,,,,,,,,,,,,,,,,"29.93","57","63",,,,,"83",,"OVC:08 13","29.92","10.00","60","050",,"3",,,,,,,,,,,,,,,,,,,,,,,,,,,,,,,,,,,,,"MET07608/12/20 05:35:01 METAR KSQL 121335Z 05003KT 10SM OVC013 17/14 A2993 RMK AO2","FM-15","7",,,,,,,,,,,,,,,,,,,,,,,,,,,,
"72493893231","2020-08-12T05:47:00","FM-15","4",,,,,,,,,,,,,,,,,,,,,,,,,,,,,,,,,,,,,,"29.93","59","63",,,,,"88",,,,"10.00",,"VRB",,"3",,,,,,,,,,,,,,,,,,,,,,,,,,,,,,,,,,,,,"MET051METAR KSQL 121347Z VRB03KT 10SM OVC013 17/15 A2993=","FM-15","4",,,,,,,,,,,,,,,,,,,,,,,,,,,,
"72493893231","2020-08-12T05:55:00","FM-15","7",,,,,,,,,,,,,,,,,,,,,,,,,,,,,,,,,,,,,,"29.93","59","63",,,,,"88",,"OVC:08 13","29.92","10.00","61","070",,"5",,,,,,,,,,,,,,,,,,,,,,,,,,,,,,,,,,,,,"MET07608/12/20 05:55:01 METAR KSQL 121355Z 07004KT 10SM OVC013 17/15 A2993 RMK AO2","FM-15","7",,,,,,,,,,,,,,,,,,,,,,,,,,,,
"72493893231","2020-08-12T06:47:00","FM-15","7",,,,,,,,,,,,,,,,,,,,,,,,,,,,,,,,,,,,,,"29.94","59","63",,,,,"88",,"OVC:08 13","29.93","10.00","61","VRB",,"3",,,,,,,,,,,,,,,,,,,,,,,,,,,,,,,,,,,,,"MET07208/12/20 06:47:01 METAR KSQL 121447Z VRB03KT 10SM OVC013 17/15 A2994 RMK","FM-15","7",,,,,,,,,,,,,,,,,,,,,,,,,,,,
"72493893231","2020-08-12T07:47:00","FM-15","7",,,,,,,,,,,,,,,,,,,,,,,,,,,,,,,,,,,,,,"29.95","59",,,,,,,,"OVC:08 13","29.94","10.00",,"VRB",,"3",,,,,,,,,,,,,,,,,,,,,,,,,,,,,,,,,,,,,"MET06908/12/20 07:47:01 METAR KSQL 121547Z VRB03KT 10SM OVC013 15 A2995 RMK","FM-15","7",,,,,,,,,,,,,,,,,,,,,,,,,,,,
"72493893231","2020-08-12T08:47:00","FM-15","7",,,,,,,,,,,,,,,,,,,,,,,,,,,,,,,,,,,,,,"29.96","59","66",,,,,"78",,"BKN:07 13","29.95","10.00","62","VRB",,"5",,,,,,,,,,,,,,,,,,,,,,,,,,,,,,,,,,,,,"MET07208/12/20 08:47:02 METAR KSQL 121647Z VRB04KT 10SM BKN013 19/15 A2996 RMK","FM-15","7",,,,,,,,,,,,,,,,,,,,,,,,,,,,
"72493893231","2020-08-12T09:47:00","FM-15","7",,,,,,,,,,,,,,,,,,,,,,,,,,,,,,,,,,,,,,"29.96","59","68",,,,,"73",,"FEW:02 15","29.95","10.00","63","VRB",,"5",,,,,,,,,,,,,,,,,,,,,,,,,,,,,,,,,,,,,"MET07208/12/20 09:47:02 METAR KSQL 121747Z VRB04KT 10SM FEW015 20/15 A2996 RMK","FM-15","7",,,,,,,,,,,,,,,,,,,,,,,,,,,,
"72493893231","2020-08-12T10:47:00","FM-15","7",,,,,,,,,,,,,,,,,,,,,,,,,,,,,,,,,,,,,,"29.96","61","68",,,,,"78",,"*","29.95","10.00","64","360",,"7",,,,,,,,,,,,,,,,,,,,,,,,,,,,,,,,,,,,,"MET06908/12/20 10:47:02 METAR KSQL 121847Z 36006KT 10SM SKC 20/16 A2996 RMK","FM-15","7",,,,,,,,,,,,,,,,,,,,,,,,,,,,
"72493893231","2020-08-12T11:47:00","FM-15","7",,,,,,,,,,,,,,,,,,,,,,,,,,,,,,,,,,,,,,"29.95","61","68",,,,,"78",,"*","29.94","10.00","64","020",,"10",,,,,,,,,,,,,,,,,,,,,,,,,,,,,,,,,,,,,"MET06908/12/20 11:47:02 METAR KSQL 121947Z 02009KT 10SM SKC 20/16 A2995 RMK","FM-15","7",,,,,,,,,,,,,,,,,,,,,,,,,,,,
"72493893231","2020-08-12T12:47:00","FM-15","7",,,,,,,,,,,,,,,,,,,,,,,,,,,,,,,,,,,,,,"29.93","59","72",,,,,"65",,"*","29.92",,"64","350",,"8",,,,,,,,,,,,,,,,,,,,,,,,,,,,,,,,,,,,,"MET06908/12/20 12:47:02 METAR KSQL 122047Z 35007KT 1-SM SKC 22/15 A2993 RMK","FM-15","7",,,,,,,,,,,,,,,,,,,,,,,,,,,,
"72493893231","2020-08-12T13:53:00","FM-15","6",,,,,,,,,,,,,,,,,,,,,,,,,,,,,,,,,,,,,,"29.92","59","73",,,,,"61",,"*","29.91","10.00","64","330",,"11",,,,,,,,,,,,,,,,,,,,,,,,,,,,,,,,,,,,,"MET06908/12/20 13:53:02 METAR KSQL 122153Z 33010KT 10SM SKC 23/15 A2992 RMK","FM-15","6",,,,,,,,,,,,,,,,,,,,,,,,,,,,
"72493893231","2020-08-12T14:58:00","FM-15","6",,,,,,,,,,,,,,,,,,,,,,,,,,,,,,,,,,,,,,"29.89","59","75",,,,,"57",,"*","29.88","10.00","65","360",,"10",,,,,,,,,,,,,,,,,,,,,,,,,,,,,,,,,,,,,"MET06908/12/20 14:58:02 METAR KSQL 122258Z 36009KT 10SM SKC 24/15 A2989 RMK","FM-15","6",,,,,,,,,,,,,,,,,,,,,,,,,,,,
"72493893231","2020-08-12T15:50:00","FM-15","6",,,,,,,,,,,,,,,,,,,,,,,,,,,,,,,,,,,,,,"29.88","59","75",,,,,"57",,"*","29.87","10.00","65","360",,"10",,,,,,,,,,,,,,,,,,,,,,,,,,,,,,,,,,,,,"MET06908/12/20 15:50:02 METAR KSQL 122350Z 36009KT 10SM SKC 24/15 A2988 RMK","FM-15","6",,,,,,,,,,,,,,,,,,,,,,,,,,,,
"72493893231","2020-08-12T16:47:00","FM-15","6",,,,,,,,,,,,,,,,,,,,,,,,,,,,,,,,,,,,,,"29.88","59","72",,,,,"65",,"*","29.87","10.00","64","030",,"6",,,,,,,,,,,,,,,,,,,,,,,,,,,,,,,,,,,,,"MET06908/12/20 16:47:01 METAR KSQL 130047Z 03005KT 10SM SKC 22/15 A2988 RMK","FM-15","6",,,,,,,,,,,,,,,,,,,,,,,,,,,,
"72493893231","2020-08-12T17:54:00","FM-15","6",,,,,,,,,,,,,,,,,,,,,,,,,,,,,,,,,,,,,,"29.87","61","73",,,,,"65",,"*","29.86","10.00","66","050",,"7",,,,,,,,,,,,,,,,,,,,,,,,,,,,,,,,,,,,,"MET06908/12/20 17:54:01 METAR KSQL 130154Z 05006KT 10SM SKC 23/16 A2987 RMK","FM-15","6",,,,,,,,,,,,,,,,,,,,,,,,,,,,
"72493893231","2020-08-12T18:54:00","FM-15","6",,,,,,,,,,,,,,,,,,,,,,,,,,,,,,,,,,,,,,"29.89","55","72",,,,,"57",,"*","29.88","10.00","62","310",,"6",,,,,,,,,,,,,,,,,,,,,,,,,,,,,,,,,,,,,"MET06908/12/20 18:54:01 METAR KSQL 130254Z 31005KT 10SM SKC 22/13 A2989 RMK","FM-15","6",,,,,,,,,,,,,,,,,,,,,,,,,,,,
"72493893231","2020-08-12T19:47:00","FM-15","6",,,,,,,,,,,,,,,,,,,,,,,,,,,,,,,,,,,,,,"29.90","57","64",,,,,"78",,"*","29.89","10.00","60","350",,"7",,,,,,,,,,,,,,,,,,,,,,,,,,,,,,,,,,,,,"MET07408/12/20 19:47:01 METAR KSQL 130347Z 35006KT 10SM SKC 18/14 A2990 RMK LAST","FM-15","6",,,,,,,,,,,,,,,,,,,,,,,,,,,,
"72493893231","2020-08-12T20:15:00","FM-15","6",,,,,,,,,,,,,,,,,,,,,,,,,,,,,,,,,,,,,,"29.91","57","64",,,,,"78",,"CLR:00","29.90","10.00","60","360",,"5",,,,,,,,,,,,,,,,,,,,,,,,,,,,,,,,,,,,,"MET07308/12/20 20:15:01 METAR KSQL 130415Z 36004KT 10SM CLR 18/14 A2991 RMK AO2","FM-15","6",,,,,,,,,,,,,,,,,,,,,,,,,,,,
"72493893231","2020-08-12T20:35:00","FM-15","6",,,,,,,,,,,,,,,,,,,,,,,,,,,,,,,,,,,,,,"29.92","57","63",,,,,"83",,"CLR:00","29.91","10.00","60","340",,"5",,,,,,,,,,,,,,,,,,,,,,,,,,,,,,,,,,,,,"MET07308/12/20 20:35:01 METAR KSQL 130435Z 34004KT 10SM CLR 17/14 A2992 RMK AO2","FM-15","6",,,,,,,,,,,,,,,,,,,,,,,,,,,,
"72493893231","2020-08-12T20:55:00","FM-15","6",,,,,,,,,,,,,,,,,,,,,,,,,,,,,,,,,,,,,,"29.92","55","63",,,,,"77",,"CLR:00","29.91","10.00","58","320",,"6",,,,,,,,,,,,,,,,,,,,,,,,,,,,,,,,,,,,,"MET07308/12/20 20:55:01 METAR KSQL 130455Z 32005KT 10SM CLR 17/13 A2992 RMK AO2","FM-15","6",,,,,,,,,,,,,,,,,,,,,,,,,,,,
"72493893231","2020-08-12T21:15:00","FM-15","6",,,,,,,,,,,,,,,,,,,,,,,,,,,,,,,,,,,,,,"29.93","54","63",,,,,"73",,"CLR:00","29.92","10.00","58","310",,"5",,,,,,,,,,,,,,,,,,,,,,,,,,,,,,,,,,,,,"MET07308/12/20 21:15:01 METAR KSQL 130515Z 31004KT 10SM CLR 17/12 A2993 RMK AO2","FM-15","6",,,,,,,,,,,,,,,,,,,,,,,,,,,,
"72493893231","2020-08-12T21:35:00","FM-15","6",,,,,,,,,,,,,,,,,,,,,,,,,,,,,,,,,,,,,,"29.92","55","63",,,,,"77",,"CLR:00","29.91","10.00","58","310",,"3",,,,,,,,,,,,,,,,,,,,,,,,,,,,,,,,,,,,,"MET07308/12/20 21:35:01 METAR KSQL 130535Z 31003KT 10SM CLR 17/13 A2992 RMK AO2","FM-15","6",,,,,,,,,,,,,,,,,,,,,,,,,,,,
"72493893231","2020-08-12T21:55:00","FM-15","6",,,,,,,,,,,,,,,,,,,,,,,,,,,,,,,,,,,,,,"29.92","55","63",,,,,"77",,"CLR:00","29.91","10.00","58","000",,"0",,,,,,,,,,,,,,,,,,,,,,,,,,,,,,,,,,,,,"MET07308/12/20 21:55:01 METAR KSQL 130555Z 00000KT 10SM CLR 17/13 A2992 RMK AO2","FM-15","6",,,,,,,,,,,,,,,,,,,,,,,,,,,,
"72493893231","2020-08-12T22:15:00","FM-15","6",,,,,,,,,,,,,,,,,,,,,,,,,,,,,,,,,,,,,,"29.92","55","63",,,,,"77",,"CLR:00","29.91","10.00","58","040",,"3",,,,,,,,,,,,,,,,,,,,,,,,,,,,,,,,,,,,,"MET07308/12/20 22:15:01 METAR KSQL 130615Z 04003KT 10SM CLR 17/13 A2992 RMK AO2","FM-15","6",,,,,,,,,,,,,,,,,,,,,,,,,,,,
"72493893231","2020-08-12T22:35:00","FM-15","6",,,,,,,,,,,,,,,,,,,,,,,,,,,,,,,,,,,,,,"29.92","55","63",,,,,"77",,"CLR:00","29.91","10.00","58","000",,"0",,,,,,,,,,,,,,,,,,,,,,,,,,,,,,,,,,,,,"MET07308/12/20 22:35:01 METAR KSQL 130635Z 00000KT 10SM CLR 17/13 A2992 RMK AO2","FM-15","6",,,,,,,,,,,,,,,,,,,,,,,,,,,,
"72493893231","2020-08-12T22:55:00","FM-15","6",,,,,,,,,,,,,,,,,,,,,,,,,,,,,,,,,,,,,,"29.92","55","63",,,,,"77",,"CLR:00","29.91","10.00","58","000",,"0",,,,,,,,,,,,,,,,,,,,,,,,,,,,,,,,,,,,,"MET07308/12/20 22:55:01 METAR KSQL 130655Z 00000KT 10SM CLR 17/13 A2992 RMK AO2","FM-15","6",,,,,,,,,,,,,,,,,,,,,,,,,,,,
"72493893231","2020-08-12T23:15:00","FM-15","6",,,,,,,,,,,,,,,,,,,,,,,,,,,,,,,,,,,,,,"29.92","55","63",,,,,"77",,"CLR:00","29.91","10.00","58","000",,"0",,,,,,,,,,,,,,,,,,,,,,,,,,,,,,,,,,,,,"MET07308/12/20 23:15:01 METAR KSQL 130715Z 00000KT 10SM CLR 17/13 A2992 RMK AO2","FM-15","6",,,,,,,,,,,,,,,,,,,,,,,,,,,,
"72493893231","2020-08-12T23:35:00","FM-15","6",,,,,,,,,,,,,,,,,,,,,,,,,,,,,,,,,,,,,,"29.92","55","61",,,,,"83",,"CLR:00","29.91","10.00","58","350",,"3",,,,,,,,,,,,,,,,,,,,,,,,,,,,,,,,,,,,,"MET07308/12/20 23:35:01 METAR KSQL 130735Z 35003KT 10SM CLR 16/13 A2992 RMK AO2","FM-15","6",,,,,,,,,,,,,,,,,,,,,,,,,,,,
"72493893231","2020-08-12T23:55:00","FM-15","6",,,,,,,,,,,,,,,,,,,,,,,,,,,,,,,,,,,,,,"29.92","55","63",,,,,"77",,"CLR:00","29.91","10.00","58","300",,"3",,,,,,,,,,,,,,,,,,,,,,,,,,,,,,,,,,,,,"MET07308/12/20 23:55:01 METAR KSQL 130755Z 30003KT 10SM CLR 17/13 A2992 RMK AO2","FM-15","6",,,,,,,,,,,,,,,,,,,,,,,,,,,,
"72493893231","2020-08-13T00:15:00","FM-15","6",,,,,,,,,,,,,,,,,,,,,,,,,,,,,,,,,,,,,,"29.92","55","63",,,,,"77",,"CLR:00","29.91","10.00","58","310",,"5",,,,,,,,,,,,,,,,,,,,,,,,,,,,,,,,,,,,,"MET07308/13/20 00:15:01 METAR KSQL 130815Z 31004KT 10SM CLR 17/13 A2992 RMK AO2","FM-15","6",,,,,,,,,,,,,,,,,,,,,,,,,,,,
"72493893231","2020-08-13T00:35:00","FM-15","6",,,,,,,,,,,,,,,,,,,,,,,,,,,,,,,,,,,,,,"29.91","54","61",,,,,"77",,"CLR:00","29.90","10.00","57","300",,"5",,,,,,,,,,,,,,,,,,,,,,,,,,,,,,,,,,,,,"MET07308/13/20 00:35:01 METAR KSQL 130835Z 30004KT 10SM CLR 16/12 A2991 RMK AO2","FM-15","6",,,,,,,,,,,,,,,,,,,,,,,,,,,,
"72493893231","2020-08-13T00:55:00","FM-15","6",,,,,,,,,,,,,,,,,,,,,,,,,,,,,,,,,,,,,,"29.91","54","61",,,,,"77",,"CLR:00","29.90","10.00","57","310",,"3",,,,,,,,,,,,,,,,,,,,,,,,,,,,,,,,,,,,,"MET07308/13/20 00:55:01 METAR KSQL 130855Z 31003KT 10SM CLR 16/12 A2991 RMK AO2","FM-15","6",,,,,,,,,,,,,,,,,,,,,,,,,,,,
"72493893231","2020-08-13T01:15:00","FM-15","6",,,,,,,,,,,,,,,,,,,,,,,,,,,,,,,,,,,,,,"29.91","54","61",,,,,"77",,"CLR:00","29.90","10.00","57","000",,"0",,,,,,,,,,,,,,,,,,,,,,,,,,,,,,,,,,,,,"MET07308/13/20 01:15:01 METAR KSQL 130915Z 00000KT 10SM CLR 16/12 A2991 RMK AO2","FM-15","6",,,,,,,,,,,,,,,,,,,,,,,,,,,,
"72493893231","2020-08-13T01:35:00","FM-15","6",,,,,,,,,,,,,,,,,,,,,,,,,,,,,,,,,,,,,,"29.90","54","61",,,,,"77",,"CLR:00","29.89","10.00","57","310",,"3",,,,,,,,,,,,,,,,,,,,,,,,,,,,,,,,,,,,,"MET07308/13/20 01:35:01 METAR KSQL 130935Z 31003KT 10SM CLR 16/12 A2990 RMK AO2","FM-15","6",,,,,,,,,,,,,,,,,,,,,,,,,,,,
"72493893231","2020-08-13T01:55:00","FM-15","6",,,,,,,,,,,,,,,,,,,,,,,,,,,,,,,,,,,,,,"29.90","54","61",,,,,"77",,"CLR:00","29.89","10.00","57","310",,"3",,,,,,,,,,,,,,,,,,,,,,,,,,,,,,,,,,,,,"MET07308/13/20 01:55:01 METAR KSQL 130955Z 31003KT 10SM CLR 16/12 A2990 RMK AO2","FM-15","6",,,,,,,,,,,,,,,,,,,,,,,,,,,,
"72493893231","2020-08-13T02:15:00","FM-15","6",,,,,,,,,,,,,,,,,,,,,,,,,,,,,,,,,,,,,,"29.90","54","61",,,,,"77",,"CLR:00","29.89","10.00","57","310",,"3",,,,,,,,,,,,,,,,,,,,,,,,,,,,,,,,,,,,,"MET07308/13/20 02:15:01 METAR KSQL 131015Z 31003KT 10SM CLR 16/12 A2990 RMK AO2","FM-15","6",,,,,,,,,,,,,,,,,,,,,,,,,,,,
"72493893231","2020-08-13T02:35:00","FM-15","6",,,,,,,,,,,,,,,,,,,,,,,,,,,,,,,,,,,,,,"29.90","54","61",,,,,"77",,"CLR:00","29.89","10.00","57","300",,"3",,,,,,,,,,,,,,,,,,,,,,,,,,,,,,,,,,,,,"MET07308/13/20 02:35:01 METAR KSQL 131035Z 30003KT 10SM CLR 16/12 A2990 RMK AO2","FM-15","6",,,,,,,,,,,,,,,,,,,,,,,,,,,,
"72493893231","2020-08-13T02:55:00","FM-15","6",,,,,,,,,,,,,,,,,,,,,,,,,,,,,,,,,,,,,,"29.90","54","61",,,,,"77",,"CLR:00","29.89","10.00","57","000",,"0",,,,,,,,,,,,,,,,,,,,,,,,,,,,,,,,,,,,,"MET07308/13/20 02:55:01 METAR KSQL 131055Z 00000KT 10SM CLR 16/12 A2990 RMK AO2","FM-15","6",,,,,,,,,,,,,,,,,,,,,,,,,,,,
"72493893231","2020-08-13T03:15:00","FM-15","6",,,,,,,,,,,,,,,,,,,,,,,,,,,,,,,,,,,,,,"29.90","54","61",,,,,"77",,"CLR:00","29.89","10.00","57","000",,"0",,,,,,,,,,,,,,,,,,,,,,,,,,,,,,,,,,,,,"MET07308/13/20 03:15:01 METAR KSQL 131115Z 00000KT 10SM CLR 16/12 A2990 RMK AO2","FM-15","6",,,,,,,,,,,,,,,,,,,,,,,,,,,,
"72493893231","2020-08-13T03:35:00","FM-15","6",,,,,,,,,,,,,,,,,,,,,,,,,,,,,,,,,,,,,,"29.90","54","61",,,,,"77",,"CLR:00","29.89","10.00","57","000",,"0",,,,,,,,,,,,,,,,,,,,,,,,,,,,,,,,,,,,,"MET07308/13/20 03:35:01 METAR KSQL 131135Z 00000KT 10SM CLR 16/12 A2990 RMK AO2","FM-15","6",,,,,,,,,,,,,,,,,,,,,,,,,,,,
"72493893231","2020-08-13T03:55:00","FM-15","6",,,,,,,,,,,,,,,,,,,,,,,,,,,,,,,,,,,,,,"29.90","54","59",,,,,"82",,"CLR:00","29.89","10.00","56","000",,"0",,,,,,,,,,,,,,,,,,,,,,,,,,,,,,,,,,,,,"MET07308/13/20 03:55:01 METAR KSQL 131155Z 00000KT 10SM CLR 15/12 A2990 RMK AO2","FM-15","6",,,,,,,,,,,,,,,,,,,,,,,,,,,,
"72493893231","2020-08-13T04:15:00","FM-15","6",,,,,,,,,,,,,,,,,,,,,,,,,,,,,,,,,,,,,,"29.90","54","59",,,,,"82",,"CLR:00","29.89","10.00","56","000",,"0",,,,,,,,,,,,,,,,,,,,,,,,,,,,,,,,,,,,,"MET07308/13/20 04:15:01 METAR KSQL 131215Z 00000KT 10SM CLR 15/12 A2990 RMK AO2","FM-15","6",,,,,,,,,,,,,,,,,,,,,,,,,,,,
"72493893231","2020-08-13T04:35:00","FM-15","6",,,,,,,,,,,,,,,,,,,,,,,,,,,,,,,,,,,,,,"29.90","54","59",,,,,"82",,"CLR:00","29.89","10.00","56","000",,"0",,,,,,,,,,,,,,,,,,,,,,,,,,,,,,,,,,,,,"MET07308/13/20 04:35:01 METAR KSQL 131235Z 00000KT 10SM CLR 15/12 A2990 RMK AO2","FM-15","6",,,,,,,,,,,,,,,,,,,,,,,,,,,,
"72493893231","2020-08-13T04:55:00","FM-15","6",,,,,,,,,,,,,,,,,,,,,,,,,,,,,,,,,,,,,,"29.90","55","59",,,,,"88",,"CLR:00","29.89","10.00","57","000",,"0",,,,,,,,,,,,,,,,,,,,,,,,,,,,,,,,,,,,,"MET07308/13/20 04:55:01 METAR KSQL 131255Z 00000KT 10SM CLR 15/13 A2990 RMK AO2","FM-15","6",,,,,,,,,,,,,,,,,,,,,,,,,,,,
"72493893231","2020-08-13T05:15:00","FM-15","6",,,,,,,,,,,,,,,,,,,,,,,,,,,,,,,,,,,,,,"29.91","55","59",,,,,"88",,"CLR:00","29.90","10.00","57","000",,"0",,,,,,,,,,,,,,,,,,,,,,,,,,,,,,,,,,,,,"MET07308/13/20 05:15:01 METAR KSQL 131315Z 00000KT 10SM CLR 15/13 A2991 RMK AO2","FM-15","6",,,,,,,,,,,,,,,,,,,,,,,,,,,,
"72493893231","2020-08-13T05:35:00","FM-15","6",,,,,,,,,,,,,,,,,,,,,,,,,,,,,,,,,,,,,,"29.91","55","59",,,,,"88",,"CLR:00","29.90","10.00","57","000",,"0",,,,,,,,,,,,,,,,,,,,,,,,,,,,,,,,,,,,,"MET07308/13/20 05:35:01 METAR KSQL 131335Z 00000KT 10SM CLR 15/13 A2991 RMK AO2","FM-15","6",,,,,,,,,,,,,,,,,,,,,,,,,,,,
"72493893231","2020-08-13T05:55:00","FM-15","6",,,,,,,,,,,,,,,,,,,,,,,,,,,,,,,,,,,,,,"29.91","55","61",,,,,"83",,"CLR:00","29.90","10.00","58","000",,"0",,,,,,,,,,,,,,,,,,,,,,,,,,,,,,,,,,,,,"MET07308/13/20 05:55:01 METAR KSQL 131355Z 00000KT 10SM CLR 16/13 A2991 RMK AO2","FM-15","6",,,,,,,,,,,,,,,,,,,,,,,,,,,,
"72493893231","2020-08-13T06:47:00","FM-15","6",,,,,,,,,,,,,,,,,,,,,,,,,,,,,,,,,,,,,,"29.92","57","64",,,,,"78",,"*","29.91","10.00","60","000",,"0",,,,,,,,,,,,,,,,,,,,,,,,,,,,,,,,,,,,,"MET06908/13/20 06:47:01 METAR KSQL 131447Z 00000KT 10SM SKC 18/14 A2992 RMK","FM-15","6",,,,,,,,,,,,,,,,,,,,,,,,,,,,
"72493893231","2020-08-13T07:47:00","FM-15","6",,,,,,,,,,,,,,,,,,,,,,,,,,,,,,,,,,,,,,"29.93","57","66",,,,,"73",,"*","29.92","10.00","61","000",,"0",,,,,,,,,,,,,,,,,,,,,,,,,,,,,,,,,,,,,"MET06908/13/20 07:47:01 METAR KSQL 131547Z 00000KT 10SM SKC 19/14 A2993 RMK","FM-15","6",,,,,,,,,,,,,,,,,,,,,,,,,,,,
"72493893231","2020-08-13T08:47:00","FM-15","6",,,,,,,,,,,,,,,,,,,,,,,,,,,,,,,,,,,,,,"29.93","59","68",,,,,"73",,"*","29.92","10.00","63","VRB",,"3",,,,,,,,,,,,,,,,,,,,,,,,,,,,,,,,,,,,,"MET06908/13/20 08:47:01 METAR KSQL 131647Z VRB03KT 10SM SKC 20/15 A2993 RMK","FM-15","6",,,,,,,,,,,,,,,,,,,,,,,,,,,,
"72493893231","2020-08-13T09:47:00","FM-15","6",,,,,,,,,,,,,,,,,,,,,,,,,,,,,,,,,,,,,,"29.94","63","73",,,,,"69",,"*","29.93","10.00","67","VRB",,"5",,,,,,,,,,,,,,,,,,,,,,,,,,,,,,,,,,,,,"MET06908/13/20 09:47:01 METAR KSQL 131747Z VRB04KT 10SM SKC 23/17 A2994 RMK","FM-15","6",,,,,,,,,,,,,,,,,,,,,,,,,,,,
"72493893231","2020-08-13T10:47:00","FM-15","6",,,,,,,,,,,,,,,,,,,,,,,,,,,,,,,,,,,,,,"29.94","64","75",,,,,"69",,"*","29.93","10.00","68","360",,"9",,,,,,,,,,,,,,,,,,,,,,,,,,,,,,,,,,,,,"MET06908/13/20 10:47:01 METAR KSQL 131847Z 36008KT 10SM SKC 24/18 A2994 RMK","FM-15","6",,,,,,,,,,,,,,,,,,,,,,,,,,,,
"72493893231","2020-08-13T11:47:00","FM-15","6",,,,,,,,,,,,,,,,,,,,,,,,,,,,,,,,,,,,,,"29.92","63","79",,,,,"58",,"*","29.91","10.00","69","350",,"7",,,,,,,,,,,,,,,,,,,,,,,,,,,,,,,,,,,,,"MET06908/13/20 11:47:02 METAR KSQL 131947Z 35006KT 10SM SKC 26/17 A2992 RMK","FM-15","6",,,,,,,,,,,,,,,,,,,,,,,,,,,,
"72493893231","2020-08-13T12:47:00","FM-15","6",,,,,,,,,,,,,,,,,,,,,,,,,,,,,,,,,,,,,,"29.92","59","86",,,,,"40",,"*","29.91","10.00","69","330",,"6",,,,,,,,,,,,,,,,,,,,,,,,,,,,,,,,,,,,,"MET06908/13/20 12:47:02 METAR KSQL 132047Z 33005KT 10SM SKC 30/15 A2992 RMK","FM-15","6",,,,,,,,,,,,,,,,,,,,,,,,,,,,
"72493893231","2020-08-13T13:47:00","FM-15","6",,,,,,,,,,,,,,,,,,,,,,,,,,,,,,,,,,,,,,"29.91","55","86",,,,,"35",,"*","29.90","10.00","67","330",,"9",,,,,,,,,,,,,,,,,,,,,,,,,,,,,,,,,,,,,"MET06908/13/20 13:47:02 METAR KSQL 132147Z 33008KT 10SM SKC 30/13 A2991 RMK","FM-15","6",,,,,,,,,,,,,,,,,,,,,,,,,,,,
"72493893231","2020-08-13T14:47:00","FM-15","7",,,,,,,,,,,,,,,,,,,,,,,,,,,,,,,,,,,,,,"29.89","52","93",,,,,"24",,"*","29.88","10.00","68","300",,"10",,,,,,,,,,,,,,,,,,,,,,,,,,,,,,,,,,,,,"MET06908/13/20 14:47:02 METAR KSQL 132247Z 30009KT 10SM SKC 34/11 A2989 RMK","FM-15","7",,,,,,,,,,,,,,,,,,,,,,,,,,,,
"72493893231","2020-08-13T15:47:00","FM-15","7",,,,,,,,,,,,,,,,,,,,,,,,,,,,,,,,,,,,,,"29.89","50","93",,,,,"23",,"*","29.88","10.00","67","290",,"11",,,,,,,,,,,,,,,,,,,,,,,,,,,,,,,,,,,,,"MET06908/13/20 15:47:02 METAR KSQL 132347Z 29010KT 10SM SKC 34/10 A2989 RMK","FM-15","7",,,,,,,,,,,,,,,,,,,,,,,,,,,,
"72493893231","2020-08-13T16:47:00","FM-15","7",,,,,,,,,,,,,,,,,,,,,,,,,,,,,,,,,,,,,,"29.89","50","93",,,,,"23",,"*","29.88","10.00","67","300",,"11",,,,,,,,,,,,,,,,,,,,,,,,,,,,,,,,,,,,,"MET06908/13/20 16:47:01 METAR KSQL 140047Z 30010KT 10SM SKC 34/10 A2989 RMK","FM-15","7",,,,,,,,,,,,,,,,,,,,,,,,,,,,
"72493893231","2020-08-13T17:47:00","FM-15","7",,,,,,,,,,,,,,,,,,,,,,,,,,,,,,,,,,,,,,"29.88","48","88",,,,,"25",,"SCT:04 120","29.87","10.00","65","300",,"11",,,,,,,,,,,,,,,,,,,,,,,,,,,,,,,,,,,,,"MET07208/13/20 17:47:01 METAR KSQL 140147Z 30010KT 10SM SCT120 31/09 A2988 RMK","FM-15","7",,,,,,,,,,,,,,,,,,,,,,,,,,,,
"72493893231","2020-08-13T18:47:00","FM-15","7",,,,,,,,,,,,,,,,,,,,,,,,,,,,,,,,,,,,,,"29.89","46","84",,,,,"27",,"BKN:07 200","29.88","10.00","62","300",,"11",,,,,,,,,,,,,,,,,,,,,,,,,,,,,,,,,,,,,"MET07208/13/20 18:47:02 METAR KSQL 140247Z 30010KT 10SM BKN200 29/08 A2989 RMK","FM-15","7",,,,,,,,,,,,,,,,,,,,,,,,,,,,
"72493893231","2020-08-13T19:47:00","FM-15","7",,,,,,,,,,,,,,,,,,,,,,,,,,,,,,,,,,,,,,"29.89","48","82",,,,,"30",,"SCT:04 150","29.88","10.00","62","300",,"9",,,,,,,,,,,,,,,,,,,,,,,,,,,,,,,,,,,,,"MET07708/13/20 19:47:02 METAR KSQL 140347Z 30008KT 10SM SCT150 28/09 A2989 RMK LAST","FM-15","7",,,,,,,,,,,,,,,,,,,,,,,,,,,,
"72493893231","2020-08-13T20:15:00","FM-15","7",,,,,,,,,,,,,,,,,,,,,,,,,,,,,,,,,,,,,,"29.92","61","75",,,,,"61",,"CLR:00","29.91","10.00","66","350",,"5",,,,,,,,,,,,,,,,,,,,,,,,,,,,,,,,,,,,,"MET07308/13/20 20:15:02 METAR KSQL 140415Z 35004KT 10SM CLR 24/16 A2992 RMK AO2","FM-15","7",,,,,,,,,,,,,,,,,,,,,,,,,,,,
"72493893231","2020-08-13T20:35:00","FM-15","7",,,,,,,,,,,,,,,,,,,,,,,,,,,,,,,,,,,,,,"29.92","59","75",,,,,"57",,"CLR:00","29.91","10.00","65","000",,"0",,,,,,,,,,,,,,,,,,,,,,,,,,,,,,,,,,,,,"MET07308/13/20 20:35:02 METAR KSQL 140435Z 00000KT 10SM CLR 24/15 A2992 RMK AO2","FM-15","7",,,,,,,,,,,,,,,,,,,,,,,,,,,,
"72493893231","2020-08-13T20:55:00","FM-15","7",,,,,,,,,,,,,,,,,,,,,,,,,,,,,,,,,,,,,,"29.93","59","75",,,,,"57",,"CLR:00","29.92","10.00","65","000",,"0",,,,,,,,,,,,,,,,,,,,,,,,,,,,,,,,,,,,,"MET07308/13/20 20:55:02 METAR KSQL 140455Z 00000KT 10SM CLR 24/15 A2993 RMK AO2","FM-15","7",,,,,,,,,,,,,,,,,,,,,,,,,,,,
"72493893231","2020-08-13T21:15:00","FM-15","7",,,,,,,,,,,,,,,,,,,,,,,,,,,,,,,,,,,,,,"29.93","55","75",,,,,"50",,"CLR:00","29.92","10.00","63","300",,"7",,,,,,,,,,,,,,,,,,,,,,,,,,,,,,,,,,,,,"MET07308/13/20 21:15:02 METAR KSQL 140515Z 30006KT 10SM CLR 24/13 A2993 RMK AO2","FM-15","7",,,,,,,,,,,,,,,,,,,,,,,,,,,,
"72493893231","2020-08-13T21:35:00","FM-15","7",,,,,,,,,,,,,,,,,,,,,,,,,,,,,,,,,,,,,,"29.93","52","75",,,,,"44",,"CLR:00","29.92","10.00","62","310",,"7",,,,,,,,,,,,,,,,,,,,,,,,,,,,,,,,,,,,,"MET07308/13/20 21:35:02 METAR KSQL 140535Z 31006KT 10SM CLR 24/11 A2993 RMK AO2","FM-15","7",,,,,,,,,,,,,,,,,,,,,,,,,,,,
"72493893231","2020-08-13T21:55:00","FM-15","7",,,,,,,,,,,,,,,,,,,,,,,,,,,,,,,,,,,,,,"29.93","50","75",,,,,"41",,"CLR:00","29.92","10.00","61","000",,"0",,,,,,,,,,,,,,,,,,,,,,,,,,,,,,,,,,,,,"MET07308/13/20 21:55:02 METAR KSQL 140555Z 00000KT 10SM CLR 24/10 A2993 RMK AO2","FM-15","7",,,,,,,,,,,,,,,,,,,,,,,,,,,,
"72493893231","2020-08-13T22:15:00","FM-15","7",,,,,,,,,,,,,,,,,,,,,,,,,,,,,,,,,,,,,,"29.92","57","73",,,,,"57",,"CLR:00","29.91","10.00","63","020",,"3",,,,,,,,,,,,,,,,,,,,,,,,,,,,,,,,,,,,,"MET07308/13/20 22:15:01 METAR KSQL 140615Z 02003KT 10SM CLR 23/14 A2992 RMK AO2","FM-15","7",,,,,,,,,,,,,,,,,,,,,,,,,,,,
"72493893231","2020-08-13T22:35:00","FM-15","7",,,,,,,,,,,,,,,,,,,,,,,,,,,,,,,,,,,,,,"29.92","54","73",,,,,"50",,"CLR:00","29.91","10.00","62","000",,"0",,,,,,,,,,,,,,,,,,,,,,,,,,,,,,,,,,,,,"MET07308/13/20 22:35:01 METAR KSQL 140635Z 00000KT 10SM CLR 23/12 A2992 RMK AO2","FM-15","7",,,,,,,,,,,,,,,,,,,,,,,,,,,,
"72493893231","2020-08-13T22:55:00","FM-15","7",,,,,,,,,,,,,,,,,,,,,,,,,,,,,,,,,,,,,,"29.92","54","73",,,,,"50",,"CLR:00","29.91","10.00","62","320",,"3",,,,,,,,,,,,,,,,,,,,,,,,,,,,,,,,,,,,,"MET07308/13/20 22:55:01 METAR KSQL 140655Z 32003KT 10SM CLR 23/12 A2992 RMK AO2","FM-15","7",,,,,,,,,,,,,,,,,,,,,,,,,,,,
"72493893231","2020-08-13T23:15:00","FM-15","7",,,,,,,,,,,,,,,,,,,,,,,,,,,,,,,,,,,,,,"29.92","54","75",,,,,"47",,"CLR:00","29.91","10.00","63","000",,"0",,,,,,,,,,,,,,,,,,,,,,,,,,,,,,,,,,,,,"MET07308/13/20 23:15:02 METAR KSQL 140715Z 00000KT 10SM CLR 24/12 A2992 RMK AO2","FM-15","7",,,,,,,,,,,,,,,,,,,,,,,,,,,,
"72493893231","2020-08-13T23:35:00","FM-15","7",,,,,,,,,,,,,,,,,,,,,,,,,,,,,,,,,,,,,,"29.92","54","75",,,,,"47",,"CLR:00","29.91","10.00","63","000",,"0",,,,,,,,,,,,,,,,,,,,,,,,,,,,,,,,,,,,,"MET07308/13/20 23:35:02 METAR KSQL 140735Z 00000KT 10SM CLR 24/12 A2992 RMK AO2","FM-15","7",,,,,,,,,,,,,,,,,,,,,,,,,,,,
"72493893231","2020-08-13T23:55:00","FM-15","7",,,,,,,,,,,,,,,,,,,,,,,,,,,,,,,,,,,,,,"29.92","57","75",,,,,"54",,"CLR:00","29.91","10.00","64","000",,"0",,,,,,,,,,,,,,,,,,,,,,,,,,,,,,,,,,,,,"MET07308/13/20 23:55:02 METAR KSQL 140755Z 00000KT 10SM CLR 24/14 A2992 RMK AO2","FM-15","7",,,,,,,,,,,,,,,,,,,,,,,,,,,,
"72493893231","2020-08-14T00:15:00","FM-15","7",,,,,,,,,,,,,,,,,,,,,,,,,,,,,,,,,,,,,,"29.91","57","73",,,,,"57",,"CLR:00","29.90","10.00","63","000",,"0",,,,,,,,,,,,,,,,,,,,,,,,,,,,,,,,,,,,,"MET07308/14/20 00:15:02 METAR KSQL 140815Z 00000KT 10SM CLR 23/14 A2991 RMK AO2","FM-15","7",,,,,,,,,,,,,,,,,,,,,,,,,,,,
"72493893231","2020-08-14T00:35:00","FM-15","7",,,,,,,,,,,,,,,,,,,,,,,,,,,,,,,,,,,,,,"29.91","55","73",,,,,"53",,"CLR:00","29.90","10.00","62","000",,"0",,,,,,,,,,,,,,,,,,,,,,,,,,,,,,,,,,,,,"MET07308/14/20 00:35:02 METAR KSQL 140835Z 00000KT 10SM CLR 23/13 A2991 RMK AO2","FM-15","7",,,,,,,,,,,,,,,,,,,,,,,,,,,,
"72493893231","2020-08-14T00:55:00","FM-15","7",,,,,,,,,,,,,,,,,,,,,,,,,,,,,,,,,,,,,,"29.91","54","73",,,,,"50",,"CLR:00","29.90","10.00","62","000",,"0",,,,,,,,,,,,,,,,,,,,,,,,,,,,,,,,,,,,,"MET07308/14/20 00:55:02 METAR KSQL 140855Z 00000KT 10SM CLR 23/12 A2991 RMK AO2","FM-15","7",,,,,,,,,,,,,,,,,,,,,,,,,,,,
"72493893231","2020-08-14T01:15:00","FM-15","7",,,,,,,,,,,,,,,,,,,,,,,,,,,,,,,,,,,,,,"29.90","55","73",,,,,"53",,"CLR:00","29.89","10.00","62","000",,"0",,,,,,,,,,,,,,,,,,,,,,,,,,,,,,,,,,,,,"MET07308/14/20 01:15:02 METAR KSQL 140915Z 00000KT 10SM CLR 23/13 A2990 RMK AO2","FM-15","7",,,,,,,,,,,,,,,,,,,,,,,,,,,,
"72493893231","2020-08-14T01:35:00","FM-15","7",,,,,,,,,,,,,,,,,,,,,,,,,,,,,,,,,,,,,,"29.90","63","72",,,,,"73",,"CLR:00","29.89","10.00","66","000",,"0",,,,,,,,,,,,,,,,,,,,,,,,,,,,,,,,,,,,,"MET07308/14/20 01:35:02 METAR KSQL 140935Z 00000KT 10SM CLR 22/17 A2990 RMK AO2","FM-15","7",,,,,,,,,,,,,,,,,,,,,,,,,,,,
"72493893231","2020-08-14T01:55:00","FM-15","7",,,,,,,,,,,,,,,,,,,,,,,,,,,,,,,,,,,,,,"29.91","64","70",,,,,"83",,"CLR:00","29.90","10.00","66","000",,"0",,,,,,,,,,,,,,,,,,,,,,,,,,,,,,,,,,,,,"MET07308/14/20 01:55:02 METAR KSQL 140955Z 00000KT 10SM CLR 21/18 A2991 RMK AO2","FM-15","7",,,,,,,,,,,,,,,,,,,,,,,,,,,,
"72493893231","2020-08-14T02:15:00","FM-15","7",,,,,,,,,,,,,,,,,,,,,,,,,,,,,,,,,,,,,,"29.90","63","70",,,,,"78",,"CLR:00","29.89","10.00","66","000",,"0",,,,,,,,,,,,,,,,,,,,,,,,,,,,,,,,,,,,,"MET07308/14/20 02:15:02 METAR KSQL 141015Z 00000KT 10SM CLR 21/17 A2990 RMK AO2","FM-15","7",,,,,,,,,,,,,,,,,,,,,,,,,,,,
"72493893231","2020-08-14T02:35:00","FM-15","7",,,,,,,,,,,,,,,,,,,,,,,,,,,,,,,,,,,,,,"29.90","55","72",,,,,"57",,"CLR:00","29.89","10.00","62","330",,"5",,,,,,,,,,,,,,,,,,,,,,,,,,,,,,,,,,,,,"MET07308/14/20 02:35:02 METAR KSQL 141035Z 33004KT 10SM CLR 22/13 A2990 RMK AO2","FM-15","7",,,,,,,,,,,,,,,,,,,,,,,,,,,,
"72493893231","2020-08-14T02:55:00","FM-15","7",,,,,,,,,,,,,,,,,,,,,,,,,,,,,,,,,,,,,,"29.90","54","72",,,,,"53",,"CLR:00","29.89","10.00","62","340",,"3",,,,,,,,,,,,,,,,,,,,,,,,,,,,,,,,,,,,,"MET07308/14/20 02:55:02 METAR KSQL 141055Z 34003KT 10SM CLR 22/12 A2990 RMK AO2","FM-15","7",,,,,,,,,,,,,,,,,,,,,,,,,,,,
"72493893231","2020-08-14T03:15:00","FM-15","7",,,,,,,,,,,,,,,,,,,,,,,,,,,,,,,,,,,,,,"29.90","59","70",,,,,"69",,"CLR:00","29.89","10.00","63","000",,"0",,,,,,,,,,,,,,,,,,,,,,,,,,,,,,,,,,,,,"MET07308/14/20 03:15:02 METAR KSQL 141115Z 00000KT 10SM CLR 21/15 A2990 RMK AO2","FM-15","7",,,,,,,,,,,,,,,,,,,,,,,,,,,,
"72493893231","2020-08-14T03:35:00","FM-15","7",,,,,,,,,,,,,,,,,,,,,,,,,,,,,,,,,,,,,,"29.90","59","70",,,,,"69",,"CLR:00","29.89","10.00","63","000",,"0",,,,,,,,,,,,,,,,,,,,,,,,,,,,,,,,,,,,,"MET07308/14/20 03:35:02 METAR KSQL 141135Z 00000KT 10SM CLR 21/15 A2990 RMK AO2","FM-15","7",,,,,,,,,,,,,,,,,,,,,,,,,,,,
"72493893231","2020-08-14T03:55:00","FM-15","7",,,,,,,,,,,,,,,,,,,,,,,,,,,,,,,,,,,,,,"29.90","59","70",,,,,"69",,"CLR:00","29.89","10.00","63","000",,"0",,,,,,,,,,,,,,,,,,,,,,,,,,,,,,,,,,,,,"MET07308/14/20 03:55:02 METAR KSQL 141155Z 00000KT 10SM CLR 21/15 A2990 RMK AO2","FM-15","7",,,,,,,,,,,,,,,,,,,,,,,,,,,,
"72493893231","2020-08-14T04:15:00","FM-15","7",,,,,,,,,,,,,,,,,,,,,,,,,,,,,,,,,,,,,,"29.90","63","70",,,,,"78",,"CLR:00","29.89","10.00","66","000",,"0",,,,,,,,,,,,,,,,,,,,,,,,,,,,,,,,,,,,,"MET07308/14/20 04:15:02 METAR KSQL 141215Z 00000KT 10SM CLR 21/17 A2990 RMK AO2","FM-15","7",,,,,,,,,,,,,,,,,,,,,,,,,,,,
"72493893231","2020-08-14T04:35:00","FM-15","7",,,,,,,,,,,,,,,,,,,,,,,,,,,,,,,,,,,,,,"29.90","63","68",,,,,"83",,"CLR:00","29.89","10.00","65","000",,"0",,,,,,,,,,,,,,,,,,,,,,,,,,,,,,,,,,,,,"MET07308/14/20 04:35:02 METAR KSQL 141235Z 00000KT 10SM CLR 20/17 A2990 RMK AO2","FM-15","7",,,,,,,,,,,,,,,,,,,,,,,,,,,,
"72493893231","2020-08-14T04:55:00","FM-15","7",,,,,,,,,,,,,,,,,,,,,,,,,,,,,,,,,,,,,,"29.89","63","70",,,,,"78",,"CLR:00","29.88","10.00","66","000",,"0",,,,,,,,,,,,,,,,,,,,,,,,,,,,,,,,,,,,,"MET07308/14/20 04:55:02 METAR KSQL 141255Z 00000KT 10SM CLR 21/17 A2989 RMK AO2","FM-15","7",,,,,,,,,,,,,,,,,,,,,,,,,,,,
"72493893231","2020-08-14T05:15:00","FM-15","7",,,,,,,,,,,,,,,,,,,,,,,,,,,,,,,,,,,,,,"29.90","64","70",,,,,"83",,"CLR:00","29.89","10.00","66","000",,"0",,,,,,,,,,,,,,,,,,,,,,,,,,,,,,,,,,,,,"MET07308/14/20 05:15:02 METAR KSQL 141315Z 00000KT 10SM CLR 21/18 A2990 RMK AO2","FM-15","7",,,,,,,,,,,,,,,,,,,,,,,,,,,,
"72493893231","2020-08-14T05:35:00","FM-15","7",,,,,,,,,,,,,,,,,,,,,,,,,,,,,,,,,,,,,,"29.90","64","70",,,,,"83",,"CLR:00","29.89","10.00","66","000",,"0",,,,,,,,,,,,,,,,,,,,,,,,,,,,,,,,,,,,,"MET07308/14/20 05:35:02 METAR KSQL 141335Z 00000KT 10SM CLR 21/18 A2990 RMK AO2","FM-15","7",,,,,,,,,,,,,,,,,,,,,,,,,,,,
"72493893231","2020-08-14T05:55:00","FM-15","7",,,,,,,,,,,,,,,,,,,,,,,,,,,,,,,,,,,,,,"29.90","63","72",,,,,"73",,"CLR:00","29.89","10.00","66","000",,"0",,,,,,,,,,,,,,,,,,,,,,,,,,,,,,,,,,,,,"MET07308/14/20 05:55:02 METAR KSQL 141355Z 00000KT 10SM CLR 22/17 A2990 RMK AO2","FM-15","7",,,,,,,,,,,,,,,,,,,,,,,,,,,,
"72493893231","2020-08-14T06:00:00","FM-15","4",,,,,,,,,,,,,,,,,,,,,,,,,,,,,,,,,,,,,,"29.90","64","70",,,,,"83",,,,"10.00",,"000",,"0",,,,,,,,,,,,,,,,,,,,,,,,,,,,,,,,,,,,,"MET051METAR KSQL 141400Z 00000KT 10SM BKN150 21/18 A2990=","FM-15","4",,,,,,,,,,,,,,,,,,,,,,,,,,,,
"72493893231","2020-08-14T06:47:00","FM-15","7",,,,,,,,,,,,,,,,,,,,,,,,,,,,,,,,,,,,,,"29.91","59","72",,,,,"65",,"BKN:07 180","29.90","10.00","64","VRB",,"3",,,,,,,,,,,,,,,,,,,,,,,,,,,,,,,,,,,,,"MET07208/14/20 06:47:02 METAR KSQL 141447Z VRB03KT 10SM BKN180 22/15 A2991 RMK","FM-15","7",,,,,,,,,,,,,,,,,,,,,,,,,,,,
"72493893231","2020-08-14T07:47:00","FM-15","7",,,,,,,,,,,,,,,,,,,,,,,,,,,,,,,,,,,,,,"29.92","61","75",,,,,"61",,"BKN:07 180","29.91","10.00","66","VRB",,"3",,,,,,,,,,,,,,,,,,,,,,,,,,,,,,,,,,,,,"MET07208/14/20 07:47:02 METAR KSQL 141547Z VRB03KT 10SM BKN180 24/16 A2992 RMK","FM-15","7",,,,,,,,,,,,,,,,,,,,,,,,,,,,
"72493893231","2020-08-14T08:47:00","FM-15","7",,,,,,,,,,,,,,,,,,,,,,,,,,,,,,,,,,,,,,"29.92","63","75",,,,,"65",,"BKN:07 180","29.91","10.00","67","VRB",,"3",,,,,,,,,,,,,,,,,,,,,,,,,,,,,,,,,,,,,"MET07208/14/20 08:47:02 METAR KSQL 141647Z VRB03KT 10SM BKN180 24/17 A2992 RMK","FM-15","7",,,,,,,,,,,,,,,,,,,,,,,,,,,,
"72493893231","2020-08-14T09:47:00","FM-15","7",,,,,,,,,,,,,,,,,,,,,,,,,,,,,,,,,,,,,,"29.92","61","79",,,,,"54",,"BKN:07 180","29.91","10.00","68","VRB",,"3",,,,,,,,,,,,,,,,,,,,,,,,,,,,,,,,,,,,,"MET07208/14/20 09:47:02 METAR KSQL 141747Z VRB03KT 10SM BKN180 26/16 A2992 RMK","FM-15","7",,,,,,,,,,,,,,,,,,,,,,,,,,,,
"72493893231","2020-08-14T10:47:00","FM-15","7",,,,,,,,,,,,,,,,,,,,,,,,,,,,,,,,,,,,,,"29.92","63","82",,,,,"51",,"BKN:07 180","29.91","10.00","70","040",,"6",,,,,,,,,,,,,,,,,,,,,,,,,,,,,,,,,,,,,"MET07208/14/20 10:47:02 METAR KSQL 141847Z 04005KT 10SM BKN180 28/17 A2992 RMK","FM-15","7",,,,,,,,,,,,,,,,,,,,,,,,,,,,
"72493893231","2020-08-14T11:47:00","FM-15","7",,,,,,,,,,,,,,,,,,,,,,,,,,,,,,,,,,,,,,"29.89","54","88",,,,,"31",,"BKN:07 200","29.88","10.00","67","VRB",,"3",,,,,,,,,,,,,,,,,,,,,,,,,,,,,,,,,,,,,"MET07208/14/20 11:47:02 METAR KSQL 141947Z VRB03KT 10SM BKN200 31/12 A2989 RMK","FM-15","7",,,,,,,,,,,,,,,,,,,,,,,,,,,,
"72493893231","2020-08-14T12:47:00","FM-15","7",,,,,,,,,,,,,,,,,,,,,,,,,,,,,,,,,,,,,,"29.88","50","95",,,,,"22",,"BKN:07 200","29.87","10.00","68","VRB",,"3",,,,,,,,,,,,,,,,,,,,,,,,,,,,,,,,,,,,,"MET07208/14/20 12:47:02 METAR KSQL 142047Z VRB03KT 10SM BKN200 35/10 A2988 RMK","FM-15","7",,,,,,,,,,,,,,,,,,,,,,,,,,,,
"72493893231","2020-08-14T13:47:00","FM-15","7",,,,,,,,,,,,,,,,,,,,,,,,,,,,,,,,,,,,,,"29.85","41","100",,,,,"13",,"FEW:02 200","29.84","10.00","66","330",,"11",,,,,,,,,,,,,,,,,,,,,,,,,,,,,,,,,,,,,"MET07208/14/20 13:47:02 METAR KSQL 142147Z 33010KT 10SM FEW200 38/05 A2985 RMK","FM-15","7",,,,,,,,,,,,,,,,,,,,,,,,,,,,
"72493893231","2020-08-14T14:47:00","FM-15","7",,,,,,,,,,,,,,,,,,,,,,,,,,,,,,,,,,,,,,"29.83","50","100",,,,,"18",,"*","29.82","10.00","69","300",,"10",,,,,,,,,,,,,,,,,,,,,,,,,,,,,,,,,,,,,"MET06908/14/20 14:47:02 METAR KSQL 142247Z 30009KT 10SM SKC 38/10 A2983 RMK","FM-15","7",,,,,,,,,,,,,,,,,,,,,,,,,,,,
"72493893231","2020-08-14T15:47:00","FM-15","7",,,,,,,,,,,,,,,,,,,,,,,,,,,,,,,,,,,,,,"29.82","48","100",,,,,"17",,"*","29.81","10.00","68","310",,"11",,,,,,,,,,,,,,,,,,,,,,,,,,,,,,,,,,,,,"MET06908/14/20 15:47:02 METAR KSQL 142347Z 31010KT 10SM SKC 38/09 A2982 RMK","FM-15","7",,,,,,,,,,,,,,,,,,,,,,,,,,,,
"72493893231","2020-08-14T16:47:00","FM-15","7",,,,,,,,,,,,,,,,,,,,,,,,,,,,,,,,,,,,,,"29.80","50","100",,,,,"18",,"*","29.79","10.00","69","290",,"13",,,,,,,,,,,,,,,,,,,,,,,,,,,,,,,,,,,,,"MET06908/14/20 16:47:01 METAR KSQL 150047Z 29011KT 10SM SKC 38/10 A2980 RMK","FM-15","7",,,,,,,,,,,,,,,,,,,,,,,,,,,,
"72493893231","2020-08-14T18:47:00","FM-15","7",,,,,,,,,,,,,,,,,,,,,,,,,,,,,,,,,,,,,,"29.80","50","93",,,,,"23",,"*","29.79","10.00","67","270",,"11",,,,,,,,,,,,,,,,,,,,,,,,,,,,,,,,,,,,,"MET06908/14/20 18:47:01 METAR KSQL 150247Z 27010KT 10SM SKC 34/10 A2980 RMK","FM-15","7",,,,,,,,,,,,,,,,,,,,,,,,,,,,
"72493893231","2020-08-14T19:47:00","FM-15","7",,,,,,,,,,,,,,,,,,,,,,,,,,,,,,,,,,,,,,"29.81","52","91",,,,,"26",,"*","29.80","10.00","67","270",,"11",,,,,,,,,,,,,,,,,,,,,,,,,,,,,,,,,,,,,"MET07408/14/20 19:47:01 METAR KSQL 150347Z 27010KT 10SM SKC 33/11 A2981 RMK LAST","FM-15","7",,,,,,,,,,,,,,,,,,,,,,,,,,,,
"72493893231","2020-08-14T20:15:00","FM-15","7",,,,,,,,,,,,,,,,,,,,,,,,,,,,,,,,,,,,,,"29.82","54","90",,,,,"29",,"CLR:00","29.81","10.00","68","320",,"5",,,,,,,,,,,,,,,,,,,,,,,,,,,,,,,,,,,,,"MET07308/14/20 20:15:01 METAR KSQL 150415Z 32004KT 10SM CLR 32/12 A2982 RMK AO2","FM-15","7",,,,,,,,,,,,,,,,,,,,,,,,,,,,
"72493893231","2020-08-14T20:35:00","FM-15","7",,,,,,,,,,,,,,,,,,,,,,,,,,,,,,,,,,,,,,"29.83","54","88",,,,,"31",,"CLR:00","29.82","10.00","67","320",,"5",,,,,,,,,,,,,,,,,,,,,,,,,,,,,,,,,,,,,"MET07308/14/20 20:35:01 METAR KSQL 150435Z 32004KT 10SM CLR 31/12 A2983 RMK AO2","FM-15","7",,,,,,,,,,,,,,,,,,,,,,,,,,,,
"72493893231","2020-08-14T20:55:00","FM-15","7",,,,,,,,,,,,,,,,,,,,,,,,,,,,,,,,,,,,,,"29.84","64","82",,,,,"55",,"CLR:00","29.83","10.00","70","010",,"5",,,,,,,,,,,,,,,,,,,,,,,,,,,,,,,,,,,,,"MET07308/14/20 20:55:01 METAR KSQL 150455Z 01004KT 10SM CLR 28/18 A2984 RMK AO2","FM-15","7",,,,,,,,,,,,,,,,,,,,,,,,,,,,
"72493893231","2020-08-14T21:15:00","FM-15","7",,,,,,,,,,,,,,,,,,,,,,,,,,,,,,,,,,,,,,"29.84","64","81",,,,,"58",,"CLR:00","29.83","10.00","70","000",,"0",,,,,,,,,,,,,,,,,,,,,,,,,,,,,,,,,,,,,"MET07308/14/20 21:15:01 METAR KSQL 150515Z 00000KT 10SM CLR 27/18 A2984 RMK AO2","FM-15","7",,,,,,,,,,,,,,,,,,,,,,,,,,,,
"72493893231","2020-08-14T21:35:00","FM-15","7",,,,,,,,,,,,,,,,,,,,,,,,,,,,,,,,,,,,,,"29.85","64","79",,,,,"61",,"CLR:00","29.84","10.00","69","000",,"0",,,,,,,,,,,,,,,,,,,,,,,,,,,,,,,,,,,,,"MET07308/14/20 21:35:01 METAR KSQL 150535Z 00000KT 10SM CLR 26/18 A2985 RMK AO2","FM-15","7",,,,,,,,,,,,,,,,,,,,,,,,,,,,
"72493893231","2020-08-14T21:55:00","FM-15","7",,,,,,,,,,,,,,,,,,,,,,,,,,,,,,,,,,,,,,"29.85","64","79",,,,,"61",,"CLR:00","29.84","10.00","69","000",,"0",,,,,,,,,,,,,,,,,,,,,,,,,,,,,,,,,,,,,"MET07308/14/20 21:55:01 METAR KSQL 150555Z 00000KT 10SM CLR 26/18 A2985 RMK AO2","FM-15","7",,,,,,,,,,,,,,,,,,,,,,,,,,,,
"72493893231","2020-08-14T22:15:00","FM-15","7",,,,,,,,,,,,,,,,,,,,,,,,,,,,,,,,,,,,,,"29.85","64","77",,,,,"65",,"CLR:00","29.84","10.00","69","000",,"0",,,,,,,,,,,,,,,,,,,,,,,,,,,,,,,,,,,,,"MET07308/14/20 22:15:01 METAR KSQL 150615Z 00000KT 10SM CLR 25/18 A2985 RMK AO2","FM-15","7",,,,,,,,,,,,,,,,,,,,,,,,,,,,
"72493893231","2020-08-14T22:35:00","FM-15","7",,,,,,,,,,,,,,,,,,,,,,,,,,,,,,,,,,,,,,"29.85","68","77",,,,,"74",,"CLR:00","29.84","10.00","71","000",,"0",,,,,,,,,,,,,,,,,,,,,,,,,,,,,,,,,,,,,"MET07308/14/20 22:35:01 METAR KSQL 150635Z 00000KT 10SM CLR 25/20 A2985 RMK AO2","FM-15","7",,,,,,,,,,,,,,,,,,,,,,,,,,,,
"72493893231","2020-08-14T22:55:00","FM-15","7",,,,,,,,,,,,,,,,,,,,,,,,,,,,,,,,,,,,,,"29.85","66","77",,,,,"69",,"CLR:00","29.84","10.00","70","000",,"0",,,,,,,,,,,,,,,,,,,,,,,,,,,,,,,,,,,,,"MET07308/14/20 22:55:01 METAR KSQL 150655Z 00000KT 10SM CLR 25/19 A2985 RMK AO2","FM-15","7",,,,,,,,,,,,,,,,,,,,,,,,,,,,
"72493893231","2020-08-14T23:15:00","FM-15","7",,,,,,,,,,,,,,,,,,,,,,,,,,,,,,,,,,,,,,"29.85","66","79",,,,,"65",,"CLR:00","29.84","10.00","71","000",,"0",,,,,,,,,,,,,,,,,,,,,,,,,,,,,,,,,,,,,"MET07308/14/20 23:15:02 METAR KSQL 150715Z 00000KT 10SM CLR 26/19 A2985 RMK AO2","FM-15","7",,,,,,,,,,,,,,,,,,,,,,,,,,,,
"72493893231","2020-08-14T23:35:00","FM-15","7",,,,,,,,,,,,,,,,,,,,,,,,,,,,,,,,,,,,,,"29.85","68","77",,,,,"74",,"CLR:00","29.84","10.00","71","000",,"0",,,,,,,,,,,,,,,,,,,,,,,,,,,,,,,,,,,,,"MET07308/14/20 23:35:02 METAR KSQL 150735Z 00000KT 10SM CLR 25/20 A2985 RMK AO2","FM-15","7",,,,,,,,,,,,,,,,,,,,,,,,,,,,
"72493893231","2020-08-14T23:55:00","FM-15","7",,,,,,,,,,,,,,,,,,,,,,,,,,,,,,,,,,,,,,"29.85","59","79",,,,,"51",,"CLR:00","29.84","10.00","67","000",,"0",,,,,,,,,,,,,,,,,,,,,,,,,,,,,,,,,,,,,"MET07308/14/20 23:55:02 METAR KSQL 150755Z 00000KT 10SM CLR 26/15 A2985 RMK AO2","FM-15","7",,,,,,,,,,,,,,,,,,,,,,,,,,,,
"72493893231","2020-08-15T00:15:00","FM-15","7",,,,,,,,,,,,,,,,,,,,,,,,,,,,,,,,,,,,,,"29.85","57","79",,,,,"48",,"CLR:00","29.84","10.00","66","000",,"0",,,,,,,,,,,,,,,,,,,,,,,,,,,,,,,,,,,,,"MET07308/15/20 00:15:02 METAR KSQL 150815Z 00000KT 10SM CLR 26/14 A2985 RMK AO2","FM-15","7",,,,,,,,,,,,,,,,,,,,,,,,,,,,
"72493893231","2020-08-15T00:35:00","FM-15","7",,,,,,,,,,,,,,,,,,,,,,,,,,,,,,,,,,,,,,"29.85","63","77",,,,,"61",,"CLR:00","29.84","10.00","68","310",,"3",,,,,,,,,,,,,,,,,,,,,,,,,,,,,,,,,,,,,"MET07308/15/20 00:35:02 METAR KSQL 150835Z 31003KT 10SM CLR 25/17 A2985 RMK AO2","FM-15","7",,,,,,,,,,,,,,,,,,,,,,,,,,,,
"72493893231","2020-08-15T00:55:00","FM-15","7",,,,,,,,,,,,,,,,,,,,,,,,,,,,,,,,,,,,,,"29.85","57","77",,,,,"51",,"CLR:00","29.84","10.00","65","310",,"5",,,,,,,,,,,,,,,,,,,,,,,,,,,,,,,,,,,,,"MET07308/15/20 00:55:02 METAR KSQL 150855Z 31004KT 10SM CLR 25/14 A2985 RMK AO2","FM-15","7",,,,,,,,,,,,,,,,,,,,,,,,,,,,
"72493893231","2020-08-15T01:15:00","FM-15","7",,,,,,,,,,,,,,,,,,,,,,,,,,,,,,,,,,,,,,"29.85","55","77",,,,,"47",,"CLR:00","29.84","10.00","64","320",,"5",,,,,,,,,,,,,,,,,,,,,,,,,,,,,,,,,,,,,"MET07308/15/20 01:15:02 METAR KSQL 150915Z 32004KT 10SM CLR 25/13 A2985 RMK AO2","FM-15","7",,,,,,,,,,,,,,,,,,,,,,,,,,,,
"72493893231","2020-08-15T01:35:00","FM-15","7",,,,,,,,,,,,,,,,,,,,,,,,,,,,,,,,,,,,,,"29.85","55","75",,,,,"50",,"CLR:00","29.84","10.00","63","340",,"3",,,,,,,,,,,,,,,,,,,,,,,,,,,,,,,,,,,,,"MET07308/15/20 01:35:02 METAR KSQL 150935Z 34003KT 10SM CLR 24/13 A2985 RMK AO2","FM-15","7",,,,,,,,,,,,,,,,,,,,,,,,,,,,
"72493893231","2020-08-15T01:55:00","FM-15","7",,,,,,,,,,,,,,,,,,,,,,,,,,,,,,,,,,,,,,"29.85","57","75",,,,,"54",,"CLR:00","29.84","10.00","64","360",,"3",,,,,,,,,,,,,,,,,,,,,,,,,,,,,,,,,,,,,"MET07308/15/20 01:55:02 METAR KSQL 150955Z 36003KT 10SM CLR 24/14 A2985 RMK AO2","FM-15","7",,,,,,,,,,,,,,,,,,,,,,,,,,,,
"72493893231","2020-08-15T02:15:00","FM-15","7",,,,,,,,,,,,,,,,,,,,,,,,,,,,,,,,,,,,,,"29.85","59","75",,,,,"57",,"CLR:00","29.84","10.00","65","360",,"3",,,,,,,,,,,,,,,,,,,,,,,,,,,,,,,,,,,,,"MET07308/15/20 02:15:02 METAR KSQL 151015Z 36003KT 10SM CLR 24/15 A2985 RMK AO2","FM-15","7",,,,,,,,,,,,,,,,,,,,,,,,,,,,
"72493893231","2020-08-15T02:35:00","FM-15","7",,,,,,,,,,,,,,,,,,,,,,,,,,,,,,,,,,,,,,"29.85","61","73",,,,,"65",,"CLR:00","29.84","10.00","66","360",,"3",,,,,,,,,,,,,,,,,,,,,,,,,,,,,,,,,,,,,"MET07308/15/20 02:35:02 METAR KSQL 151035Z 36003KT 10SM CLR 23/16 A2985 RMK AO2","FM-15","7",,,,,,,,,,,,,,,,,,,,,,,,,,,,
"72493893231","2020-08-15T02:55:00","FM-15","7",,,,,,,,,,,,,,,,,,,,,,,,,,,,,,,,,,,,,,"29.85","63","72",,,,,"73",,"CLR:00","29.84","10.00","66","010",,"5",,,,,,,,,,,,,,,,,,,,,,,,,,,,,,,,,,,,,"MET07308/15/20 02:55:02 METAR KSQL 151055Z 01004KT 10SM CLR 22/17 A2985 RMK AO2","FM-15","7",,,,,,,,,,,,,,,,,,,,,,,,,,,,
"72493893231","2020-08-15T03:15:00","FM-15","7",,,,,,,,,,,,,,,,,,,,,,,,,,,,,,,,,,,,,,"29.85","63","72",,,,,"73",,"CLR:00","29.84","10.00","66","350",,"3",,,,,,,,,,,,,,,,,,,,,,,,,,,,,,,,,,,,,"MET07308/15/20 03:15:02 METAR KSQL 151115Z 35003KT 10SM CLR 22/17 A2985 RMK AO2","FM-15","7",,,,,,,,,,,,,,,,,,,,,,,,,,,,
"72493893231","2020-08-15T03:35:00","FM-15","7",,,,,,,,,,,,,,,,,,,,,,,,,,,,,,,,,,,,,,"29.85","63","72",,,,,"73",,"CLR:00","29.84","10.00","66","310",,"6",,,,,,,,,,,,,,,,,,,,,,,,,,,,,,,,,,,,,"MET07308/15/20 03:35:02 METAR KSQL 151135Z 31005KT 10SM CLR 22/17 A2985 RMK AO2","FM-15","7",,,,,,,,,,,,,,,,,,,,,,,,,,,,
"72493893231","2020-08-15T03:55:00","FM-15","7",,,,,,,,,,,,,,,,,,,,,,,,,,,,,,,,,,,,,,"29.86","61","72",,,,,"69",,"CLR:00","29.85","10.00","65","310",,"3",,,,,,,,,,,,,,,,,,,,,,,,,,,,,,,,,,,,,"MET07308/15/20 03:55:02 METAR KSQL 151155Z 31003KT 10SM CLR 22/16 A2986 RMK AO2","FM-15","7",,,,,,,,,,,,,,,,,,,,,,,,,,,,
"72493893231","2020-08-15T04:15:00","FM-15","7",,,,,,,,,,,,,,,,,,,,,,,,,,,,,,,,,,,,,,"29.86","59","72",,,,,"65",,"CLR:00","29.85","10.00","64","310",,"3",,,,,,,,,,,,,,,,,,,,,,,,,,,,,,,,,,,,,"MET07308/15/20 04:15:02 METAR KSQL 151215Z 31003KT 10SM CLR 22/15 A2986 RMK AO2","FM-15","7",,,,,,,,,,,,,,,,,,,,,,,,,,,,
"72493893231","2020-08-15T04:35:00","FM-15","7",,,,,,,,,,,,,,,,,,,,,,,,,,,,,,,,,,,,,,"29.87","59","72",,,,,"65",,"CLR:00","29.86","10.00","64","310",,"3",,,,,,,,,,,,,,,,,,,,,,,,,,,,,,,,,,,,,"MET07308/15/20 04:35:02 METAR KSQL 151235Z 31003KT 10SM CLR 22/15 A2987 RMK AO2","FM-15","7",,,,,,,,,,,,,,,,,,,,,,,,,,,,
"72493893231","2020-08-15T04:55:00","FM-15","7",,,,,,,,,,,,,,,,,,,,,,,,,,,,,,,,,,,,,,"29.87","59","70",,,,,"69",,"CLR:00","29.86","10.00","63","360",,"5",,,,,,,,,,,,,,,,,,,,,,,,,,,,,,,,,,,,,"MET07308/15/20 04:55:02 METAR KSQL 151255Z 36004KT 10SM CLR 21/15 A2987 RMK AO2","FM-15","7",,,,,,,,,,,,,,,,,,,,,,,,,,,,
"72493893231","2020-08-15T05:15:00","FM-15","7",,,,,,,,,,,,,,,,,,,,,,,,,,,,,,,,,,,,,,"29.88","59","68",,,,,"73",,"CLR:00","29.87","10.00","63","000",,"0",,,,,,,,,,,,,,,,,,,,,,,,,,,,,,,,,,,,,"MET07308/15/20 05:15:02 METAR KSQL 151315Z 00000KT 10SM CLR 20/15 A2988 RMK AO2","FM-15","7",,,,,,,,,,,,,,,,,,,,,,,,,,,,
"72493893231","2020-08-15T05:35:00","FM-15","7",,,,,,,,,,,,,,,,,,,,,,,,,,,,,,,,,,,,,,"29.89","59","68",,,,,"73",,"CLR:00","29.88","10.00","63","000",,"0",,,,,,,,,,,,,,,,,,,,,,,,,,,,,,,,,,,,,"MET07308/15/20 05:35:02 METAR KSQL 151335Z 00000KT 10SM CLR 20/15 A2989 RMK AO2","FM-15","7",,,,,,,,,,,,,,,,,,,,,,,,,,,,
"72493893231","2020-08-15T05:47:00","FM-15","4",,,,,,,,,,,,,,,,,,,,,,,,,,,,,,,,,,,,,,"29.89","59","68",,,,,"73",,,,"10.00",,"000",,"0",,,,,,,,,,,,,,,,,,,,,,,,,,,,,,,,,,,,,"MET048METAR KSQL 151347Z 00000KT 10SM SKC 20/15 A2989=","FM-15","4",,,,,,,,,,,,,,,,,,,,,,,,,,,,
"72493893231","2020-08-15T05:55:00","FM-15","7",,,,,,,,,,,,,,,,,,,,,,,,,,,,,,,,,,,,,,"29.89","59","70",,,,,"69",,"CLR:00","29.88","10.00","63","000",,"0",,,,,,,,,,,,,,,,,,,,,,,,,,,,,,,,,,,,,"MET07308/15/20 05:55:02 METAR KSQL 151355Z 00000KT 10SM CLR 21/15 A2989 RMK AO2","FM-15","7",,,,,,,,,,,,,,,,,,,,,,,,,,,,
"72493893231","2020-08-15T06:47:00","FM-15","7",,,,,,,,,,,,,,,,,,,,,,,,,,,,,,,,,,,,,,"29.90","57","73",,,,,"57",,"*","29.89","10.00","63","000",,"0",,,,,,,,,,,,,,,,,,,,,,,,,,,,,,,,,,,,,"MET06908/15/20 06:47:02 METAR KSQL 151447Z 00000KT 10SM SKC 23/14 A2990 RMK","FM-15","7",,,,,,,,,,,,,,,,,,,,,,,,,,,,
"72493893231","2020-08-15T07:47:00","FM-15","7",,,,,,,,,,,,,,,,,,,,,,,,,,,,,,,,,,,,,,"29.91","63","73",,,,,"69",,"*","29.90","10.00","67","VRB",,"5",,,,,,,,,,,,,,,,,,,,,,,,,,,,,,,,,,,,,"MET06908/15/20 07:47:02 METAR KSQL 151547Z VRB04KT 10SM SKC 23/17 A2991 RMK","FM-15","7",,,,,,,,,,,,,,,,,,,,,,,,,,,,
"72493893231","2020-08-15T08:47:00","FM-15","7",,,,,,,,,,,,,,,,,,,,,,,,,,,,,,,,,,,,,,"29.91","64","77",,,,,"65",,"*","29.90","10.00","69","VRB",,"5",,,,,,,,,,,,,,,,,,,,,,,,,,,,,,,,,,,,,"MET06908/15/20 08:47:02 METAR KSQL 151647Z VRB04KT 10SM SKC 25/18 A2991 RMK","FM-15","7",,,,,,,,,,,,,,,,,,,,,,,,,,,,
"72493893231","2020-08-15T09:47:00","FM-15","7",,,,,,,,,,,,,,,,,,,,,,,,,,,,,,,,,,,,,,"29.91","64","81",,,,,"58",,"*","29.90","10.00","70","000",,"0",,,,,,,,,,,,,,,,,,,,,,,,,,,,,,,,,,,,,"MET06908/15/20 09:47:02 METAR KSQL 151747Z 00000KT 10SM SKC 27/18 A2991 RMK","FM-15","7",,,,,,,,,,,,,,,,,,,,,,,,,,,,
"72493893231","2020-08-15T10:47:00","FM-15","7",,,,,,,,,,,,,,,,,,,,,,,,,,,,,,,,,,,,,,"29.91","55","82",,,,,"40",,"*","29.90","10.00","66","020",,"7",,,,,,,,,,,,,,,,,,,,,,,,,,,,,,,,,,,,,"MET06908/15/20 10:47:02 METAR KSQL 151847Z 02006KT 10SM SKC 28/13 A2991 RMK","FM-15","7",,,,,,,,,,,,,,,,,,,,,,,,,,,,
"72493893231","2020-08-15T11:47:00","FM-15","7",,,,,,,,,,,,,,,,,,,,,,,,,,,,,,,,,,,,,,"29.90","57","86",,,,,"38",,"*","29.89","10.00","68","010",,"8",,,,,,,,,,,,,,,,,,,,,,,,,,,,,,,,,,,,,"MET06908/15/20 11:47:02 METAR KSQL 151947Z 01007KT 10SM SKC 30/14 A2990 RMK","FM-15","7",,,,,,,,,,,,,,,,,,,,,,,,,,,,
"72493893231","2020-08-15T12:47:00","FM-15","6",,,,,,,,,,,,,,,,,,,,,,,,,,,,,,,,,,,,,,"29.88","46","93",,,,,"20",,"*","29.87","10.00","65","330",,"10",,,,,,,,,,,,,,,,,,,,,,,,,,,,,,,,,,,,,"MET06908/15/20 12:47:02 METAR KSQL 152047Z 33009KT 10SM SKC 34/08 A2988 RMK","FM-15","6",,,,,,,,,,,,,,,,,,,,,,,,,,,,
"72493893231","2020-08-15T13:47:00","FM-15","7",,,,,,,,,,,,,,,,,,,,,,,,,,,,,,,,,,,,,,"29.97","50","93",,,,,"23",,"*","29.96","10.00","67","330",,"10",,,,,,,,,,,,,,,,,,,,,,,,,,,,,,,,,,,,,"MET06908/15/20 13:47:02 METAR KSQL 152147Z 33009KT 10SM SKC 34/10 A2997 RMK","FM-15","7",,,,,,,,,,,,,,,,,,,,,,,,,,,,
"72493893231","2020-08-15T14:47:00","FM-15","7",,,,,,,,,,,,,,,,,,,,,,,,,,,,,,,,,,,,,,"29.83","48","97",,,,,"19",,"*","29.82","10.00","67","320",,"11",,,,,,,,,,,,,,,,,,,,,,,,,,,,,,,,,,,,,"MET06908/15/20 14:47:02 METAR KSQL 152247Z 32010KT 10SM SKC 36/09 A2983 RMK","FM-15","7",,,,,,,,,,,,,,,,,,,,,,,,,,,,
"72493893231","2020-08-15T15:47:00","FM-15","7",,,,,,,,,,,,,,,,,,,,,,,,,,,,,,,,,,,,,,"29.82","50","95",,,,,"22",,"*","29.81","10.00","68","320",,"9",,,,,,,,,,,,,,,,,,,,,,,,,,,,,,,,,,,,,"MET06908/15/20 15:47:02 METAR KSQL 152347Z 32008KT 10SM SKC 35/10 A2982 RMK","FM-15","7",,,,,,,,,,,,,,,,,,,,,,,,,,,,
"72493893231","2020-08-15T16:47:00","FM-15","7",,,,,,,,,,,,,,,,,,,,,,,,,,,,,,,,,,,,,,"29.81","50","95",,,,,"22",,"*","29.80","10.00","68","320",,"9",,,,,,,,,,,,,,,,,,,,,,,,,,,,,,,,,,,,,"MET06908/15/20 16:47:01 METAR KSQL 160047Z 32008KT 10SM SKC 35/10 A2981 RMK","FM-15","7",,,,,,,,,,,,,,,,,,,,,,,,,,,,
"72493893231","2020-08-15T17:55:00","FM-15","7",,,,,,,,,,,,,,,,,,,,,,,,,,,,,,,,,,,,,,"29.81","52","90",,,,,"27",,"SCT:04 180","29.80","10.00","67","320",,"10",,,,,,,,,,,,,,,,,,,,,,,,,,,,,,,,,,,,,"MET07208/15/20 17:55:01 METAR KSQL 160155Z 32009KT 10SM SCT180 32/11 A2981 RMK","FM-15","7",,,,,,,,,,,,,,,,,,,,,,,,,,,,
"72493893231","2020-08-15T18:58:00","FM-15","7",,,,,,,,,,,,,,,,,,,,,,,,,,,,,,,,,,,,,,"29.83","50","84",,,,,"31",,"SCT:04 180","29.82","10.00","64","290",,"8",,,,,,,,,,,,,,,,,,,,,,,,,,,,,,,,,,,,,"MET07208/15/20 18:58:01 METAR KSQL 160258Z 29007KT 10SM SCT180 29/10 A2983 RMK","FM-15","7",,,,,,,,,,,,,,,,,,,,,,,,,,,,
"72493893231","2020-08-15T19:58:00","FM-15","7",,,,,,,,,,,,,,,,,,,,,,,,,,,,,,,,,,,,,,"29.85","48","84",,,,,"29",,"SCT:04 180","29.84","10.00","63","310",,"3",,,,,,,,,,,,,,,,,,,,,,,,,,,,,,,,,,,,,"MET07708/15/20 19:58:01 METAR KSQL 160358Z 31003KT 10SM SCT180 29/09 A2985 RMK LAST","FM-15","7",,,,,,,,,,,,,,,,,,,,,,,,,,,,
"72493893231","2020-08-15T20:15:00","FM-15","7",,,,,,,,,,,,,,,,,,,,,,,,,,,,,,,,,,,,,,"29.85","48","84",,,,,"29",,"CLR:00","29.84","10.00","63","320",,"3",,,,,,,,,,,,,,,,,,,,,,,,,,,,,,,,,,,,,"MET07308/15/20 20:15:01 METAR KSQL 160415Z 32003KT 10SM CLR 29/09 A2985 RMK AO2","FM-15","7",,,,,,,,,,,,,,,,,,,,,,,,,,,,
"72493893231","2020-08-15T20:35:00","FM-15","7",,,,,,,,,,,,,,,,,,,,,,,,,,,,,,,,,,,,,,"29.86","52","84",,,,,"33",,"CLR:00","29.85","10.00","65","070",,"3",,,,,,,,,,,,,,,,,,,,,,,,,,,,,,,,,,,,,"MET07308/15/20 20:35:01 METAR KSQL 160435Z 07003KT 10SM CLR 29/11 A2986 RMK AO2","FM-15","7",,,,,,,,,,,,,,,,,,,,,,,,,,,,
"72493893231","2020-08-15T20:55:00","FM-15","7",,,,,,,,,,,,,,,,,,,,,,,,,,,,,,,,,,,,,,"29.86","63","77",,,,,"61",,"CLR:00","29.85","10.00","68","080",,"5",,,,,,,,,,,,,,,,,,,,,,,,,,,,,,,,,,,,,"MET07308/15/20 20:55:01 METAR KSQL 160455Z 08004KT 10SM CLR 25/17 A2986 RMK AO2","FM-15","7",,,,,,,,,,,,,,,,,,,,,,,,,,,,
"72493893231","2020-08-15T21:15:00","FM-15","7",,,,,,,,,,,,,,,,,,,,,,,,,,,,,,,,,,,,,,"29.86","61","77",,,,,"57",,"CLR:00","29.85","10.00","67","030",,"5",,,,,,,,,,,,,,,,,,,,,,,,,,,,,,,,,,,,,"MET07308/15/20 21:15:01 METAR KSQL 160515Z 03004KT 10SM CLR 25/16 A2986 RMK AO2","FM-15","7",,,,,,,,,,,,,,,,,,,,,,,,,,,,
"72493893231","2020-08-15T21:35:00","FM-15","7",,,,,,,,,,,,,,,,,,,,,,,,,,,,,,,,,,,,,,"29.86","55","77",,,,,"47",,"CLR:00","29.85","10.00","64","300",,"3",,,,,,,,,,,,,,,,,,,,,,,,,,,,,,,,,,,,,"MET07308/15/20 21:35:01 METAR KSQL 160535Z 30003KT 10SM CLR 25/13 A2986 RMK AO2","FM-15","7",,,,,,,,,,,,,,,,,,,,,,,,,,,,
"72493893231","2020-08-15T21:55:00","FM-15","7",,,,,,,,,,,,,,,,,,,,,,,,,,,,,,,,,,,,,,"29.85","55","79",,,,,"45",,"CLR:00","29.84","10.00","65","290",,"3",,,,,,,,,,,,,,,,,,,,,,,,,,,,,,,,,,,,,"MET07308/15/20 21:55:01 METAR KSQL 160555Z 29003KT 10SM CLR 26/13 A2985 RMK AO2","FM-15","7",,,,,,,,,,,,,,,,,,,,,,,,,,,,
"72493893231","2020-08-15T22:15:00","FM-15","7",,,,,,,,,,,,,,,,,,,,,,,,,,,,,,,,,,,,,,"29.85","54","81",,,,,"39",,"CLR:00","29.84","10.00","65","000",,"0",,,,,,,,,,,,,,,,,,,,,,,,,,,,,,,,,,,,,"MET07308/15/20 22:15:01 METAR KSQL 160615Z 00000KT 10SM CLR 27/12 A2985 RMK AO2","FM-15","7",,,,,,,,,,,,,,,,,,,,,,,,,,,,
"72493893231","2020-08-15T22:35:00","FM-15","7",,,,,,,,,,,,,,,,,,,,,,,,,,,,,,,,,,,,,,"29.85","64","77",,,,,"65",,"CLR:00","29.84","10.00","69","070",,"6",,,,,,,,,,,,,,,,,,,,,,,,,,,,,,,,,,,,,"MET07308/15/20 22:35:01 METAR KSQL 160635Z 07005KT 10SM CLR 25/18 A2985 RMK AO2","FM-15","7",,,,,,,,,,,,,,,,,,,,,,,,,,,,
"72493893231","2020-08-15T22:55:00","FM-15","7",,,,,,,,,,,,,,,,,,,,,,,,,,,,,,,,,,,,,,"29.86","66","75",,,,,"74",,"CLR:00","29.85","10.00","69","050",,"7",,,,,,,,,,,,,,,,,,,,,,,,,,,,,,,,,,,,,"MET07308/15/20 22:55:01 METAR KSQL 160655Z 05006KT 10SM CLR 24/19 A2986 RMK AO2","FM-15","7",,,,,,,,,,,,,,,,,,,,,,,,,,,,
"72493893231","2020-08-15T23:15:00","FM-15","7",,,,,,,,,,,,,,,,,,,,,,,,,,,,,,,,,,,,,,"29.86","66","75",,,,,"74",,"CLR:00","29.85","10.00","69","000",,"0",,,,,,,,,,,,,,,,,,,,,,,,,,,,,,,,,,,,,"MET07308/15/20 23:15:02 METAR KSQL 160715Z 00000KT 10SM CLR 24/19 A2986 RMK AO2","FM-15","7",,,,,,,,,,,,,,,,,,,,,,,,,,,,
"72493893231","2020-08-15T23:35:00","FM-15","7",,,,,,,,,,,,,,,,,,,,,,,,,,,,,,,,,,,,,,"29.85","64","75",,,,,"69",,"CLR:00","29.84","10.00","68","000",,"0",,,,,,,,,,,,,,,,,,,,,,,,,,,,,,,,,,,,,"MET07308/15/20 23:35:02 METAR KSQL 160735Z 00000KT 10SM CLR 24/18 A2985 RMK AO2","FM-15","7",,,,,,,,,,,,,,,,,,,,,,,,,,,,
"72493893231","2020-08-15T23:55:00","FM-15","7",,,,,,,,,,,,,,,,,,,,,,,,,,,,,,,,,,,,,,"29.85","61","75",,,,,"61",,"CLR:00","29.84","10.00","66","310",,"6",,,,,,,,,,,,,,,,,,,,,,,,,,,,,,,,,,,,,"MET07308/15/20 23:55:02 METAR KSQL 160755Z 31005KT 10SM CLR 24/16 A2985 RMK AO2","FM-15","7",,,,,,,,,,,,,,,,,,,,,,,,,,,,
"72493893231","2020-08-16T00:15:00","FM-15","7",,,,,,,,,,,,,,,,,,,,,,,,,,,,,,,,,,,,,,"29.85","57","75",,,,,"54",,"CLR:00","29.84","10.00","64","330",,"3",,,,,,,,,,,,,,,,,,,,,,,,,,,,,,,,,,,,,"MET07308/16/20 00:15:02 METAR KSQL 160815Z 33003KT 10SM CLR 24/14 A2985 RMK AO2","FM-15","7",,,,,,,,,,,,,,,,,,,,,,,,,,,,
"72493893231","2020-08-16T00:35:00","FM-15","7",,,,,,,,,,,,,,,,,,,,,,,,,,,,,,,,,,,,,,"29.84","57","75",,,,,"54",,"CLR:00","29.83","10.00","64","340",,"3",,,,,,,,,,,,,,,,,,,,,,,,,,,,,,,,,,,,,"MET07308/16/20 00:35:02 METAR KSQL 160835Z 34003KT 10SM CLR 24/14 A2984 RMK AO2","FM-15","7",,,,,,,,,,,,,,,,,,,,,,,,,,,,
"72493893231","2020-08-16T00:55:00","FM-15","7",,,,,,,,,,,,,,,,,,,,,,,,,,,,,,,,,,,,,,"29.83","59","73",,,,,"61",,"CLR:00","29.82","10.00","64","360",,"5",,,,,,,,,,,,,,,,,,,,,,,,,,,,,,,,,,,,,"MET07308/16/20 00:55:02 METAR KSQL 160855Z 36004KT 10SM CLR 23/15 A2983 RMK AO2","FM-15","7",,,,,,,,,,,,,,,,,,,,,,,,,,,,
"72493893231","2020-08-16T01:15:00","FM-15","7",,,,,,,,,,,,,,,,,,,,,,,,,,,,,,,,,,,,,,"29.83","57","75",,,,,"54",,"CLR:00","29.82","10.00","64","000",,"0",,,,,,,,,,,,,,,,,,,,,,,,,,,,,,,,,,,,,"MET07308/16/20 01:15:02 METAR KSQL 160915Z 00000KT 10SM CLR 24/14 A2983 RMK AO2","FM-15","7",,,,,,,,,,,,,,,,,,,,,,,,,,,,
"72493893231","2020-08-16T01:35:00","FM-15","7",,,,,,,,,,,,,,,,,,,,,,,,,,,,,,,,,,,,,,"29.84","57","75",,,,,"54",,"CLR:00","29.83","10.00","64","000",,"0",,,,,,,,,,,,,,,,,,,,,,,,,,,,,,,,,,,,,"MET07308/16/20 01:35:02 METAR KSQL 160935Z 00000KT 10SM CLR 24/14 A2984 RMK AO2","FM-15","7",,,,,,,,,,,,,,,,,,,,,,,,,,,,
"72493893231","2020-08-16T01:55:00","FM-15","7",,,,,,,,,,,,,,,,,,,,,,,,,,,,,,,,,,,,,,"29.84","57","75",,,,,"54",,"CLR:00","29.83","10.00","64","000",,"0",,,,,,,,,,,,,,,,,,,,,,,,,,,,,,,,,,,,,"MET07308/16/20 01:55:02 METAR KSQL 160955Z 00000KT 10SM CLR 24/14 A2984 RMK AO2","FM-15","7",,,,,,,,,,,,,,,,,,,,,,,,,,,,
"72493893231","2020-08-16T02:15:00","FM-15","7",,,,,,,,,,,,,,,,,,,,,,,,,,,,,,,,,,,,,,"29.86","63","75",,,,,"65",,"CLR:00","29.85","10.00","67","140",,"6",,,,,,,,,,,,,,,,,,,,,,,,,,,,,,,,,,,,,"MET07308/16/20 02:15:02 METAR KSQL 161015Z 14005KT 10SM CLR 24/17 A2986 RMK AO2","FM-15","7",,,,,,,,,,,,,,,,,,,,,,,,,,,,
"72493893231","2020-08-16T02:35:00","FM-15","7",,,,,,,,,,,,,,,,,,,,,,,,,,,,,,,,,,,,,,"29.92","57","81",,"-RA:02 |RA |RA",,,"45",,"CLR:00","29.91","10.00","66","200",,"6",,,,,,,,,,,,,,,,,,,,,,,,,,,,,,,,,,,,,"MET07708/16/20 02:35:02 METAR KSQL 161035Z 20005KT 10SM -RA CLR 27/14 A2992 RMK AO2","FM-15","7",,,,,,,,,,,,,,,,,,,,,,,,,,,,
"72493893231","2020-08-16T02:55:00","FM-15","7",,,,,,,,,,,,,,,,,,,,,,,,,,,,,,,,,,,,,,"29.90","57","82",,,,,"42",,"FEW:02 50 SCT:04 60 BKN:07 80","29.89","10.00","67","250","21","11",,,,,,,,,,,,,,,,,,,,,,,,,,,,,,,,,,,,,"MET09308/16/20 02:55:02 METAR KSQL 161055Z 25010G18KT 10SM FEW050 SCT060 BKN080 28/14 A2990 RMK AO2","FM-15","7",,,,,,,,,,,,,,,,,,,,,,,,,,,,
"72493893231","2020-08-16T03:15:00","FM-15","7",,,,,,,,,,,,,,,,,,,,,,,,,,,,,,,,,,,,,,"29.88","61","79",,"-RA:02 |RA |RA",,,"54",,"SCT:04 60 BKN:07 80 BKN:07 110","29.87","10.00","68","010",,"3",,,,,,,,,,,,,,,,,,,,,,,,,,,,,,,,,,,,,"MET09408/16/20 03:15:02 METAR KSQL 161115Z 01003KT 10SM -RA SCT060 BKN080 BKN110 26/16 A2988 RMK AO2","FM-15","7",,,,,,,,,,,,,,,,,,,,,,,,,,,,
"72493893231","2020-08-16T03:35:00","FM-15","7",,,,,,,,,,,,,,,,,,,,,,,,,,,,,,,,,,,,,,"29.85","61","75",,"-RA:02 |RA |RA",,,"61",,"FEW:02 50 SCT:04 70 BKN:07 85","29.84","10.00","66","020",,"18",,,,,,,,,,,,,,,,,,,,,,,,,,,,,,,,,,,,,"MET09408/16/20 03:35:02 METAR KSQL 161135Z 02016KT 10SM -RA FEW050 SCT070 BKN085 24/16 A2985 RMK AO2","FM-15","7",,,,,,,,,,,,,,,,,,,,,,,,,,,,
"72493893231","2020-08-16T03:55:00","FM-15","7",,,,,,,,,,,,,,,,,,,,,,,,,,,,,,,,,,,,,,"29.83","63","73",,,,,"69",,"FEW:02 3 FEW:02 48 FEW:02 100","29.82","10.00","67","010",,"9",,,,,,,,,,,,,,,,,,,,,,,,,,,,,,,,,,,,,"MET09008/16/20 03:55:02 METAR KSQL 161155Z 01008KT 10SM FEW003 FEW048 FEW100 23/17 A2983 RMK AO2","FM-15","7",,,,,,,,,,,,,,,,,,,,,,,,,,,,
"72493893231","2020-08-16T04:15:00","FM-15","7",,,,,,,,,,,,,,,,,,,,,,,,,,,,,,,,,,,,,,"29.84","61","75",,,,,"61",,"CLR:00","29.83","10.00","66","280",,"6",,,,,,,,,,,,,,,,,,,,,,,,,,,,,,,,,,,,,"MET07308/16/20 04:15:02 METAR KSQL 161215Z 28005KT 10SM CLR 24/16 A2984 RMK AO2","FM-15","7",,,,,,,,,,,,,,,,,,,,,,,,,,,,
"72493893231","2020-08-16T04:35:00","FM-15","7",,,,,,,,,,,,,,,,,,,,,,,,,,,,,,,,,,,,,,"29.85","61","75",,,,,"61",,"FEW:02 80 SCT:04 110","29.84","10.00","66","200",,"9",,,,,,,,,,,,,,,,,,,,,,,,,,,,,,,,,,,,,"MET08308/16/20 04:35:02 METAR KSQL 161235Z 20008KT 10SM FEW080 SCT110 24/16 A2985 RMK AO2","FM-15","7",,,,,,,,,,,,,,,,,,,,,,,,,,,,
"72493893231","2020-08-16T04:55:00","FM-15","7",,,,,,,,,,,,,,,,,,,,,,,,,,,,,,,,,,,,,,"29.85","63","75",,"-RA:02 |RA |RA",,,"65",,"FEW:02 43 SCT:04 65 BKN:07 90","29.84","10.00","67","000",,"0",,,,,,,,,,,,,,,,,,,,,,,,,,,,,,,,,,,,,"MET09408/16/20 04:55:02 METAR KSQL 161255Z 00000KT 10SM -RA FEW043 SCT065 BKN090 24/17 A2985 RMK AO2","FM-15","7",,,,,,,,,,,,,,,,,,,,,,,,,,,,
"72493893231","2020-08-16T05:15:00","FM-15","7",,,,,,,,,,,,,,,,,,,,,,,,,,,,,,,,,,,,,,"29.83","63","73","0.02","-RA:02 |RA |RA",,,"69",,"FEW:02 30 SCT:04 43 BKN:07 65","29.82","8.00","67","290","21","8",,,,,,,,,,,,,,,,,,,,,,,,,,,,,,,,,,,,,"MET10208/16/20 05:15:02 METAR KSQL 161315Z 29007G18KT 8SM -RA FEW030 SCT043 BKN065 23/17 A2983 RMK AO2 P0002","FM-15","7",,,,,,,,,,,,,,,,,,,,,,,,,,,,
"72493893231","2020-08-16T05:35:00","FM-15","7",,,,,,,,,,,,,,,,,,,,,,,,,,,,,,,,,,,,,,"29.84","63","75","0.02",,,,"65",,"FEW:02 36 SCT:04 60 BKN:07 95","29.83","10.00","67","330",,"8",,,,,,,,,,,,,,,,,,,,,,,,,,,,,,,,,,,,,"MET09608/16/20 05:35:02 METAR KSQL 161335Z 33007KT 10SM FEW036 SCT060 BKN095 24/17 A2984 RMK AO2 P0002","FM-15","7",,,,,,,,,,,,,,,,,,,,,,,,,,,,
"72493893231","2020-08-16T05:55:00","FM-15","7",,,,,,,,,,,,,,,,,,,,,,,,,,,,,,,,,,,,,,"29.86","64","73","0.02",,,,"74",,"FEW:02 55 FEW:02 100","29.85","10.00","67","VRB",,"10",,,,,,,,,,,,,,,,,,,,,,,,,,,,,,,,,,,,,"MET08908/16/20 05:55:02 METAR KSQL 161355Z 06009KT 10SM FEW055 FEW100 23/18 A2986 RMK AO2 P0002","FM-15","7",,,,,,,,,,,,,,,,,,,,,,,,,,,,
"72493893231","2020-08-16T06:00:00","FM-15","4",,,,,,,,,,,,,,,,,,,,,,,,,,,,,,,,,,,,,,"29.85","63","75",,,,,"65",,,,"10.00",,"030",,"10",,,,,,,,,,,,,,,,,,,,,,,,,,,,,,,,,,,,,"MET065METAR KSQL 161400Z 03009KT 10SM FEW035 SCT080 BKN100 24/17 A2985=","FM-15","4",,,,,,,,,,,,,,,,,,,,,,,,,,,,
"72493893231","2020-08-16T06:47:00","FM-15","7",,,,,,,,,,,,,,,,,,,,,,,,,,,,,,,,,,,,,,"29.85","66","73",,"* ||",,,"78",,"FEW:02 4 BKN:07 45 BKN:07 70","29.84","10.00","69","VRB",,"3",,,,,,,,,,,,,,,,,,,,,,,,,,,,,,,,,,,,,"MET09208/16/20 06:47:02 METAR KSQL 161447Z VRB03KT 10SM -TRSA FEW004 BKN045 BKN070 23/19 A2985 RMK","FM-15","7",,,,,,,,,,,,,,,,,,,,,,,,,,,,
"72493893231","2020-08-16T07:47:00","FM-15","7",,,,,,,,,,,,,,,,,,,,,,,,,,,,,,,,,,,,,,"29.88","68","73",,,,,"83",,"BKN:07 45","29.87","10.00","70","000",,"0",,,,,,,,,,,,,,,,,,,,,,,,,,,,,,,,,,,,,"MET07208/16/20 07:47:02 METAR KSQL 161547Z 00000KT 10SM BKN045 23/20 A2988 RMK","FM-15","7",,,,,,,,,,,,,,,,,,,,,,,,,,,,
"72493893231","2020-08-16T08:47:00","FM-15","7",,,,,,,,,,,,,,,,,,,,,,,,,,,,,,,,,,,,,,"29.91","66","73",,,,,"78",,"BKN:07 110","29.90","10.00","69","290",,"8",,,,,,,,,,,,,,,,,,,,,,,,,,,,,,,,,,,,,"MET07208/16/20 08:47:02 METAR KSQL 161647Z 29007KT 10SM BKN110 23/19 A2991 RMK","FM-15","7",,,,,,,,,,,,,,,,,,,,,,,,,,,,
"72493893231","2020-08-16T09:47:00","FM-15","7",,,,,,,,,,,,,,,,,,,,,,,,,,,,,,,,,,,,,,"29.92","66","77",,,,,"69",,"SCT:04 110","29.91","10.00","70","VRB",,"5",,,,,,,,,,,,,,,,,,,,,,,,,,,,,,,,,,,,,"MET07208/16/20 09:47:02 METAR KSQL 161747Z VRB04KT 10SM SCT110 25/19 A2992 RMK","FM-15","7",,,,,,,,,,,,,,,,,,,,,,,,,,,,
"72493893231","2020-08-16T10:47:00","FM-15","7",,,,,,,,,,,,,,,,,,,,,,,,,,,,,,,,,,,,,,"29.91","64","82",,,,,"55",,"SCT:04 110","29.90","10.00","70","030",,"6",,,,,,,,,,,,,,,,,,,,,,,,,,,,,,,,,,,,,"MET07208/16/20 10:47:02 METAR KSQL 161847Z 03005KT 10SM SCT110 28/18 A2991 RMK","FM-15","7",,,,,,,,,,,,,,,,,,,,,,,,,,,,
"72493893231","2020-08-16T11:52:00","FM-15","7",,,,,,,,,,,,,,,,,,,,,,,,,,,,,,,,,,,,,,"29.91","66","88",,,,,"49",,"SCT:04 110 BKN:07 150","29.90","10.00","73","330",,"6",,,,,,,,,,,,,,,,,,,,,,,,,,,,,,,,,,,,,"MET07908/16/20 11:52:02 METAR KSQL 161952Z 33005KT 10SM SCT110 BKN150 31/19 A2991 RMK","FM-15","7",,,,,,,,,,,,,,,,,,,,,,,,,,,,
"72493893231","2020-08-16T12:47:00","FM-15","7",,,,,,,,,,,,,,,,,,,,,,,,,,,,,,,,,,,,,,"29.89","66","95",,,,,"39",,"SCT:04 90 BKN:07 150","29.88","10.00","75","330",,"7",,,,,,,,,,,,,,,,,,,,,,,,,,,,,,,,,,,,,"MET07908/16/20 12:47:02 METAR KSQL 162047Z 33006KT 10SM SCT090 BKN150 35/19 A2989 RMK","FM-15","7",,,,,,,,,,,,,,,,,,,,,,,,,,,,
"72493893231","2020-08-16T13:47:00","FM-15","7",,,,,,,,,,,,,,,,,,,,,,,,,,,,,,,,,,,,,,"29.88","64","88",,,,,"46",,"SCT:04 90 BKN:07 150","29.87","10.00","72","310",,"10",,,,,,,,,,,,,,,,,,,,,,,,,,,,,,,,,,,,,"MET07908/16/20 13:47:02 METAR KSQL 162147Z 31009KT 10SM SCT090 BKN150 31/18 A2988 RMK","FM-15","7",,,,,,,,,,,,,,,,,,,,,,,,,,,,
"72493893231","2020-08-16T14:58:00","FM-15","7",,,,,,,,,,,,,,,,,,,,,,,,,,,,,,,,,,,,,,"29.87","64","86",,,,,"49",,"BKN:07 200","29.86","10.00","72","320",,"11",,,,,,,,,,,,,,,,,,,,,,,,,,,,,,,,,,,,,"MET07208/16/20 14:58:02 METAR KSQL 162258Z 32010KT 10SM BKN200 30/18 A2987 RMK","FM-15","7",,,,,,,,,,,,,,,,,,,,,,,,,,,,
"72493893231","2020-08-16T15:47:00","FM-15","7",,,,,,,,,,,,,,,,,,,,,,,,,,,,,,,,,,,,,,"29.86","59","93",,,,,"32",,"SCT:04 200","29.85","10.00","71","260",,"10",,,,,,,,,,,,,,,,,,,,,,,,,,,,,,,,,,,,,"MET07208/16/20 15:47:02 METAR KSQL 162347Z 26009KT 10SM SCT200 34/15 A2986 RMK","FM-15","7",,,,,,,,,,,,,,,,,,,,,,,,,,,,
"72493893231","2020-08-16T16:47:00","FM-15","7",,,,,,,,,,,,,,,,,,,,,,,,,,,,,,,,,,,,,,"29.86","61","90",,,,,"38",,"SCT:04 200","29.85","10.00","71","320",,"9",,,,,,,,,,,,,,,,,,,,,,,,,,,,,,,,,,,,,"MET07208/16/20 16:47:01 METAR KSQL 170047Z 32008KT 10SM SCT200 32/16 A2986 RMK","FM-15","7",,,,,,,,,,,,,,,,,,,,,,,,,,,,
"72493893231","2020-08-16T17:58:00","FM-15","7",,,,,,,,,,,,,,,,,,,,,,,,,,,,,,,,,,,,,,"29.87","57","84",,,,,"40",,"SCT:04 200","29.86","10.00","67","260",,"10",,,,,,,,,,,,,,,,,,,,,,,,,,,,,,,,,,,,,"MET07208/16/20 17:58:01 METAR KSQL 170158Z 26009KT 10SM SCT200 29/14 A2987 RMK","FM-15","7",,,,,,,,,,,,,,,,,,,,,,,,,,,,
"72493893231","2020-08-16T18:55:00","FM-15","7",,,,,,,,,,,,,,,,,,,,,,,,,,,,,,,,,,,,,,"29.90","57","81",,,,,"45",,"SCT:04 200","29.89","10.00","66","280",,"10",,,,,,,,,,,,,,,,,,,,,,,,,,,,,,,,,,,,,"MET07208/16/20 18:55:01 METAR KSQL 170255Z 28009KT 10SM SCT200 27/14 A2990 RMK","FM-15","7",,,,,,,,,,,,,,,,,,,,,,,,,,,,
"72493893231","2020-08-16T19:58:00","FM-15","7",,,,,,,,,,,,,,,,,,,,,,,,,,,,,,,,,,,,,,"29.94","54","77",,,,,"44",,"SCT:04 200","29.93","10.00","63","290",,"6",,,,,,,,,,,,,,,,,,,,,,,,,,,,,,,,,,,,,"MET07708/16/20 19:58:01 METAR KSQL 170358Z 29005KT 10SM SCT200 25/12 A2994 RMK LAST","FM-15","7",,,,,,,,,,,,,,,,,,,,,,,,,,,,
"72493893231","2020-08-16T20:15:00","FM-15","7",,,,,,,,,,,,,,,,,,,,,,,,,,,,,,,,,,,,,,"29.94","63","75",,,,,"65",,"SCT:04 40","29.93","10.00","67","010",,"8",,,,,,,,,,,,,,,,,,,,,,,,,,,,,,,,,,,,,"MET07608/16/20 20:15:01 METAR KSQL 170415Z 01007KT 10SM SCT040 24/17 A2994 RMK AO2","FM-15","7",,,,,,,,,,,,,,,,,,,,,,,,,,,,
"72493893231","2020-08-16T20:35:00","FM-15","7",,,,,,,,,,,,,,,,,,,,,,,,,,,,,,,,,,,,,,"29.94","57","73",,,,,"57",,"FEW:02 40","29.93","10.00","63","350",,"3",,,,,,,,,,,,,,,,,,,,,,,,,,,,,,,,,,,,,"MET07608/16/20 20:35:01 METAR KSQL 170435Z 35003KT 10SM FEW040 23/14 A2994 RMK AO2","FM-15","7",,,,,,,,,,,,,,,,,,,,,,,,,,,,
"72493893231","2020-08-16T20:55:00","FM-15","7",,,,,,,,,,,,,,,,,,,,,,,,,,,,,,,,,,,,,,"29.95","59","73",,,,,"61",,"FEW:02 38 SCT:04 60","29.94","10.00","64","340",,"3",,,,,,,,,,,,,,,,,,,,,,,,,,,,,,,,,,,,,"MET08308/16/20 20:55:01 METAR KSQL 170455Z 34003KT 10SM FEW038 SCT060 23/15 A2995 RMK AO2","FM-15","7",,,,,,,,,,,,,,,,,,,,,,,,,,,,
"72493893231","2020-08-16T21:15:00","FM-15","7",,,,,,,,,,,,,,,,,,,,,,,,,,,,,,,,,,,,,,"29.95","59","72",,,,,"65",,"FEW:02 38 BKN:07 60","29.94","10.00","64","350",,"5",,,,,,,,,,,,,,,,,,,,,,,,,,,,,,,,,,,,,"MET08308/16/20 21:15:01 METAR KSQL 170515Z 35004KT 10SM FEW038 BKN060 22/15 A2995 RMK AO2","FM-15","7",,,,,,,,,,,,,,,,,,,,,,,,,,,,
"72493893231","2020-08-16T21:35:00","FM-15","7",,,,,,,,,,,,,,,,,,,,,,,,,,,,,,,,,,,,,,"29.95","59","72",,,,,"65",,"FEW:02 42 FEW:02 60","29.94","10.00","64","280",,"5",,,,,,,,,,,,,,,,,,,,,,,,,,,,,,,,,,,,,"MET08308/16/20 21:35:01 METAR KSQL 170535Z 28004KT 10SM FEW042 FEW060 22/15 A2995 RMK AO2","FM-15","7",,,,,,,,,,,,,,,,,,,,,,,,,,,,
"72493893231","2020-08-16T21:55:00","FM-15","7",,,,,,,,,,,,,,,,,,,,,,,,,,,,,,,,,,,,,,"29.95","57","73",,,,,"57",,"FEW:02 42","29.94","10.00","63","000",,"0",,,,,,,,,,,,,,,,,,,,,,,,,,,,,,,,,,,,,"MET07608/16/20 21:55:01 METAR KSQL 170555Z 00000KT 10SM FEW042 23/14 A2995 RMK AO2","FM-15","7",,,,,,,,,,,,,,,,,,,,,,,,,,,,
"72493893231","2020-08-16T22:15:00","FM-15","7",,,,,,,,,,,,,,,,,,,,,,,,,,,,,,,,,,,,,,"29.95","59","73",,,,,"61",,"FEW:02 65","29.94","10.00","64","000",,"0",,,,,,,,,,,,,,,,,,,,,,,,,,,,,,,,,,,,,"MET07608/16/20 22:15:01 METAR KSQL 170615Z 00000KT 10SM FEW065 23/15 A2995 RMK AO2","FM-15","7",,,,,,,,,,,,,,,,,,,,,,,,,,,,
"72493893231","2020-08-16T22:35:00","FM-15","7",,,,,,,,,,,,,,,,,,,,,,,,,,,,,,,,,,,,,,"29.95","59","73",,,,,"61",,"CLR:00","29.94","10.00","64","020",,"3",,,,,,,,,,,,,,,,,,,,,,,,,,,,,,,,,,,,,"MET07308/16/20 22:35:01 METAR KSQL 170635Z 02003KT 10SM CLR 23/15 A2995 RMK AO2","FM-15","7",,,,,,,,,,,,,,,,,,,,,,,,,,,,
"72493893231","2020-08-16T22:55:00","FM-15","7",,,,,,,,,,,,,,,,,,,,,,,,,,,,,,,,,,,,,,"29.95","61","72",,,,,"69",,"SCT:04 65","29.94","10.00","65","020",,"3",,,,,,,,,,,,,,,,,,,,,,,,,,,,,,,,,,,,,"MET07608/16/20 22:55:01 METAR KSQL 170655Z 02003KT 10SM SCT065 22/16 A2995 RMK AO2","FM-15","7",,,,,,,,,,,,,,,,,,,,,,,,,,,,
"72493893231","2020-08-16T23:15:00","FM-15","7",,,,,,,,,,,,,,,,,,,,,,,,,,,,,,,,,,,,,,"29.95","59","72",,,,,"65",,"FEW:02 65","29.94","10.00","64","350",,"6",,,,,,,,,,,,,,,,,,,,,,,,,,,,,,,,,,,,,"MET07608/16/20 23:15:01 METAR KSQL 170715Z 35005KT 10SM FEW065 22/15 A2995 RMK AO2","FM-15","7",,,,,,,,,,,,,,,,,,,,,,,,,,,,
"72493893231","2020-08-16T23:35:00","FM-15","7",,,,,,,,,,,,,,,,,,,,,,,,,,,,,,,,,,,,,,"29.95","59","68",,,,,"73",,"CLR:00","29.94","10.00","63","330",,"6",,,,,,,,,,,,,,,,,,,,,,,,,,,,,,,,,,,,,"MET07308/16/20 23:35:01 METAR KSQL 170735Z 33005KT 10SM CLR 20/15 A2995 RMK AO2","FM-15","7",,,,,,,,,,,,,,,,,,,,,,,,,,,,
"72493893231","2020-08-16T23:55:00","FM-15","7",,,,,,,,,,,,,,,,,,,,,,,,,,,,,,,,,,,,,,"29.94","57","68",,,,,"69",,"CLR:00","29.93","10.00","62","020",,"3",,,,,,,,,,,,,,,,,,,,,,,,,,,,,,,,,,,,,"MET07308/16/20 23:55:01 METAR KSQL 170755Z 02003KT 10SM CLR 20/14 A2994 RMK AO2","FM-15","7",,,,,,,,,,,,,,,,,,,,,,,,,,,,
"72493893231","2020-08-16T23:59:00","SOD  ","O",,,,,,,,,,,,,,,,,,,,,,,,,,,,,,,,,,"RA",,,,,,,,,,,,,,,,,,,,,,,,,,,,,,,,,,,,,,,,,,,,,,,,,,,,,,,,,"SOD  ","O",,,,,,,,,,,,,,,,,,,,,,,,,"0526","1859",,
"72493893231","2020-08-17T00:15:00","FM-15","7",,,,,,,,,,,,,,,,,,,,,,,,,,,,,,,,,,,,,,"29.95","57","68",,,,,"69",,"FEW:02 43","29.94","10.00","62","000",,"0",,,,,,,,,,,,,,,,,,,,,,,,,,,,,,,,,,,,,"MET07608/17/20 00:15:02 METAR KSQL 170815Z 00000KT 10SM FEW043 20/14 A2995 RMK AO2","FM-15","7",,,,,,,,,,,,,,,,,,,,,,,,,,,,
"72493893231","2020-08-17T00:35:00","FM-15","7",,,,,,,,,,,,,,,,,,,,,,,,,,,,,,,,,,,,,,"29.94","59","68",,,,,"73",,"SCT:04 43","29.93","10.00","63","350",,"3",,,,,,,,,,,,,,,,,,,,,,,,,,,,,,,,,,,,,"MET07608/17/20 00:35:02 METAR KSQL 170835Z 35003KT 10SM SCT043 20/15 A2994 RMK AO2","FM-15","7",,,,,,,,,,,,,,,,,,,,,,,,,,,,
"72493893231","2020-08-17T00:55:00","FM-15","7",,,,,,,,,,,,,,,,,,,,,,,,,,,,,,,,,,,,,,"29.94","59","68",,,,,"73",,"BKN:07 39","29.93","10.00","63","000",,"0",,,,,,,,,,,,,,,,,,,,,,,,,,,,,,,,,,,,,"MET07608/17/20 00:55:02 METAR KSQL 170855Z 00000KT 10SM BKN039 20/15 A2994 RMK AO2","FM-15","7",,,,,,,,,,,,,,,,,,,,,,,,,,,,
"72493893231","2020-08-17T01:15:00","FM-15","7",,,,,,,,,,,,,,,,,,,,,,,,,,,,,,,,,,,,,,"29.94","59","68",,,,,"73",,"BKN:07 39","29.93","10.00","63","000",,"0",,,,,,,,,,,,,,,,,,,,,,,,,,,,,,,,,,,,,"MET07608/17/20 01:15:02 METAR KSQL 170915Z 00000KT 10SM BKN039 20/15 A2994 RMK AO2","FM-15","7",,,,,,,,,,,,,,,,,,,,,,,,,,,,
"72493893231","2020-08-17T01:35:00","FM-15","7",,,,,,,,,,,,,,,,,,,,,,,,,,,,,,,,,,,,,,"29.94","61","68",,,,,"78",,"SCT:04 39","29.93","10.00","64","000",,"0",,,,,,,,,,,,,,,,,,,,,,,,,,,,,,,,,,,,,"MET07608/17/20 01:35:02 METAR KSQL 170935Z 00000KT 10SM SCT039 20/16 A2994 RMK AO2","FM-15","7",,,,,,,,,,,,,,,,,,,,,,,,,,,,
"72493893231","2020-08-17T01:55:00","FM-15","7",,,,,,,,,,,,,,,,,,,,,,,,,,,,,,,,,,,,,,"29.93","61","68",,,,,"78",,"SCT:04 39","29.92","10.00","64","000",,"0",,,,,,,,,,,,,,,,,,,,,,,,,,,,,,,,,,,,,"MET07608/17/20 01:55:02 METAR KSQL 170955Z 00000KT 10SM SCT039 20/16 A2993 RMK AO2","FM-15","7",,,,,,,,,,,,,,,,,,,,,,,,,,,,
"72493893231","2020-08-17T02:15:00","FM-15","7",,,,,,,,,,,,,,,,,,,,,,,,,,,,,,,,,,,,,,"29.93","59","68",,,,,"73",,"FEW:02 39","29.92","10.00","63","000",,"0",,,,,,,,,,,,,,,,,,,,,,,,,,,,,,,,,,,,,"MET07608/17/20 02:15:02 METAR KSQL 171015Z 00000KT 10SM FEW039 20/15 A2993 RMK AO2","FM-15","7",,,,,,,,,,,,,,,,,,,,,,,,,,,,
"72493893231","2020-08-17T02:35:00","FM-15","7",,,,,,,,,,,,,,,,,,,,,,,,,,,,,,,,,,,,,,"29.92","63","68",,,,,"83",,"FEW:02 39","29.91","10.00","65","000",,"0",,,,,,,,,,,,,,,,,,,,,,,,,,,,,,,,,,,,,"MET07608/17/20 02:35:02 METAR KSQL 171035Z 00000KT 10SM FEW039 20/17 A2992 RMK AO2","FM-15","7",,,,,,,,,,,,,,,,,,,,,,,,,,,,
"72493893231","2020-08-17T02:55:00","FM-15","7",,,,,,,,,,,,,,,,,,,,,,,,,,,,,,,,,,,,,,"29.92","64","68",,,,,"88",,"SCT:04 39","29.91","10.00","66","000",,"0",,,,,,,,,,,,,,,,,,,,,,,,,,,,,,,,,,,,,"MET07608/17/20 02:55:02 METAR KSQL 171055Z 00000KT 10SM SCT039 20/18 A2992 RMK AO2","FM-15","7",,,,,,,,,,,,,,,,,,,,,,,,,,,,
"72493893231","2020-08-17T03:15:00","FM-15","7",,,,,,,,,,,,,,,,,,,,,,,,,,,,,,,,,,,,,,"29.92","64","68",,,,,"88",,"SCT:04 41","29.91","10.00","66","000",,"0",,,,,,,,,,,,,,,,,,,,,,,,,,,,,,,,,,,,,"MET07608/17/20 03:15:02 METAR KSQL 171115Z 00000KT 10SM SCT041 20/18 A2992 RMK AO2","FM-15","7",,,,,,,,,,,,,,,,,,,,,,,,,,,,
"72493893231","2020-08-17T03:35:00","FM-15","7",,,,,,,,,,,,,,,,,,,,,,,,,,,,,,,,,,,,,,"29.92","64","68",,,,,"88",,"FEW:02 41","29.91","10.00","66","000",,"0",,,,,,,,,,,,,,,,,,,,,,,,,,,,,,,,,,,,,"MET07608/17/20 03:35:02 METAR KSQL 171135Z 00000KT 10SM FEW041 20/18 A2992 RMK AO2","FM-15","7",,,,,,,,,,,,,,,,,,,,,,,,,,,,
"72493893231","2020-08-17T03:55:00","FM-15","7",,,,,,,,,,,,,,,,,,,,,,,,,,,,,,,,,,,,,,"29.91","64","68",,,,,"88",,"CLR:00","29.90","10.00","66","000",,"0",,,,,,,,,,,,,,,,,,,,,,,,,,,,,,,,,,,,,"MET07308/17/20 03:55:02 METAR KSQL 171155Z 00000KT 10SM CLR 20/18 A2991 RMK AO2","FM-15","7",,,,,,,,,,,,,,,,,,,,,,,,,,,,
"72493893231","2020-08-17T04:15:00","FM-15","7",,,,,,,,,,,,,,,,,,,,,,,,,,,,,,,,,,,,,,"29.92","63","68",,,,,"83",,"CLR:00","29.91","10.00","65","000",,"0",,,,,,,,,,,,,,,,,,,,,,,,,,,,,,,,,,,,,"MET07308/17/20 04:15:02 METAR KSQL 171215Z 00000KT 10SM CLR 20/17 A2992 RMK AO2","FM-15","7",,,,,,,,,,,,,,,,,,,,,,,,,,,,
"72493893231","2020-08-17T04:35:00","FM-15","7",,,,,,,,,,,,,,,,,,,,,,,,,,,,,,,,,,,,,,"29.90","64","68",,,,,"88",,"CLR:00","29.89","10.00","66","000",,"0",,,,,,,,,,,,,,,,,,,,,,,,,,,,,,,,,,,,,"MET07308/17/20 04:35:02 METAR KSQL 171235Z 00000KT 10SM CLR 20/18 A2990 RMK AO2","FM-15","7",,,,,,,,,,,,,,,,,,,,,,,,,,,,
"72493893231","2020-08-17T04:55:00","FM-15","7",,,,,,,,,,,,,,,,,,,,,,,,,,,,,,,,,,,,,,"29.91","63","70",,,,,"78",,"CLR:00","29.90","10.00","66","000",,"0",,,,,,,,,,,,,,,,,,,,,,,,,,,,,,,,,,,,,"MET07308/17/20 04:55:02 METAR KSQL 171255Z 00000KT 10SM CLR 21/17 A2991 RMK AO2","FM-15","7",,,,,,,,,,,,,,,,,,,,,,,,,,,,
"72493893231","2020-08-17T05:15:00","FM-15","7",,,,,,,,,,,,,,,,,,,,,,,,,,,,,,,,,,,,,,"29.92","64","70",,,,,"83",,"CLR:00","29.91","10.00","66","000",,"0",,,,,,,,,,,,,,,,,,,,,,,,,,,,,,,,,,,,,"MET07308/17/20 05:15:02 METAR KSQL 171315Z 00000KT 10SM CLR 21/18 A2992 RMK AO2","FM-15","7",,,,,,,,,,,,,,,,,,,,,,,,,,,,
"72493893231","2020-08-17T05:35:00","FM-15","7",,,,,,,,,,,,,,,,,,,,,,,,,,,,,,,,,,,,,,"29.91","63","70",,,,,"78",,"CLR:00","29.90","10.00","66","000",,"0",,,,,,,,,,,,,,,,,,,,,,,,,,,,,,,,,,,,,"MET07308/17/20 05:35:02 METAR KSQL 171335Z 00000KT 10SM CLR 21/17 A2991 RMK AO2","FM-15","7",,,,,,,,,,,,,,,,,,,,,,,,,,,,
"72493893231","2020-08-17T05:47:00","FM-15","4",,,,,,,,,,,,,,,,,,,,,,,,,,,,,,,,,,,,,,"29.92","63","72",,,,,"73",,,,"10.00",,"000",,"0",,,,,,,,,,,,,,,,,,,,,,,,,,,,,,,,,,,,,"MET051METAR KSQL 171347Z 00000KT 10SM BKN200 22/17 A2992=","FM-15","4",,,,,,,,,,,,,,,,,,,,,,,,,,,,
"72493893231","2020-08-17T05:55:00","FM-15","7",,,,,,,,,,,,,,,,,,,,,,,,,,,,,,,,,,,,,,"29.92","64","70",,,,,"83",,"CLR:00","29.91","10.00","66","060",,"3",,,,,,,,,,,,,,,,,,,,,,,,,,,,,,,,,,,,,"MET07308/17/20 05:55:02 METAR KSQL 171355Z 06003KT 10SM CLR 21/18 A2992 RMK AO2","FM-15","7",,,,,,,,,,,,,,,,,,,,,,,,,,,,
"72493893231","2020-08-17T06:47:00","FM-15","7",,,,,,,,,,,,,,,,,,,,,,,,,,,,,,,,,,,,,,"29.93","63","72",,,,,"73",,"SCT:04 160","29.92","10.00","66","000",,"0",,,,,,,,,,,,,,,,,,,,,,,,,,,,,,,,,,,,,"MET07208/17/20 06:47:02 METAR KSQL 171447Z 00000KT 10SM SCT160 22/17 A2993 RMK","FM-15","7",,,,,,,,,,,,,,,,,,,,,,,,,,,,
"72493893231","2020-08-17T07:47:00","FM-15","7",,,,,,,,,,,,,,,,,,,,,,,,,,,,,,,,,,,,,,"29.94","64","73",,,,,"74",,"SCT:04 160","29.93","10.00","67","VRB",,"3",,,,,,,,,,,,,,,,,,,,,,,,,,,,,,,,,,,,,"MET07208/17/20 07:47:02 METAR KSQL 171547Z VRB03KT 10SM SCT160 23/18 A2994 RMK","FM-15","7",,,,,,,,,,,,,,,,,,,,,,,,,,,,
"72493893231","2020-08-17T08:47:00","FM-15","7",,,,,,,,,,,,,,,,,,,,,,,,,,,,,,,,,,,,,,"29.96","64","75",,,,,"69",,"FEW:02 15","29.95","10.00","68","000",,"0",,,,,,,,,,,,,,,,,,,,,,,,,,,,,,,,,,,,,"MET07208/17/20 08:47:02 METAR KSQL 171647Z 00000KT 10SM FEW015 24/18 A2996 RMK","FM-15","7",,,,,,,,,,,,,,,,,,,,,,,,,,,,
"72493893231","2020-08-17T10:49:00","FM-15","7",,,,,,,,,,,,,,,,,,,,,,,,,,,,,,,,,,,,,,"29.97","61","75",,,,,"61",,"FEW:02 35 BKN:07 200","29.96","10.00","66","360",,"5",,,,,,,,,,,,,,,,,,,,,,,,,,,,,,,,,,,,,"MET07908/17/20 10:49:02 METAR KSQL 171849Z 36004KT 10SM FEW035 BKN200 24/16 A2997 RMK","FM-15","7",,,,,,,,,,,,,,,,,,,,,,,,,,,,
"72493893231","2020-08-17T11:55:00","FM-15","7",,,,,,,,,,,,,,,,,,,,,,,,,,,,,,,,,,,,,,"29.95","63","82",,,,,"51",,"FEW:02 35 BKN:07 200","29.94","10.00","70","VRB",,"5",,,,,,,,,,,,,,,,,,,,,,,,,,,,,,,,,,,,,"MET07908/17/20 11:55:01 METAR KSQL 171955Z VRB04KT 10SM FEW035 BKN200 28/17 A2995 RMK","FM-15","7",,,,,,,,,,,,,,,,,,,,,,,,,,,,
"72493893231","2020-08-17T12:47:00","FM-15","7",,,,,,,,,,,,,,,,,,,,,,,,,,,,,,,,,,,,,,"29.95","59","86",,,,,"40",,"FEW:02 55 BKN:07 200","29.94","10.00","69","290",,"9",,,,,,,,,,,,,,,,,,,,,,,,,,,,,,,,,,,,,"MET07908/17/20 12:47:02 METAR KSQL 172047Z 29008KT 10SM FEW055 BKN200 30/15 A2995 RMK","FM-15","7",,,,,,,,,,,,,,,,,,,,,,,,,,,,
"72493893231","2020-08-17T13:47:00","FM-15","7",,,,,,,,,,,,,,,,,,,,,,,,,,,,,,,,,,,,,,"29.94","57","88",,,,,"35",,"FEW:02 55 BKN:07 200","29.93","10.00","69","310",,"9",,,,,,,,,,,,,,,,,,,,,,,,,,,,,,,,,,,,,"MET07908/17/20 13:47:02 METAR KSQL 172147Z 31008KT 10SM FEW055 BKN200 31/14 A2994 RMK","FM-15","7",,,,,,,,,,,,,,,,,,,,,,,,,,,,
"72493893231","2020-08-17T14:47:00","FM-15","7",,,,,,,,,,,,,,,,,,,,,,,,,,,,,,,,,,,,,,"29.92","59","84",,,,,"43",,"FEW:02 55 BKN:07 200","29.91","10.00","68","320",,"11",,,,,,,,,,,,,,,,,,,,,,,,,,,,,,,,,,,,,"MET07908/17/20 14:47:02 METAR KSQL 172247Z 32010KT 10SM FEW055 BKN200 29/15 A2992 RMK","FM-15","7",,,,,,,,,,,,,,,,,,,,,,,,,,,,
"72493893231","2020-08-17T15:47:00","FM-15","7",,,,,,,,,,,,,,,,,,,,,,,,,,,,,,,,,,,,,,"29.92","61","82",,,,,"48",,"FEW:02 11 BKN:07 200","29.91","10.00","69","330",,"7",,,,,,,,,,,,,,,,,,,,,,,,,,,,,,,,,,,,,"MET07908/17/20 15:47:02 METAR KSQL 172347Z 33006KT 10SM FEW011 BKN200 28/16 A2992 RMK","FM-15","7",,,,,,,,,,,,,,,,,,,,,,,,,,,,
"72493893231","2020-08-17T16:49:00","FM-15","7",,,,,,,,,,,,,,,,,,,,,,,,,,,,,,,,,,,,,,"29.93","59","84",,,,,"43",,"BKN:07 200","29.92","10.00","68","330",,"7",,,,,,,,,,,,,,,,,,,,,,,,,,,,,,,,,,,,,"MET07208/17/20 16:49:01 METAR KSQL 180049Z 33006KT 10SM BKN200 29/15 A2993 RMK","FM-15","7",,,,,,,,,,,,,,,,,,,,,,,,,,,,
"72493893231","2020-08-17T17:55:00","FM-15","7",,,,,,,,,,,,,,,,,,,,,,,,,,,,,,,,,,,,,,"29.94","61","77",,,,,"57",,"BKN:07 200","29.93","10.00","67","340",,"7",,,,,,,,,,,,,,,,,,,,,,,,,,,,,,,,,,,,,"MET07208/17/20 17:55:01 METAR KSQL 180155Z 34006KT 10SM BKN200 25/16 A2994 RMK","FM-15","7",,,,,,,,,,,,,,,,,,,,,,,,,,,,
"72493893231","2020-08-17T18:51:00","FM-15","7",,,,,,,,,,,,,,,,,,,,,,,,,,,,,,,,,,,,,,"29.96","57","72",,,,,"61",,"BKN:07 200","29.95","10.00","63","320",,"6",,,,,,,,,,,,,,,,,,,,,,,,,,,,,,,,,,,,,"MET07208/17/20 18:51:01 METAR KSQL 180251Z 32005KT 10SM BKN200 22/14 A2996 RMK","FM-15","7",,,,,,,,,,,,,,,,,,,,,,,,,,,,
"72493893231","2020-08-17T19:58:00","FM-15","7",,,,,,,,,,,,,,,,,,,,,,,,,,,,,,,,,,,,,,"29.97","61","68",,,,,"78",,"BKN:07 200","29.96","10.00","64","000",,"0",,,,,,,,,,,,,,,,,,,,,,,,,,,,,,,,,,,,,"MET07708/17/20 19:58:02 METAR KSQL 180358Z 00000KT 10SM BKN200 20/16 A2997 RMK LAST","FM-15","7",,,,,,,,,,,,,,,,,,,,,,,,,,,,
"72493893231","2020-08-17T20:15:00","FM-15","7",,,,,,,,,,,,,,,,,,,,,,,,,,,,,,,,,,,,,,"29.97","59","68",,,,,"73",,"BKN:07 100","29.96","10.00","63","000",,"0",,,,,,,,,,,,,,,,,,,,,,,,,,,,,,,,,,,,,"MET07608/17/20 20:15:02 METAR KSQL 180415Z 00000KT 10SM BKN100 20/15 A2997 RMK AO2","FM-15","7",,,,,,,,,,,,,,,,,,,,,,,,,,,,
"72493893231","2020-08-17T20:35:00","FM-15","7",,,,,,,,,,,,,,,,,,,,,,,,,,,,,,,,,,,,,,"29.97","61","72",,,,,"69",,"SCT:04 100","29.96","8.00","65","000",,"0",,,,,,,,,,,,,,,,,,,,,,,,,,,,,,,,,,,,,"MET07508/17/20 20:35:02 METAR KSQL 180435Z 00000KT 8SM SCT100 22/16 A2997 RMK AO2","FM-15","7",,,,,,,,,,,,,,,,,,,,,,,,,,,,
"72493893231","2020-08-17T20:55:00","FM-15","7",,,,,,,,,,,,,,,,,,,,,,,,,,,,,,,,,,,,,,"29.97","63","72",,,,,"73",,"SCT:04 100","29.96","10.00","66","030",,"5",,,,,,,,,,,,,,,,,,,,,,,,,,,,,,,,,,,,,"MET07608/17/20 20:55:02 METAR KSQL 180455Z 03004KT 10SM SCT100 22/17 A2997 RMK AO2","FM-15","7",,,,,,,,,,,,,,,,,,,,,,,,,,,,
"72493893231","2020-08-17T21:15:00","FM-15","7",,,,,,,,,,,,,,,,,,,,,,,,,,,,,,,,,,,,,,"29.97","61","70",,,,,"73",,"FEW:02 100","29.96","10.00","65","340",,"5",,,,,,,,,,,,,,,,,,,,,,,,,,,,,,,,,,,,,"MET07608/17/20 21:15:02 METAR KSQL 180515Z 34004KT 10SM FEW100 21/16 A2997 RMK AO2","FM-15","7",,,,,,,,,,,,,,,,,,,,,,,,,,,,
"72493893231","2020-08-17T21:35:00","FM-15","7",,,,,,,,,,,,,,,,,,,,,,,,,,,,,,,,,,,,,,"29.97","59","70",,,,,"69",,"CLR:00","29.96","10.00","63","000",,"0",,,,,,,,,,,,,,,,,,,,,,,,,,,,,,,,,,,,,"MET07308/17/20 21:35:02 METAR KSQL 180535Z 00000KT 10SM CLR 21/15 A2997 RMK AO2","FM-15","7",,,,,,,,,,,,,,,,,,,,,,,,,,,,
"72493893231","2020-08-17T21:55:00","FM-15","7",,,,,,,,,,,,,,,,,,,,,,,,,,,,,,,,,,,,,,"29.97","61","70",,,,,"73",,"FEW:02 100","29.96","10.00","65","000",,"0",,,,,,,,,,,,,,,,,,,,,,,,,,,,,,,,,,,,,"MET07608/17/20 21:55:02 METAR KSQL 180555Z 00000KT 10SM FEW100 21/16 A2997 RMK AO2","FM-15","7",,,,,,,,,,,,,,,,,,,,,,,,,,,,
"72493893231","2020-08-17T22:15:00","FM-15","7",,,,,,,,,,,,,,,,,,,,,,,,,,,,,,,,,,,,,,"29.97","61","70",,,,,"73",,"CLR:00","29.96","10.00","65","340",,"3",,,,,,,,,,,,,,,,,,,,,,,,,,,,,,,,,,,,,"MET07308/17/20 22:15:02 METAR KSQL 180615Z 34003KT 10SM CLR 21/16 A2997 RMK AO2","FM-15","7",,,,,,,,,,,,,,,,,,,,,,,,,,,,
"72493893231","2020-08-17T22:35:00","FM-15","7",,,,,,,,,,,,,,,,,,,,,,,,,,,,,,,,,,,,,,"29.97","59","70",,,,,"69",,"CLR:00","29.96","10.00","63","000",,"0",,,,,,,,,,,,,,,,,,,,,,,,,,,,,,,,,,,,,"MET07308/17/20 22:35:02 METAR KSQL 180635Z 00000KT 10SM CLR 21/15 A2997 RMK AO2","FM-15","7",,,,,,,,,,,,,,,,,,,,,,,,,,,,
"72493893231","2020-08-17T22:55:00","FM-15","7",,,,,,,,,,,,,,,,,,,,,,,,,,,,,,,,,,,,,,"29.96","63","70",,,,,"78",,"CLR:00","29.95","10.00","66","040",,"5",,,,,,,,,,,,,,,,,,,,,,,,,,,,,,,,,,,,,"MET07308/17/20 22:55:02 METAR KSQL 180655Z 04004KT 10SM CLR 21/17 A2996 RMK AO2","FM-15","7",,,,,,,,,,,,,,,,,,,,,,,,,,,,
"72493893231","2020-08-17T23:15:00","FM-15","7",,,,,,,,,,,,,,,,,,,,,,,,,,,,,,,,,,,,,,"29.97","63","70",,,,,"78",,"BKN:07 45","29.96","10.00","66","000",,"0",,,,,,,,,,,,,,,,,,,,,,,,,,,,,,,,,,,,,"MET07608/17/20 23:15:02 METAR KSQL 180715Z 00000KT 10SM BKN045 21/17 A2997 RMK AO2","FM-15","7",,,,,,,,,,,,,,,,,,,,,,,,,,,,
"72493893231","2020-08-17T23:35:00","FM-15","7",,,,,,,,,,,,,,,,,,,,,,,,,,,,,,,,,,,,,,"29.97","59","70",,,,,"69",,"FEW:02 45","29.96","10.00","63","000",,"0",,,,,,,,,,,,,,,,,,,,,,,,,,,,,,,,,,,,,"MET07608/17/20 23:35:02 METAR KSQL 180735Z 00000KT 10SM FEW045 21/15 A2997 RMK AO2","FM-15","7",,,,,,,,,,,,,,,,,,,,,,,,,,,,
"72493893231","2020-08-17T23:55:00","FM-15","7",,,,,,,,,,,,,,,,,,,,,,,,,,,,,,,,,,,,,,"29.97","59","70",,,,,"69",,"CLR:00","29.96","10.00","63","000",,"0",,,,,,,,,,,,,,,,,,,,,,,,,,,,,,,,,,,,,"MET07308/17/20 23:55:02 METAR KSQL 180755Z 00000KT 10SM CLR 21/15 A2997 RMK AO2","FM-15","7",,,,,,,,,,,,,,,,,,,,,,,,,,,,
"72493893231","2020-08-18T00:15:00","FM-15","7",,,,,,,,,,,,,,,,,,,,,,,,,,,,,,,,,,,,,,"29.97","59","70",,,,,"69",,"CLR:00","29.96","10.00","63","310",,"3",,,,,,,,,,,,,,,,,,,,,,,,,,,,,,,,,,,,,"MET07308/18/20 00:15:02 METAR KSQL 180815Z 31003KT 10SM CLR 21/15 A2997 RMK AO2","FM-15","7",,,,,,,,,,,,,,,,,,,,,,,,,,,,
"72493893231","2020-08-18T00:35:00","FM-15","7",,,,,,,,,,,,,,,,,,,,,,,,,,,,,,,,,,,,,,"29.97","59","68",,,,,"73",,"CLR:00","29.96","10.00","63","320",,"5",,,,,,,,,,,,,,,,,,,,,,,,,,,,,,,,,,,,,"MET07308/18/20 00:35:02 METAR KSQL 180835Z 32004KT 10SM CLR 20/15 A2997 RMK AO2","FM-15","7",,,,,,,,,,,,,,,,,,,,,,,,,,,,
"72493893231","2020-08-18T00:55:00","FM-15","7",,,,,,,,,,,,,,,,,,,,,,,,,,,,,,,,,,,,,,"29.97","59","68",,,,,"73",,"CLR:00","29.96","10.00","63","310",,"5",,,,,,,,,,,,,,,,,,,,,,,,,,,,,,,,,,,,,"MET07308/18/20 00:55:02 METAR KSQL 180855Z 31004KT 10SM CLR 20/15 A2997 RMK AO2","FM-15","7",,,,,,,,,,,,,,,,,,,,,,,,,,,,
"72493893231","2020-08-18T01:15:00","FM-15","7",,,,,,,,,,,,,,,,,,,,,,,,,,,,,,,,,,,,,,"29.97","59","68",,,,,"73",,"CLR:00","29.96","10.00","63","000",,"0",,,,,,,,,,,,,,,,,,,,,,,,,,,,,,,,,,,,,"MET07308/18/20 01:15:02 METAR KSQL 180915Z 00000KT 10SM CLR 20/15 A2997 RMK AO2","FM-15","7",,,,,,,,,,,,,,,,,,,,,,,,,,,,
"72493893231","2020-08-18T01:35:00","FM-15","7",,,,,,,,,,,,,,,,,,,,,,,,,,,,,,,,,,,,,,"29.96","59","68",,,,,"73",,"CLR:00","29.95","10.00","63","000",,"0",,,,,,,,,,,,,,,,,,,,,,,,,,,,,,,,,,,,,"MET07308/18/20 01:35:02 METAR KSQL 180935Z 00000KT 10SM CLR 20/15 A2996 RMK AO2","FM-15","7",,,,,,,,,,,,,,,,,,,,,,,,,,,,
"72493893231","2020-08-18T01:55:00","FM-15","7",,,,,,,,,,,,,,,,,,,,,,,,,,,,,,,,,,,,,,"29.96","59","68",,,,,"73",,"CLR:00","29.95","10.00","63","000",,"0",,,,,,,,,,,,,,,,,,,,,,,,,,,,,,,,,,,,,"MET07308/18/20 01:55:02 METAR KSQL 180955Z 00000KT 10SM CLR 20/15 A2996 RMK AO2","FM-15","7",,,,,,,,,,,,,,,,,,,,,,,,,,,,
"72493893231","2020-08-18T02:15:00","FM-15","7",,,,,,,,,,,,,,,,,,,,,,,,,,,,,,,,,,,,,,"29.96","59","68",,,,,"73",,"CLR:00","29.95","10.00","63","000",,"0",,,,,,,,,,,,,,,,,,,,,,,,,,,,,,,,,,,,,"MET07308/18/20 02:15:02 METAR KSQL 181015Z 00000KT 10SM CLR 20/15 A2996 RMK AO2","FM-15","7",,,,,,,,,,,,,,,,,,,,,,,,,,,,
"72493893231","2020-08-18T02:35:00","FM-15","7",,,,,,,,,,,,,,,,,,,,,,,,,,,,,,,,,,,,,,"29.96","59","68",,,,,"73",,"CLR:00","29.95","10.00","63","000",,"0",,,,,,,,,,,,,,,,,,,,,,,,,,,,,,,,,,,,,"MET07308/18/20 02:35:02 METAR KSQL 181035Z 00000KT 10SM CLR 20/15 A2996 RMK AO2","FM-15","7",,,,,,,,,,,,,,,,,,,,,,,,,,,,
"72493893231","2020-08-18T02:55:00","FM-15","7",,,,,,,,,,,,,,,,,,,,,,,,,,,,,,,,,,,,,,"29.96","59","68",,,,,"73",,"CLR:00","29.95","10.00","63","000",,"0",,,,,,,,,,,,,,,,,,,,,,,,,,,,,,,,,,,,,"MET07308/18/20 02:55:02 METAR KSQL 181055Z 00000KT 10SM CLR 20/15 A2996 RMK AO2","FM-15","7",,,,,,,,,,,,,,,,,,,,,,,,,,,,
"72493893231","2020-08-18T03:15:00","FM-15","7",,,,,,,,,,,,,,,,,,,,,,,,,,,,,,,,,,,,,,"29.96","59","68",,,,,"73",,"CLR:00","29.95","10.00","63","360",,"3",,,,,,,,,,,,,,,,,,,,,,,,,,,,,,,,,,,,,"MET07308/18/20 03:15:02 METAR KSQL 181115Z 36003KT 10SM CLR 20/15 A2996 RMK AO2","FM-15","7",,,,,,,,,,,,,,,,,,,,,,,,,,,,
"72493893231","2020-08-18T03:35:00","FM-15","7",,,,,,,,,,,,,,,,,,,,,,,,,,,,,,,,,,,,,,"29.96","59","66",,,,,"78",,"CLR:00","29.95","10.00","62","000",,"0",,,,,,,,,,,,,,,,,,,,,,,,,,,,,,,,,,,,,"MET07308/18/20 03:35:02 METAR KSQL 181135Z 00000KT 10SM CLR 19/15 A2996 RMK AO2","FM-15","7",,,,,,,,,,,,,,,,,,,,,,,,,,,,
"72493893231","2020-08-18T03:55:00","FM-15","7",,,,,,,,,,,,,,,,,,,,,,,,,,,,,,,,,,,,,,"29.96","61","66",,,,,"83",,"CLR:00","29.95","10.00","63","310",,"3",,,,,,,,,,,,,,,,,,,,,,,,,,,,,,,,,,,,,"MET07308/18/20 03:55:02 METAR KSQL 181155Z 31003KT 10SM CLR 19/16 A2996 RMK AO2","FM-15","7",,,,,,,,,,,,,,,,,,,,,,,,,,,,
"72493893231","2020-08-18T04:15:00","FM-15","7",,,,,,,,,,,,,,,,,,,,,,,,,,,,,,,,,,,,,,"29.96","59","68",,,,,"73",,"CLR:00","29.95","10.00","63","310",,"3",,,,,,,,,,,,,,,,,,,,,,,,,,,,,,,,,,,,,"MET07308/18/20 04:15:02 METAR KSQL 181215Z 31003KT 10SM CLR 20/15 A2996 RMK AO2","FM-15","7",,,,,,,,,,,,,,,,,,,,,,,,,,,,
"72493893231","2020-08-18T04:35:00","FM-15","7",,,,,,,,,,,,,,,,,,,,,,,,,,,,,,,,,,,,,,"29.96","59","66",,,,,"78",,"CLR:00","29.95","10.00","62","000",,"0",,,,,,,,,,,,,,,,,,,,,,,,,,,,,,,,,,,,,"MET07308/18/20 04:35:02 METAR KSQL 181235Z 00000KT 10SM CLR 19/15 A2996 RMK AO2","FM-15","7",,,,,,,,,,,,,,,,,,,,,,,,,,,,
"72493893231","2020-08-18T04:55:00","FM-15","7",,,,,,,,,,,,,,,,,,,,,,,,,,,,,,,,,,,,,,"29.97","59","66",,,,,"78",,"CLR:00","29.96","10.00","62","000",,"0",,,,,,,,,,,,,,,,,,,,,,,,,,,,,,,,,,,,,"MET07308/18/20 04:55:02 METAR KSQL 181255Z 00000KT 10SM CLR 19/15 A2997 RMK AO2","FM-15","7",,,,,,,,,,,,,,,,,,,,,,,,,,,,
"72493893231","2020-08-18T05:15:00","FM-15","7",,,,,,,,,,,,,,,,,,,,,,,,,,,,,,,,,,,,,,"29.97","59","66",,,,,"78",,"CLR:00","29.96","10.00","62","000",,"0",,,,,,,,,,,,,,,,,,,,,,,,,,,,,,,,,,,,,"MET07308/18/20 05:15:02 METAR KSQL 181315Z 00000KT 10SM CLR 19/15 A2997 RMK AO2","FM-15","7",,,,,,,,,,,,,,,,,,,,,,,,,,,,
"72493893231","2020-08-18T05:35:00","FM-15","7",,,,,,,,,,,,,,,,,,,,,,,,,,,,,,,,,,,,,,"29.98","59","68",,,,,"73",,"CLR:00","29.97","10.00","63","280",,"3",,,,,,,,,,,,,,,,,,,,,,,,,,,,,,,,,,,,,"MET07308/18/20 05:35:02 METAR KSQL 181335Z 28003KT 10SM CLR 20/15 A2998 RMK AO2","FM-15","7",,,,,,,,,,,,,,,,,,,,,,,,,,,,
"72493893231","2020-08-18T05:47:00","FM-15","4",,,,,,,,,,,,,,,,,,,,,,,,,,,,,,,,,,,,,,"29.98","59","68",,,,,"73",,,,"10.00",,"000",,"0",,,,,,,,,,,,,,,,,,,,,,,,,,,,,,,,,,,,,"MET051METAR KSQL 181347Z 00000KT 10SM SCT200 20/15 A2998=","FM-15","4",,,,,,,,,,,,,,,,,,,,,,,,,,,,
"72493893231","2020-08-18T05:55:00","FM-15","7",,,,,,,,,,,,,,,,,,,,,,,,,,,,,,,,,,,,,,"29.97","59","68",,,,,"73",,"CLR:00","29.96","10.00","63","000",,"0",,,,,,,,,,,,,,,,,,,,,,,,,,,,,,,,,,,,,"MET07308/18/20 05:55:02 METAR KSQL 181355Z 00000KT 10SM CLR 20/15 A2997 RMK AO2","FM-15","7",,,,,,,,,,,,,,,,,,,,,,,,,,,,
"72493893231","2020-08-18T06:47:00","FM-15","7",,,,,,,,,,,,,,,,,,,,,,,,,,,,,,,,,,,,,,"29.98","63","68",,,,,"83",,"SCT:04 200","29.97","10.00","65","000",,"0",,,,,,,,,,,,,,,,,,,,,,,,,,,,,,,,,,,,,"MET07208/18/20 06:47:02 METAR KSQL 181447Z 00000KT 10SM SCT200 20/17 A2998 RMK","FM-15","7",,,,,,,,,,,,,,,,,,,,,,,,,,,,
"72493893231","2020-08-18T07:47:00","FM-15","7",,,,,,,,,,,,,,,,,,,,,,,,,,,,,,,,,,,,,,"29.99","63","72",,,,,"73",,"SCT:04 200","29.98","10.00","66","000",,"0",,,,,,,,,,,,,,,,,,,,,,,,,,,,,,,,,,,,,"MET07208/18/20 07:47:02 METAR KSQL 181547Z 00000KT 10SM SCT200 22/17 A2999 RMK","FM-15","7",,,,,,,,,,,,,,,,,,,,,,,,,,,,
"72493893231","2020-08-18T08:47:00","FM-15","7",,,,,,,,,,,,,,,,,,,,,,,,,,,,,,,,,,,,,,"29.99","64","73",,,,,"74",,"SCT:04 200","29.98","10.00","67","VRB",,"3",,,,,,,,,,,,,,,,,,,,,,,,,,,,,,,,,,,,,"MET07208/18/20 08:47:02 METAR KSQL 181647Z VRB03KT 10SM SCT200 23/18 A2999 RMK","FM-15","7",,,,,,,,,,,,,,,,,,,,,,,,,,,,
"72493893231","2020-08-18T09:47:00","FM-15","7",,,,,,,,,,,,,,,,,,,,,,,,,,,,,,,,,,,,,,"30.00","66","75",,,,,"74",,"FEW:02 200","29.99","10.00","69","VRB",,"3",,,,,,,,,,,,,,,,,,,,,,,,,,,,,,,,,,,,,"MET07208/18/20 09:47:02 METAR KSQL 181747Z VRB03KT 10SM FEW200 24/19 A3000 RMK","FM-15","7",,,,,,,,,,,,,,,,,,,,,,,,,,,,
"72493893231","2020-08-18T10:47:00","FM-15","7",,,,,,,,,,,,,,,,,,,,,,,,,,,,,,,,,,,,,,"29.98","64","82",,,,,"55",,"BKN:07 200","29.97","10.00","70","360",,"6",,,,,,,,,,,,,,,,,,,,,,,,,,,,,,,,,,,,,"MET07208/18/20 10:47:02 METAR KSQL 181847Z 36005KT 10SM BKN200 28/18 A2998 RMK","FM-15","7",,,,,,,,,,,,,,,,,,,,,,,,,,,,
"72493893231","2020-08-18T11:47:00","FM-15","7",,,,,,,,,,,,,,,,,,,,,,,,,,,,,,,,,,,,,,"29.97","64","82",,,,,"55",,"BKN:07 200","29.96","10.00","70","360",,"11",,,,,,,,,,,,,,,,,,,,,,,,,,,,,,,,,,,,,"MET07208/18/20 11:47:02 METAR KSQL 181947Z 36010KT 10SM BKN200 28/18 A2997 RMK","FM-15","7",,,,,,,,,,,,,,,,,,,,,,,,,,,,
"72493893231","2020-08-18T12:47:00","FM-15","7",,,,,,,,,,,,,,,,,,,,,,,,,,,,,,,,,,,,,,"29.96","57","86",,,,,"38",,"BKN:07 200","29.95","10.00","68","320",,"14",,,,,,,,,,,,,,,,,,,,,,,,,,,,,,,,,,,,,"MET07208/18/20 12:47:02 METAR KSQL 182047Z 32012KT 10SM BKN200 30/14 A2996 RMK","FM-15","7",,,,,,,,,,,,,,,,,,,,,,,,,,,,
"72493893231","2020-08-18T13:58:00","FM-15","7",,,,,,,,,,,,,,,,,,,,,,,,,,,,,,,,,,,,,,"29.94","52","93",,,,,"24",,"BKN:07 200","29.93","10.00","68","320",,"9",,,,,,,,,,,,,,,,,,,,,,,,,,,,,,,,,,,,,"MET07208/18/20 13:58:01 METAR KSQL 182158Z 32008KT 10SM BKN200 34/11 A2994 RMK","FM-15","7",,,,,,,,,,,,,,,,,,,,,,,,,,,,
"72493893231","2020-08-18T14:47:00","FM-15","7",,,,,,,,,,,,,,,,,,,,,,,,,,,,,,,,,,,,,,"29.93","61","90",,,,,"38",,"BKN:07 200","29.92","10.00","71","340",,"9",,,,,,,,,,,,,,,,,,,,,,,,,,,,,,,,,,,,,"MET07208/18/20 14:47:02 METAR KSQL 182247Z 34008KT 10SM BKN200 32/16 A2993 RMK","FM-15","7",,,,,,,,,,,,,,,,,,,,,,,,,,,,
"72493893231","2020-08-18T15:50:00","FM-15","7",,,,,,,,,,,,,,,,,,,,,,,,,,,,,,,,,,,,,,"29.91",,"95",,,,,,,"SCT:04 200","29.90","10.00",,"270","21","17",,,,,,,,,,,,,,,,,,,,,,,,,,,,,,,,,,,,,"MET07508/18/20 15:50:02 METAR KSQL 182350Z 27015G18KT 10SM SCT200 35/03 A2991 RMK","FM-15","7",,,,,,,,,,,,,,,,,,,,,,,,,,,,
"72493893231","2020-08-18T16:55:00","FM-15","7",,,,,,,,,,,,,,,,,,,,,,,,,,,,,,,,,,,,,,"29.90",,"93",,,,,,,"SCT:04 200","29.89","10.00",,"260",,"13",,,,,,,,,,,,,,,,,,,,,,,,,,,,,,,,,,,,,"MET07208/18/20 16:55:01 METAR KSQL 190055Z 26011KT 10SM SCT200 34/05 A2990 RMK","FM-15","7",,,,,,,,,,,,,,,,,,,,,,,,,,,,
"72493893231","2020-08-18T17:58:00","FM-15","7",,,,,,,,,,,,,,,,,,,,,,,,,,,,,,,,,,,,,,"29.90","61","79",,,,,"54",,"BKN:07 18","29.89","10.00","68","350",,"8",,,,,,,,,,,,,,,,,,,,,,,,,,,,,,,,,,,,,"MET07208/18/20 17:58:01 METAR KSQL 190158Z 35007KT 10SM BKN018 26/16 A2990 RMK","FM-15","7",,,,,,,,,,,,,,,,,,,,,,,,,,,,
"72493893231","2020-08-18T18:57:00","FM-15","7",,,,,,,,,,,,,,,,,,,,,,,,,,,,,,,,,,,,,,"29.91","57","73",,"FU:3 |FU |FU",,,"57",,"OVC:08 10","29.90","5.00","63","360",,"7",,,,,,,,,,,,,,,,,,,,,,,,,,,,,,,,,,,,,"MET07408/18/20 18:57:01 METAR KSQL 190257Z 36006KT 5SM FU OVC010 23/14 A2991 RMK","FM-15","7",,,,,,,,,,,,,,,,,,,,,,,,,,,,
"72493893231","2020-08-18T19:57:00","FM-15","7",,,,,,,,,,,,,,,,,,,,,,,,,,,,,,,,,,,,,,"29.93","55","73",,"FU:3 |FU |FU",,,"53",,"BKN:07 12 BKN:07 28 OVC:08 37","29.92","5.00","62","000",,"0",,,,,,,,,,,,,,,,,,,,,,,,,,,,,,,,,,,,,"MET09308/18/20 19:57:02 METAR KSQL 190357Z 00000KT 5SM FU BKN012 BKN028 OVC037 23/13 A2993 RMK LAST","FM-15","7",,,,,,,,,,,,,,,,,,,,,,,,,,,,
"72493893231","2020-08-18T20:15:00","FM-15","7",,,,,,,,,,,,,,,,,,,,,,,,,,,,,,,,,,,,,,"29.93","59","70",,"HZ:7 |FU |HZ",,,"69",,"BKN:07 12 BKN:07 28 OVC:08 39","29.92","6.00","63","100",,"3",,,,,,,,,,,,,,,,,,,,,,,,,,,,,,,,,,,,,"MET09208/18/20 20:15:02 METAR KSQL 190415Z 10003KT 6SM HZ BKN012 BKN028 OVC039 21/15 A2993 RMK AO2","FM-15","7",,,,,,,,,,,,,,,,,,,,,,,,,,,,
"72493893231","2020-08-18T20:35:00","FM-15","7",,,,,,,,,,,,,,,,,,,,,,,,,,,,,,,,,,,,,,"29.94","59","70",,"HZ:7 |FU |HZ",,,"69",,"OVC:08 12","29.93","6.00","63","000",,"0",,,,,,,,,,,,,,,,,,,,,,,,,,,,,,,,,,,,,"MET07808/18/20 20:35:02 METAR KSQL 190435Z 00000KT 6SM HZ OVC012 21/15 A2994 RMK AO2","FM-15","7",,,,,,,,,,,,,,,,,,,,,,,,,,,,
"72493893231","2020-08-18T20:55:00","FM-15","7",,,,,,,,,,,,,,,,,,,,,,,,,,,,,,,,,,,,,,"29.94","59","72",,,,,"65",,"OVC:08 10","29.93","7.00","64","020",,"5",,,,,,,,,,,,,,,,,,,,,,,,,,,,,,,,,,,,,"MET07508/18/20 20:55:02 METAR KSQL 190455Z 02004KT 7SM OVC010 22/15 A2994 RMK AO2","FM-15","7",,,,,,,,,,,,,,,,,,,,,,,,,,,,
"72493893231","2020-08-18T21:15:00","FM-15","7",,,,,,,,,,,,,,,,,,,,,,,,,,,,,,,,,,,,,,"29.94","55","72",,,,,"57",,"OVC:08 10","29.93","7.00","62","320",,"6",,,,,,,,,,,,,,,,,,,,,,,,,,,,,,,,,,,,,"MET07508/18/20 21:15:02 METAR KSQL 190515Z 32005KT 7SM OVC010 22/13 A2994 RMK AO2","FM-15","7",,,,,,,,,,,,,,,,,,,,,,,,,,,,
"72493893231","2020-08-18T21:35:00","FM-15","7",,,,,,,,,,,,,,,,,,,,,,,,,,,,,,,,,,,,,,"29.94","55","72",,,,,"57",,"BKN:07 5 OVC:08 12","29.93","8.00","62","000",,"0",,,,,,,,,,,,,,,,,,,,,,,,,,,,,,,,,,,,,"MET08208/18/20 21:35:02 METAR KSQL 190535Z 00000KT 8SM BKN005 OVC012 22/13 A2994 RMK AO2","FM-15","7",,,,,,,,,,,,,,,,,,,,,,,,,,,,
"72493893231","2020-08-18T21:55:00","FM-15","7",,,,,,,,,,,,,,,,,,,,,,,,,,,,,,,,,,,,,,"29.94","55","72",,,,,"57",,"OVC:08 5","29.93","8.00","62","000",,"0",,,,,,,,,,,,,,,,,,,,,,,,,,,,,,,,,,,,,"MET07508/18/20 21:55:02 METAR KSQL 190555Z 00000KT 8SM OVC005 22/13 A2994 RMK AO2","FM-15","7",,,,,,,,,,,,,,,,,,,,,,,,,,,,
"72493893231","2020-08-18T22:15:00","FM-15","7",,,,,,,,,,,,,,,,,,,,,,,,,,,,,,,,,,,,,,"29.94","59","73",,,,,"61",,"OVC:08 5","29.93","7.00","64","000",,"0",,,,,,,,,,,,,,,,,,,,,,,,,,,,,,,,,,,,,"MET07508/18/20 22:15:02 METAR KSQL 190615Z 00000KT 7SM OVC005 23/15 A2994 RMK AO2","FM-15","7",,,,,,,,,,,,,,,,,,,,,,,,,,,,
"72493893231","2020-08-18T22:35:00","FM-15","7",,,,,,,,,,,,,,,,,,,,,,,,,,,,,,,,,,,,,,"29.94","61","72",,"HZ:7 |FU |HZ",,,"69",,"BKN:07 4 BKN:07 36 OVC:08 50","29.93","6.00","65","000",,"0",,,,,,,,,,,,,,,,,,,,,,,,,,,,,,,,,,,,,"MET09208/18/20 22:35:02 METAR KSQL 190635Z 00000KT 6SM HZ BKN004 BKN036 OVC050 22/16 A2994 RMK AO2","FM-15","7",,,,,,,,,,,,,,,,,,,,,,,,,,,,
"72493893231","2020-08-18T22:55:00","FM-15","7",,,,,,,,,,,,,,,,,,,,,,,,,,,,,,,,,,,,,,"29.94","59","72",,"HZ:7 |FU |HZ",,,"65",,"FEW:02 4 SCT:04 8 OVC:08 47","29.93","5.00","64","000",,"0",,,,,,,,,,,,,,,,,,,,,,,,,,,,,,,,,,,,,"MET09208/18/20 22:55:02 METAR KSQL 190655Z 00000KT 5SM HZ FEW004 SCT008 OVC047 22/15 A2994 RMK AO2","FM-15","7",,,,,,,,,,,,,,,,,,,,,,,,,,,,
"72493893231","2020-08-18T23:15:00","FM-15","7",,,,,,,,,,,,,,,,,,,,,,,,,,,,,,,,,,,,,,"29.94","63","73",,"HZ:7 |FU |HZ",,,"69",,"BKN:07 3 BKN:07 8 OVC:08 47","29.93","5.00","67","030",,"3",,,,,,,,,,,,,,,,,,,,,,,,,,,,,,,,,,,,,"MET09208/18/20 23:15:02 METAR KSQL 190715Z 03003KT 5SM HZ BKN003 BKN008 OVC047 23/17 A2994 RMK AO2","FM-15","7",,,,,,,,,,,,,,,,,,,,,,,,,,,,
"72493893231","2020-08-18T23:35:00","FM-15","7",,,,,,,,,,,,,,,,,,,,,,,,,,,,,,,,,,,,,,"29.94","59","72",,"HZ:7 |FU |HZ",,,"65",,"BKN:07 3 OVC:08 48","29.93","6.00","64","000",,"0",,,,,,,,,,,,,,,,,,,,,,,,,,,,,,,,,,,,,"MET08508/18/20 23:35:02 METAR KSQL 190735Z 00000KT 6SM HZ BKN003 OVC048 22/15 A2994 RMK AO2","FM-15","7",,,,,,,,,,,,,,,,,,,,,,,,,,,,
"72493893231","2020-08-18T23:55:00","FM-15","7",,,,,,,,,,,,,,,,,,,,,,,,,,,,,,,,,,,,,,"29.94","61","72",,,,,"69",,"BKN:07 3 BKN:07 8 OVC:08 49","29.93","7.00","65","000",,"0",,,,,,,,,,,,,,,,,,,,,,,,,,,,,,,,,,,,,"MET08908/18/20 23:55:02 METAR KSQL 190755Z 00000KT 7SM BKN003 BKN008 OVC049 22/16 A2994 RMK AO2","FM-15","7",,,,,,,,,,,,,,,,,,,,,,,,,,,,
"72493893231","2020-08-18T23:59:00","SOD  ","O",,,,,,,,,,,,,,,,,,,,,,,,,,,,,,,,,,"HZ",,,,,,,,,,,,,,,,,,,,,,,,,,,,,,,,,,,,,,,,,,,,,,,,,,,,,,,,,"SOD  ","O",,,,,,,,,,,,,,,,,,,,,,,,,"0528","1856",,
"72493893231","2020-08-19T00:15:00","FM-15","7",,,,,,,,,,,,,,,,,,,,,,,,,,,,,,,,,,,,,,"29.94","59","70",,,,,"69",,"FEW:02 5 BKN:07 23 OVC:08 34","29.93","7.00","63","000",,"0",,,,,,,,,,,,,,,,,,,,,,,,,,,,,,,,,,,,,"MET08908/19/20 00:15:02 METAR KSQL 190815Z 00000KT 7SM FEW005 BKN023 OVC034 21/15 A2994 RMK AO2","FM-15","7",,,,,,,,,,,,,,,,,,,,,,,,,,,,
"72493893231","2020-08-19T00:35:00","FM-15","7",,,,,,,,,,,,,,,,,,,,,,,,,,,,,,,,,,,,,,"29.94","57","70",,,,,"64",,"OVC:08 21","29.93","7.00","62","300",,"3",,,,,,,,,,,,,,,,,,,,,,,,,,,,,,,,,,,,,"MET07508/19/20 00:35:02 METAR KSQL 190835Z 30003KT 7SM OVC021 21/14 A2994 RMK AO2","FM-15","7",,,,,,,,,,,,,,,,,,,,,,,,,,,,
"72493893231","2020-08-19T00:55:00","FM-15","7",,,,,,,,,,,,,,,,,,,,,,,,,,,,,,,,,,,,,,"29.93","57","68",,,,,"69",,"OVC:08 19","29.92","8.00","62","320",,"3",,,,,,,,,,,,,,,,,,,,,,,,,,,,,,,,,,,,,"MET07508/19/20 00:55:02 METAR KSQL 190855Z 32003KT 8SM OVC019 20/14 A2993 RMK AO2","FM-15","7",,,,,,,,,,,,,,,,,,,,,,,,,,,,
"72493893231","2020-08-19T01:15:00","FM-15","7",,,,,,,,,,,,,,,,,,,,,,,,,,,,,,,,,,,,,,"29.93","57","68",,,,,"69",,"SCT:04 14 OVC:08 19","29.92","10.00","62","310",,"5",,,,,,,,,,,,,,,,,,,,,,,,,,,,,,,,,,,,,"MET08308/19/20 01:15:02 METAR KSQL 190915Z 31004KT 10SM SCT014 OVC019 20/14 A2993 RMK AO2","FM-15","7",,,,,,,,,,,,,,,,,,,,,,,,,,,,
"72493893231","2020-08-19T01:35:00","FM-15","7",,,,,,,,,,,,,,,,,,,,,,,,,,,,,,,,,,,,,,"29.93","55","68",,,,,"64",,"SCT:04 14 OVC:08 19","29.92","10.00","60","320",,"6",,,,,,,,,,,,,,,,,,,,,,,,,,,,,,,,,,,,,"MET08308/19/20 01:35:02 METAR KSQL 190935Z 32005KT 10SM SCT014 OVC019 20/13 A2993 RMK AO2","FM-15","7",,,,,,,,,,,,,,,,,,,,,,,,,,,,
"72493893231","2020-08-19T01:55:00","FM-15","7",,,,,,,,,,,,,,,,,,,,,,,,,,,,,,,,,,,,,,"29.92","55","68",,,,,"64",,"BKN:07 14 OVC:08 19","29.91","10.00","60","320",,"5",,,,,,,,,,,,,,,,,,,,,,,,,,,,,,,,,,,,,"MET08308/19/20 01:55:02 METAR KSQL 190955Z 32004KT 10SM BKN014 OVC019 20/13 A2992 RMK AO2","FM-15","7",,,,,,,,,,,,,,,,,,,,,,,,,,,,
"72493893231","2020-08-19T02:15:00","FM-15","7",,,,,,,,,,,,,,,,,,,,,,,,,,,,,,,,,,,,,,"29.92","57","68",,,,,"69",,"BKN:07 14 OVC:08 19","29.91","10.00","62","000",,"0",,,,,,,,,,,,,,,,,,,,,,,,,,,,,,,,,,,,,"MET08308/19/20 02:15:02 METAR KSQL 191015Z 00000KT 10SM BKN014 OVC019 20/14 A2992 RMK AO2","FM-15","7",,,,,,,,,,,,,,,,,,,,,,,,,,,,
"72493893231","2020-08-19T02:35:00","FM-15","7",,,,,,,,,,,,,,,,,,,,,,,,,,,,,,,,,,,,,,"29.93","57","66",,,,,"73",,"BKN:07 14 OVC:08 19","29.92","10.00","61","000",,"0",,,,,,,,,,,,,,,,,,,,,,,,,,,,,,,,,,,,,"MET08308/19/20 02:35:02 METAR KSQL 191035Z 00000KT 10SM BKN014 OVC019 19/14 A2993 RMK AO2","FM-15","7",,,,,,,,,,,,,,,,,,,,,,,,,,,,
"72493893231","2020-08-19T02:55:00","FM-15","7",,,,,,,,,,,,,,,,,,,,,,,,,,,,,,,,,,,,,,"29.93","57","66",,,,,"73",,"SCT:04 14 OVC:08 21","29.92","10.00","61","000",,"0",,,,,,,,,,,,,,,,,,,,,,,,,,,,,,,,,,,,,"MET08308/19/20 02:55:02 METAR KSQL 191055Z 00000KT 10SM SCT014 OVC021 19/14 A2993 RMK AO2","FM-15","7",,,,,,,,,,,,,,,,,,,,,,,,,,,,
"72493893231","2020-08-19T03:15:00","FM-15","7",,,,,,,,,,,,,,,,,,,,,,,,,,,,,,,,,,,,,,"29.92","55","66",,,,,"68",,"OVC:08 19","29.91","10.00","60","000",,"0",,,,,,,,,,,,,,,,,,,,,,,,,,,,,,,,,,,,,"MET07608/19/20 03:15:02 METAR KSQL 191115Z 00000KT 10SM OVC019 19/13 A2992 RMK AO2","FM-15","7",,,,,,,,,,,,,,,,,,,,,,,,,,,,
"72493893231","2020-08-19T03:35:00","FM-15","7",,,,,,,,,,,,,,,,,,,,,,,,,,,,,,,,,,,,,,"29.92","55","66",,,,,"68",,"FEW:02 13 OVC:08 19","29.91","10.00","60","290",,"3",,,,,,,,,,,,,,,,,,,,,,,,,,,,,,,,,,,,,"MET08308/19/20 03:35:02 METAR KSQL 191135Z 29003KT 10SM FEW013 OVC019 19/13 A2992 RMK AO2","FM-15","7",,,,,,,,,,,,,,,,,,,,,,,,,,,,
"72493893231","2020-08-19T03:55:00","FM-15","7",,,,,,,,,,,,,,,,,,,,,,,,,,,,,,,,,,,,,,"29.92","55","66",,,,,"68",,"OVC:08 17","29.91","10.00","60","310",,"5",,,,,,,,,,,,,,,,,,,,,,,,,,,,,,,,,,,,,"MET07608/19/20 03:55:02 METAR KSQL 191155Z 31004KT 10SM OVC017 19/13 A2992 RMK AO2","FM-15","7",,,,,,,,,,,,,,,,,,,,,,,,,,,,
"72493893231","2020-08-19T04:15:00","FM-15","7",,,,,,,,,,,,,,,,,,,,,,,,,,,,,,,,,,,,,,"29.92","54","66",,,,,"64",,"OVC:08 17","29.91","10.00","59","310",,"3",,,,,,,,,,,,,,,,,,,,,,,,,,,,,,,,,,,,,"MET07608/19/20 04:15:02 METAR KSQL 191215Z 31003KT 10SM OVC017 19/12 A2992 RMK AO2","FM-15","7",,,,,,,,,,,,,,,,,,,,,,,,,,,,
"72493893231","2020-08-19T04:35:00","FM-15","7",,,,,,,,,,,,,,,,,,,,,,,,,,,,,,,,,,,,,,"29.92","54","66",,,,,"64",,"FEW:02 13 BKN:07 19 OVC:08 25","29.91","10.00","59","310",,"3",,,,,,,,,,,,,,,,,,,,,,,,,,,,,,,,,,,,,"MET09008/19/20 04:35:02 METAR KSQL 191235Z 31003KT 10SM FEW013 BKN019 OVC025 19/12 A2992 RMK AO2","FM-15","7",,,,,,,,,,,,,,,,,,,,,,,,,,,,
"72493893231","2020-08-19T04:55:00","FM-15","7",,,,,,,,,,,,,,,,,,,,,,,,,,,,,,,,,,,,,,"29.92","54","66",,,,,"64",,"FEW:02 19 OVC:08 25","29.91","9.00","59","000",,"0",,,,,,,,,,,,,,,,,,,,,,,,,,,,,,,,,,,,,"MET08208/19/20 04:55:02 METAR KSQL 191255Z 00000KT 9SM FEW019 OVC025 19/12 A2992 RMK AO2","FM-15","7",,,,,,,,,,,,,,,,,,,,,,,,,,,,
"72493893231","2020-08-19T05:15:00","FM-15","7",,,,,,,,,,,,,,,,,,,,,,,,,,,,,,,,,,,,,,"29.92","54","66",,,,,"64",,"OVC:08 25","29.91","7.00","59","000",,"0",,,,,,,,,,,,,,,,,,,,,,,,,,,,,,,,,,,,,"MET07508/19/20 05:15:02 METAR KSQL 191315Z 00000KT 7SM OVC025 19/12 A2992 RMK AO2","FM-15","7",,,,,,,,,,,,,,,,,,,,,,,,,,,,
"72493893231","2020-08-19T05:35:00","FM-15","7",,,,,,,,,,,,,,,,,,,,,,,,,,,,,,,,,,,,,,"29.92","54","66",,"HZ:7 |FU |HZ",,,"64",,"OVC:08 25","29.91","5.00","59","000",,"0",,,,,,,,,,,,,,,,,,,,,,,,,,,,,,,,,,,,,"MET07808/19/20 05:35:02 METAR KSQL 191335Z 00000KT 5SM HZ OVC025 19/12 A2992 RMK AO2","FM-15","7",,,,,,,,,,,,,,,,,,,,,,,,,,,,
"72493893231","2020-08-19T05:49:00","FM-15","4",,,,,,,,,,,,,,,,,,,,,,,,,,,,,,,,,,,,,,"29.93","57","66",,"||FU",,,"73",,,,"4.00",,"000",,"0",,,,,,,,,,,,,,,,,,,,,,,,,,,,,,,,,,,,,"MET053METAR KSQL 191349Z 00000KT 4SM FU OVC025 19/14 A2993=","FM-15","4",,,,,,,,,,,,,,,,,,,,,,,,,,,,
"72493893231","2020-08-19T05:55:00","FM-15","7",,,,,,,,,,,,,,,,,,,,,,,,,,,,,,,,,,,,,,"29.93","59","66",,,,,"78",,"OVC:08 25","29.92","7.00","62","000",,"0",,,,,,,,,,,,,,,,,,,,,,,,,,,,,,,,,,,,,"MET07508/19/20 05:55:02 METAR KSQL 191355Z 00000KT 7SM OVC025 19/15 A2993 RMK AO2","FM-15","7",,,,,,,,,,,,,,,,,,,,,,,,,,,,
"72493893231","2020-08-19T06:50:00","FM-15","7",,,,,,,,,,,,,,,,,,,,,,,,,,,,,,,,,,,,,,"29.94","57","66",,"FU:3 HZ:7 |FU |FU HZ",,,"73",,"OVC:08 25","29.93","4.00","61","VRB",,"3",,,,,,,,,,,,,,,,,,,,,,,,,,,,,,,,,,,,,"MET07708/19/20 06:50:02 METAR KSQL 191450Z VRB03KT 4SM FU HZ OVC025 19/14 A2994 RMK","FM-15","7",,,,,,,,,,,,,,,,,,,,,,,,,,,,
"72493893231","2020-08-19T07:47:00","FM-15","7",,,,,,,,,,,,,,,,,,,,,,,,,,,,,,,,,,,,,,"29.95","57","70",,,,,"64",,"OVC:08 25","29.94","4.00","62","000",,"0",,,,,,,,,,,,,,,,,,,,,,,,,,,,,,,,,,,,,"MET07108/19/20 07:47:02 METAR KSQL 191547Z 00000KT 4SM OVC025 21/14 A2995 RMK","FM-15","7",,,,,,,,,,,,,,,,,,,,,,,,,,,,
"72493893231","2020-08-19T08:50:00","FM-15","7",,,,,,,,,,,,,,,,,,,,,,,,,,,,,,,,,,,,,,"29.94","61","72",,"FU:3 HZ:7 |FU |FU HZ",,,"69",,"OVC:08 27","29.93","4.00","65","000",,"0",,,,,,,,,,,,,,,,,,,,,,,,,,,,,,,,,,,,,"MET07708/19/20 08:50:02 METAR KSQL 191650Z 00000KT 4SM FU HZ OVC027 22/16 A2994 RMK","FM-15","7",,,,,,,,,,,,,,,,,,,,,,,,,,,,
"72493893231","2020-08-19T09:50:00","FM-15","7",,,,,,,,,,,,,,,,,,,,,,,,,,,,,,,,,,,,,,"29.95","63","75",,,,,"65",,"OVC:08 30","29.94","4.00","67","000",,"0",,,,,,,,,,,,,,,,,,,,,,,,,,,,,,,,,,,,,"MET07108/19/20 09:50:02 METAR KSQL 191750Z 00000KT 4SM OVC030 24/17 A2995 RMK","FM-15","7",,,,,,,,,,,,,,,,,,,,,,,,,,,,
"72493893231","2020-08-19T10:01:00","FM-15","7",,,,,,,,,,,,,,,,,,,,,,,,,,,,,,,,,,,,,,"29.95","63","75",,"FU:3 HZ:7 |FU |FU HZ",,,"65",,"OVC:08 30","29.94","2.50","67","000",,"0",,,,,,,,,,,,,,,,,,,,,,,,,,,,,,,,,,,,,"MET08108/19/20 10:01:02 METAR KSQL 191801Z 00000KT 2 1/2SM FU HZ OVC030 24/17 A2995 RMK","FM-15","7",,,,,,,,,,,,,,,,,,,,,,,,,,,,
"72493893231","2020-08-19T10:47:00","FM-15","7",,,,,,,,,,,,,,,,,,,,,,,,,,,,,,,,,,,,,,"29.94","59","82",,"FU:3 HZ:7 |FU |FU HZ",,,"45",,"OVC:08 18","29.93","2.50","68","VRB",,"3",,,,,,,,,,,,,,,,,,,,,,,,,,,,,,,,,,,,,"MET08108/19/20 10:47:02 METAR KSQL 191847Z VRB03KT 2 1/2SM FU HZ OVC018 28/15 A2994 RMK","FM-15","7",,,,,,,,,,,,,,,,,,,,,,,,,,,,
"72493893231","2020-08-19T11:47:00","FM-15","7",,,,,,,,,,,,,,,,,,,,,,,,,,,,,,,,,,,,,,"29.93","54","86",,,,,"33",,"OVC:08 20","29.92","2.50","66","320",,"8",,,,,,,,,,,,,,,,,,,,,,,,,,,,,,,,,,,,,"MET07508/19/20 11:47:02 METAR KSQL 191947Z 32007KT 2 1/2SM OVC020 30/12 A2993 RMK","FM-15","7",,,,,,,,,,,,,,,,,,,,,,,,,,,,
"72493893231","2020-08-19T12:47:00","FM-15","7",,,,,,,,,,,,,,,,,,,,,,,,,,,,,,,,,,,,,,"29.92","54","86",,,,,"33",,"BKN:07 14","29.91","5.00","66","320",,"7",,,,,,,,,,,,,,,,,,,,,,,,,,,,,,,,,,,,,"MET07108/19/20 12:47:02 METAR KSQL 192047Z 32006KT 5SM BKN014 30/12 A2992 RMK","FM-15","7",,,,,,,,,,,,,,,,,,,,,,,,,,,,
"72493893231","2020-08-19T13:58:00","FM-15","7",,,,,,,,,,,,,,,,,,,,,,,,,,,,,,,,,,,,,,"29.90","54","86",,"FU:3 HZ:7 |FU |FU HZ",,,"33",,"SCT:04 14","29.89","5.00","66","320",,"7",,,,,,,,,,,,,,,,,,,,,,,,,,,,,,,,,,,,,"MET07708/19/20 13:58:02 METAR KSQL 192158Z 32006KT 5SM FU HZ SCT014 30/12 A2990 RMK","FM-15","7",,,,,,,,,,,,,,,,,,,,,,,,,,,,
"72493893231","2020-08-19T14:56:00","FM-15","7",,,,,,,,,,,,,,,,,,,,,,,,,,,,,,,,,,,,,,"29.88","48","86",,"FU:3 |FU |FU",,,"27",,"FEW:02 14 SCT:04 60","29.87","6.00","64","300",,"9",,,,,,,,,,,,,,,,,,,,,,,,,,,,,,,,,,,,,"MET08108/19/20 14:56:02 METAR KSQL 192256Z 30008KT 6SM FU FEW014 SCT060 30/09 A2988 RMK","FM-15","7",,,,,,,,,,,,,,,,,,,,,,,,,,,,
"72493893231","2020-08-19T15:47:00","FM-15","7",,,,,,,,,,,,,,,,,,,,,,,,,,,,,,,,,,,,,,"29.87","32","93",,"FU:3 |FU |FU",,,"11",,"FEW:02 14 SCT:04 60","29.86","10.00","61","270",,"16",,,,,,,,,,,,,,,,,,,,,,,,,,,,,,,,,,,,,"MET08208/19/20 15:47:02 METAR KSQL 192347Z 27014KT 10SM FU FEW014 SCT060 34/00 A2987 RMK","FM-15","7",,,,,,,,,,,,,,,,,,,,,,,,,,,,
"72493893231","2020-08-19T16:50:00","FM-15","7",,,,,,,,,,,,,,,,,,,,,,,,,,,,,,,,,,,,,,"29.86","37","90",,"FU:3 |FU |FU",,,"16",,"FEW:02 14","29.85","10.00","61","260","23","16",,,,,,,,,,,,,,,,,,,,,,,,,,,,,,,,,,,,,"MET07808/19/20 16:50:01 METAR KSQL 200050Z 26014G20KT 10SM FU FEW014 32/03 A2986 RMK","FM-15","7",,,,,,,,,,,,,,,,,,,,,,,,,,,,
"72493893231","2020-08-19T17:47:00","FM-15","7",,,,,,,,,,,,,,,,,,,,,,,,,,,,,,,,,,,,,,"29.86","45","82",,"FU:3 |FU |FU",,,"26",,"FEW:02 14","29.85","10.00","61","250",,"15",,,,,,,,,,,,,,,,,,,,,,,,,,,,,,,,,,,,,"MET07508/19/20 17:47:01 METAR KSQL 200147Z 25013KT 10SM FU FEW014 28/07 A2986 RMK","FM-15","7",,,,,,,,,,,,,,,,,,,,,,,,,,,,
"72493893231","2020-08-19T18:47:00","FM-15","7",,,,,,,,,,,,,,,,,,,,,,,,,,,,,,,,,,,,,,"29.89","46","77",,"FU:3 |FU |FU",,,"34",,"FEW:02 14","29.88","10.00","60","250",,"6",,,,,,,,,,,,,,,,,,,,,,,,,,,,,,,,,,,,,"MET07508/19/20 18:47:02 METAR KSQL 200247Z 25005KT 10SM FU FEW014 25/08 A2989 RMK","FM-15","7",,,,,,,,,,,,,,,,,,,,,,,,,,,,
"72493893231","2020-08-19T19:47:00","FM-15","7",,,,,,,,,,,,,,,,,,,,,,,,,,,,,,,,,,,,,,"29.92","48","73",,"FU:3 |FU |FU",,,"41",,"SCT:04 25","29.91","10.00","59","320",,"6",,,,,,,,,,,,,,,,,,,,,,,,,,,,,,,,,,,,,"MET08008/19/20 19:47:02 METAR KSQL 200347Z 32005KT 10SM FU SCT025 23/09 A2992 RMK LAST","FM-15","7",,,,,,,,,,,,,,,,,,,,,,,,,,,,
"72493893231","2020-08-19T20:15:00","FM-15","7",,,,,,,,,,,,,,,,,,,,,,,,,,,,,,,,,,,,,,"29.91","46","73",,,,,"38",,"CLR:00","29.90","10.00","58","310",,"8",,,,,,,,,,,,,,,,,,,,,,,,,,,,,,,,,,,,,"MET07308/19/20 20:15:02 METAR KSQL 200415Z 31007KT 10SM CLR 23/08 A2991 RMK AO2","FM-15","7",,,,,,,,,,,,,,,,,,,,,,,,,,,,
"72493893231","2020-08-19T20:35:00","FM-15","7",,,,,,,,,,,,,,,,,,,,,,,,,,,,,,,,,,,,,,"29.92","45","75",,,,,"34",,"CLR:00","29.91","10.00","59","040",,"6",,,,,,,,,,,,,,,,,,,,,,,,,,,,,,,,,,,,,"MET07308/19/20 20:35:02 METAR KSQL 200435Z 04005KT 10SM CLR 24/07 A2992 RMK AO2","FM-15","7",,,,,,,,,,,,,,,,,,,,,,,,,,,,
"72493893231","2020-08-19T20:55:00","FM-15","7",,,,,,,,,,,,,,,,,,,,,,,,,,,,,,,,,,,,,,"29.92","55","72",,,,,"57",,"CLR:00","29.91","10.00","62","060",,"5",,,,,,,,,,,,,,,,,,,,,,,,,,,,,,,,,,,,,"MET07308/19/20 20:55:02 METAR KSQL 200455Z 06004KT 10SM CLR 22/13 A2992 RMK AO2","FM-15","7",,,,,,,,,,,,,,,,,,,,,,,,,,,,
"72493893231","2020-08-19T21:15:00","FM-15","7",,,,,,,,,,,,,,,,,,,,,,,,,,,,,,,,,,,,,,"29.92","57","66",,,,,"73",,"FEW:02 14","29.91","10.00","61","000",,"0",,,,,,,,,,,,,,,,,,,,,,,,,,,,,,,,,,,,,"MET07608/19/20 21:15:02 METAR KSQL 200515Z 00000KT 10SM FEW014 19/14 A2992 RMK AO2","FM-15","7",,,,,,,,,,,,,,,,,,,,,,,,,,,,
"72493893231","2020-08-19T21:35:00","FM-15","7",,,,,,,,,,,,,,,,,,,,,,,,,,,,,,,,,,,,,,"29.92","57","68",,,,,"69",,"SCT:04 14","29.91","10.00","62","000",,"0",,,,,,,,,,,,,,,,,,,,,,,,,,,,,,,,,,,,,"MET07608/19/20 21:35:02 METAR KSQL 200535Z 00000KT 10SM SCT014 20/14 A2992 RMK AO2","FM-15","7",,,,,,,,,,,,,,,,,,,,,,,,,,,,
"72493893231","2020-08-19T21:55:00","FM-15","7",,,,,,,,,,,,,,,,,,,,,,,,,,,,,,,,,,,,,,"29.92","52","68",,,,,"56",,"FEW:02 14","29.91","10.00","59","000",,"0",,,,,,,,,,,,,,,,,,,,,,,,,,,,,,,,,,,,,"MET07608/19/20 21:55:02 METAR KSQL 200555Z 00000KT 10SM FEW014 20/11 A2992 RMK AO2","FM-15","7",,,,,,,,,,,,,,,,,,,,,,,,,,,,
"72493893231","2020-08-19T22:15:00","FM-15","7",,,,,,,,,,,,,,,,,,,,,,,,,,,,,,,,,,,,,,"29.92","50","68",,,,,"53",,"SCT:04 3","29.91","10.00","58","340",,"3",,,,,,,,,,,,,,,,,,,,,,,,,,,,,,,,,,,,,"MET07608/19/20 22:15:02 METAR KSQL 200615Z 34003KT 10SM SCT003 20/10 A2992 RMK AO2","FM-15","7",,,,,,,,,,,,,,,,,,,,,,,,,,,,
"72493893231","2020-08-19T22:35:00","FM-15","7",,,,,,,,,,,,,,,,,,,,,,,,,,,,,,,,,,,,,,"29.92","54","68",,,,,"60",,"SCT:04 3","29.91","10.00","60","360",,"6",,,,,,,,,,,,,,,,,,,,,,,,,,,,,,,,,,,,,"MET07608/19/20 22:35:02 METAR KSQL 200635Z 36005KT 10SM SCT003 20/12 A2992 RMK AO2","FM-15","7",,,,,,,,,,,,,,,,,,,,,,,,,,,,
"72493893231","2020-08-19T22:55:00","FM-15","7",,,,,,,,,,,,,,,,,,,,,,,,,,,,,,,,,,,,,,"29.93","54","68",,,,,"60",,"CLR:00","29.92","10.00","60","030",,"6",,,,,,,,,,,,,,,,,,,,,,,,,,,,,,,,,,,,,"MET07308/19/20 22:55:02 METAR KSQL 200655Z 03005KT 10SM CLR 20/12 A2993 RMK AO2","FM-15","7",,,,,,,,,,,,,,,,,,,,,,,,,,,,
"72493893231","2020-08-19T23:15:00","FM-15","7",,,,,,,,,,,,,,,,,,,,,,,,,,,,,,,,,,,,,,"29.93","54","66",,,,,"64",,"CLR:00","29.92","10.00","59","350",,"6",,,,,,,,,,,,,,,,,,,,,,,,,,,,,,,,,,,,,"MET07308/19/20 23:15:02 METAR KSQL 200715Z 35005KT 10SM CLR 19/12 A2993 RMK AO2","FM-15","7",,,,,,,,,,,,,,,,,,,,,,,,,,,,
"72493893231","2020-08-19T23:35:00","FM-15","7",,,,,,,,,,,,,,,,,,,,,,,,,,,,,,,,,,,,,,"29.93","52","66",,,,,"60",,"CLR:00","29.92","10.00","58","310",,"6",,,,,,,,,,,,,,,,,,,,,,,,,,,,,,,,,,,,,"MET07308/19/20 23:35:02 METAR KSQL 200735Z 31005KT 10SM CLR 19/11 A2993 RMK AO2","FM-15","7",,,,,,,,,,,,,,,,,,,,,,,,,,,,
"72493893231","2020-08-19T23:55:00","FM-15","7",,,,,,,,,,,,,,,,,,,,,,,,,,,,,,,,,,,,,,"29.92","54","66",,,,,"64",,"CLR:00","29.91","10.00","59","270",,"3",,,,,,,,,,,,,,,,,,,,,,,,,,,,,,,,,,,,,"MET07308/19/20 23:55:02 METAR KSQL 200755Z 27003KT 10SM CLR 19/12 A2992 RMK AO2","FM-15","7",,,,,,,,,,,,,,,,,,,,,,,,,,,,
"72493893231","2020-08-19T23:59:00","SOD  ","O",,,,,,,,,,,,,,,,,,,,,,,,,,,,,,,,,,"HZ",,,,,,,,,,,,,,,,,,,,,,,,,,,,,,,,,,,,,,,,,,,,,,,,,,,,,,,,,"SOD  ","O",,,,,,,,,,,,,,,,,,,,,,,,,"0529","1855",,
"72493893231","2020-08-20T00:15:00","FM-15","7",,,,,,,,,,,,,,,,,,,,,,,,,,,,,,,,,,,,,,"29.92","54","66",,,,,"64",,"CLR:00","29.91","10.00","59","330",,"3",,,,,,,,,,,,,,,,,,,,,,,,,,,,,,,,,,,,,"MET07308/20/20 00:15:02 METAR KSQL 200815Z 33003KT 10SM CLR 19/12 A2992 RMK AO2","FM-15","7",,,,,,,,,,,,,,,,,,,,,,,,,,,,
"72493893231","2020-08-20T00:35:00","FM-15","7",,,,,,,,,,,,,,,,,,,,,,,,,,,,,,,,,,,,,,"29.92","55","66",,,,,"68",,"CLR:00","29.91","10.00","60","340",,"3",,,,,,,,,,,,,,,,,,,,,,,,,,,,,,,,,,,,,"MET07308/20/20 00:35:02 METAR KSQL 200835Z 34003KT 10SM CLR 19/13 A2992 RMK AO2","FM-15","7",,,,,,,,,,,,,,,,,,,,,,,,,,,,
"72493893231","2020-08-20T00:55:00","FM-15","7",,,,,,,,,,,,,,,,,,,,,,,,,,,,,,,,,,,,,,"29.92","55","64",,,,,"73",,"CLR:00","29.91","10.00","59","340",,"5",,,,,,,,,,,,,,,,,,,,,,,,,,,,,,,,,,,,,"MET07308/20/20 00:55:02 METAR KSQL 200855Z 34004KT 10SM CLR 18/13 A2992 RMK AO2","FM-15","7",,,,,,,,,,,,,,,,,,,,,,,,,,,,
"72493893231","2020-08-20T01:15:00","FM-15","7",,,,,,,,,,,,,,,,,,,,,,,,,,,,,,,,,,,,,,"29.91","54","64",,,,,"68",,"CLR:00","29.90","10.00","58","330",,"3",,,,,,,,,,,,,,,,,,,,,,,,,,,,,,,,,,,,,"MET07308/20/20 01:15:02 METAR KSQL 200915Z 33003KT 10SM CLR 18/12 A2991 RMK AO2","FM-15","7",,,,,,,,,,,,,,,,,,,,,,,,,,,,
"72493893231","2020-08-20T01:35:00","FM-15","7",,,,,,,,,,,,,,,,,,,,,,,,,,,,,,,,,,,,,,"29.91","54","63",,,,,"73",,"CLR:00","29.90","10.00","58","340",,"6",,,,,,,,,,,,,,,,,,,,,,,,,,,,,,,,,,,,,"MET07308/20/20 01:35:02 METAR KSQL 200935Z 34005KT 10SM CLR 17/12 A2991 RMK AO2","FM-15","7",,,,,,,,,,,,,,,,,,,,,,,,,,,,
"72493893231","2020-08-20T01:55:00","FM-15","7",,,,,,,,,,,,,,,,,,,,,,,,,,,,,,,,,,,,,,"29.91","54","63",,,,,"73",,"CLR:00","29.90","10.00","58","330",,"3",,,,,,,,,,,,,,,,,,,,,,,,,,,,,,,,,,,,,"MET07308/20/20 01:55:02 METAR KSQL 200955Z 33003KT 10SM CLR 17/12 A2991 RMK AO2","FM-15","7",,,,,,,,,,,,,,,,,,,,,,,,,,,,
"72493893231","2020-08-20T02:15:00","FM-15","7",,,,,,,,,,,,,,,,,,,,,,,,,,,,,,,,,,,,,,"29.91","54","63",,,,,"73",,"CLR:00","29.90","10.00","58","350",,"3",,,,,,,,,,,,,,,,,,,,,,,,,,,,,,,,,,,,,"MET07308/20/20 02:15:02 METAR KSQL 201015Z 35003KT 10SM CLR 17/12 A2991 RMK AO2","FM-15","7",,,,,,,,,,,,,,,,,,,,,,,,,,,,
"72493893231","2020-08-20T02:35:00","FM-15","7",,,,,,,,,,,,,,,,,,,,,,,,,,,,,,,,,,,,,,"29.92","54","63",,,,,"73",,"CLR:00","29.91","10.00","58","300",,"6",,,,,,,,,,,,,,,,,,,,,,,,,,,,,,,,,,,,,"MET07308/20/20 02:35:02 METAR KSQL 201035Z 30005KT 10SM CLR 17/12 A2992 RMK AO2","FM-15","7",,,,,,,,,,,,,,,,,,,,,,,,,,,,
"72493893231","2020-08-20T02:55:00","FM-15","7",,,,,,,,,,,,,,,,,,,,,,,,,,,,,,,,,,,,,,"29.92","55","59",,,,,"88",,"CLR:00","29.91","10.00","57","340",,"6",,,,,,,,,,,,,,,,,,,,,,,,,,,,,,,,,,,,,"MET07308/20/20 02:55:02 METAR KSQL 201055Z 34005KT 10SM CLR 15/13 A2992 RMK AO2","FM-15","7",,,,,,,,,,,,,,,,,,,,,,,,,,,,
"72493893231","2020-08-20T03:15:00","FM-15","7",,,,,,,,,,,,,,,,,,,,,,,,,,,,,,,,,,,,,,"29.92","55","59",,,,,"88",,"FEW:02 19","29.91","10.00","57","300",,"6",,,,,,,,,,,,,,,,,,,,,,,,,,,,,,,,,,,,,"MET07608/20/20 03:15:02 METAR KSQL 201115Z 30005KT 10SM FEW019 15/13 A2992 RMK AO2","FM-15","7",,,,,,,,,,,,,,,,,,,,,,,,,,,,
"72493893231","2020-08-20T03:35:00","FM-15","7",,,,,,,,,,,,,,,,,,,,,,,,,,,,,,,,,,,,,,"29.92","54","59",,,,,"82",,"SCT:04 19","29.91","10.00","56","310",,"3",,,,,,,,,,,,,,,,,,,,,,,,,,,,,,,,,,,,,"MET07608/20/20 03:35:02 METAR KSQL 201135Z 31003KT 10SM SCT019 15/12 A2992 RMK AO2","FM-15","7",,,,,,,,,,,,,,,,,,,,,,,,,,,,
"72493893231","2020-08-20T03:55:00","FM-15","7",,,,,,,,,,,,,,,,,,,,,,,,,,,,,,,,,,,,,,"29.92","54","59",,,,,"82",,"CLR:00","29.91","10.00","56","330",,"3",,,,,,,,,,,,,,,,,,,,,,,,,,,,,,,,,,,,,"MET07308/20/20 03:55:02 METAR KSQL 201155Z 33003KT 10SM CLR 15/12 A2992 RMK AO2","FM-15","7",,,,,,,,,,,,,,,,,,,,,,,,,,,,
"72493893231","2020-08-20T04:15:00","FM-15","7",,,,,,,,,,,,,,,,,,,,,,,,,,,,,,,,,,,,,,"29.92","54","59",,,,,"82",,"CLR:00","29.91","10.00","56","320",,"5",,,,,,,,,,,,,,,,,,,,,,,,,,,,,,,,,,,,,"MET07308/20/20 04:15:02 METAR KSQL 201215Z 32004KT 10SM CLR 15/12 A2992 RMK AO2","FM-15","7",,,,,,,,,,,,,,,,,,,,,,,,,,,,
"72493893231","2020-08-20T04:35:00","FM-15","7",,,,,,,,,,,,,,,,,,,,,,,,,,,,,,,,,,,,,,"29.92","54","59",,,,,"82",,"CLR:00","29.91","10.00","56","290",,"3",,,,,,,,,,,,,,,,,,,,,,,,,,,,,,,,,,,,,"MET07308/20/20 04:35:02 METAR KSQL 201235Z 29003KT 10SM CLR 15/12 A2992 RMK AO2","FM-15","7",,,,,,,,,,,,,,,,,,,,,,,,,,,,
"72493893231","2020-08-20T04:55:00","FM-15","7",,,,,,,,,,,,,,,,,,,,,,,,,,,,,,,,,,,,,,"29.93","54","59",,,,,"82",,"CLR:00","29.92","10.00","56","320",,"3",,,,,,,,,,,,,,,,,,,,,,,,,,,,,,,,,,,,,"MET07308/20/20 04:55:02 METAR KSQL 201255Z 32003KT 10SM CLR 15/12 A2993 RMK AO2","FM-15","7",,,,,,,,,,,,,,,,,,,,,,,,,,,,
"72493893231","2020-08-20T05:15:00","FM-15","7",,,,,,,,,,,,,,,,,,,,,,,,,,,,,,,,,,,,,,"29.93","54","59",,,,,"82",,"CLR:00","29.92","10.00","56","000",,"0",,,,,,,,,,,,,,,,,,,,,,,,,,,,,,,,,,,,,"MET07308/20/20 05:15:02 METAR KSQL 201315Z 00000KT 10SM CLR 15/12 A2993 RMK AO2","FM-15","7",,,,,,,,,,,,,,,,,,,,,,,,,,,,
"72493893231","2020-08-20T05:35:00","FM-15","7",,,,,,,,,,,,,,,,,,,,,,,,,,,,,,,,,,,,,,"29.93","50","59",,,,,"72",,"FEW:02 21","29.92","10.00","54","000",,"0",,,,,,,,,,,,,,,,,,,,,,,,,,,,,,,,,,,,,"MET07608/20/20 05:35:02 METAR KSQL 201335Z 00000KT 10SM FEW021 15/10 A2993 RMK AO2","FM-15","7",,,,,,,,,,,,,,,,,,,,,,,,,,,,
"72493893231","2020-08-20T05:55:00","FM-15","7",,,,,,,,,,,,,,,,,,,,,,,,,,,,,,,,,,,,,,"29.93","50","59",,,,,"72",,"FEW:02 21","29.92","10.00","54","000",,"0",,,,,,,,,,,,,,,,,,,,,,,,,,,,,,,,,,,,,"MET07608/20/20 05:55:02 METAR KSQL 201355Z 00000KT 10SM FEW021 15/10 A2993 RMK AO2","FM-15","7",,,,,,,,,,,,,,,,,,,,,,,,,,,,
"72493893231","2020-08-20T06:57:00","FM-15","7",,,,,,,,,,,,,,,,,,,,,,,,,,,,,,,,,,,,,,"29.93","54","63",,,,,"73",,"FEW:02 10","29.92","10.00","58","000",,"0",,,,,,,,,,,,,,,,,,,,,,,,,,,,,,,,,,,,,"MET07208/20/20 06:57:02 METAR KSQL 201457Z 00000KT 10SM FEW010 17/12 A2993 RMK","FM-15","7",,,,,,,,,,,,,,,,,,,,,,,,,,,,
"72493893231","2020-08-20T07:54:00","FM-15","7",,,,,,,,,,,,,,,,,,,,,,,,,,,,,,,,,,,,,,"29.94","55","64",,,,,"73",,"FEW:02 10","29.93","10.00","59","VRB",,"5",,,,,,,,,,,,,,,,,,,,,,,,,,,,,,,,,,,,,"MET07208/20/20 07:54:02 METAR KSQL 201554Z VRB04KT 10SM FEW010 18/13 A2994 RMK","FM-15","7",,,,,,,,,,,,,,,,,,,,,,,,,,,,
"72493893231","2020-08-20T08:57:00","FM-15","7",,,,,,,,,,,,,,,,,,,,,,,,,,,,,,,,,,,,,,"29.94","57","64",,,,,"78",,"FEW:02 10 SCT:04 200","29.93","10.00","60","360",,"8",,,,,,,,,,,,,,,,,,,,,,,,,,,,,,,,,,,,,"MET07908/20/20 08:57:02 METAR KSQL 201657Z 36007KT 10SM FEW010 SCT200 18/14 A2994 RMK","FM-15","7",,,,,,,,,,,,,,,,,,,,,,,,,,,,
"72493893231","2020-08-20T09:52:00","FM-15","7",,,,,,,,,,,,,,,,,,,,,,,,,,,,,,,,,,,,,,"29.93","57","68",,,,,"69",,"FEW:02 10 FEW:02 200","29.92","10.00","62","VRB",,"5",,,,,,,,,,,,,,,,,,,,,,,,,,,,,,,,,,,,,"MET07908/20/20 09:52:02 METAR KSQL 201752Z VRB04KT 10SM FEW010 FEW200 20/14 A2993 RMK","FM-15","7",,,,,,,,,,,,,,,,,,,,,,,,,,,,
"72493893231","2020-08-20T10:47:00","FM-15","7",,,,,,,,,,,,,,,,,,,,,,,,,,,,,,,,,,,,,,"29.91","59","72",,,,,"65",,"FEW:02 10 FEW:02 200","29.90","10.00","64","360",,"9",,,,,,,,,,,,,,,,,,,,,,,,,,,,,,,,,,,,,"MET07908/20/20 10:47:02 METAR KSQL 201847Z 36008KT 10SM FEW010 FEW200 22/15 A2991 RMK","FM-15","7",,,,,,,,,,,,,,,,,,,,,,,,,,,,
"72493893231","2020-08-20T11:56:00","FM-15","7",,,,,,,,,,,,,,,,,,,,,,,,,,,,,,,,,,,,,,"29.88","57","77",,,,,"51",,"FEW:02 10 FEW:02 200","29.87","10.00","65","330",,"8",,,,,,,,,,,,,,,,,,,,,,,,,,,,,,,,,,,,,"MET07908/20/20 11:56:02 METAR KSQL 201956Z 33007KT 10SM FEW010 FEW200 25/14 A2988 RMK","FM-15","7",,,,,,,,,,,,,,,,,,,,,,,,,,,,
"72493893231","2020-08-20T12:47:00","FM-15","7",,,,,,,,,,,,,,,,,,,,,,,,,,,,,,,,,,,,,,"29.87","50","84",,,,,"31",,"FEW:02 10 FEW:02 200","29.86","10.00","64","240",,"10",,,,,,,,,,,,,,,,,,,,,,,,,,,,,,,,,,,,,"MET07908/20/20 12:47:02 METAR KSQL 202047Z 24009KT 10SM FEW010 FEW200 29/10 A2987 RMK","FM-15","7",,,,,,,,,,,,,,,,,,,,,,,,,,,,
"72493893231","2020-08-20T13:47:00","FM-15","7",,,,,,,,,,,,,,,,,,,,,,,,,,,,,,,,,,,,,,"29.87","46","82",,,,,"28",,"FEW:02 10 FEW:02 200","29.86","10.00","62","260","20","14",,,,,,,,,,,,,,,,,,,,,,,,,,,,,,,,,,,,,"MET08208/20/20 13:47:02 METAR KSQL 202147Z 26012G17KT 10SM FEW010 FEW200 28/08 A2987 RMK","FM-15","7",,,,,,,,,,,,,,,,,,,,,,,,,,,,
"72493893231","2020-08-20T14:58:00","FM-15","7",,,,,,,,,,,,,,,,,,,,,,,,,,,,,,,,,,,,,,"29.85","52","82",,,,,"35",,"FEW:02 10 FEW:02 200","29.84","10.00","64","270","24","18",,,,,,,,,,,,,,,,,,,,,,,,,,,,,,,,,,,,,"MET08208/20/20 14:58:02 METAR KSQL 202258Z 27016G21KT 10SM FEW010 FEW200 28/11 A2985 RMK","FM-15","7",,,,,,,,,,,,,,,,,,,,,,,,,,,,
"72493893231","2020-08-20T15:47:00","FM-15","7",,,,,,,,,,,,,,,,,,,,,,,,,,,,,,,,,,,,,,"29.85","54","82",,,,,"37",,"FEW:02 25","29.84","10.00","65","260","24","18",,,,,,,,,,,,,,,,,,,,,,,,,,,,,,,,,,,,,"MET07508/20/20 15:47:02 METAR KSQL 202347Z 26016G21KT 10SM FEW025 28/12 A2985 RMK","FM-15","7",,,,,,,,,,,,,,,,,,,,,,,,,,,,
"72493893231","2020-08-20T16:47:00","FM-15","7",,,,,,,,,,,,,,,,,,,,,,,,,,,,,,,,,,,,,,"29.84","57","77",,,,,"51",,"FEW:02 25","29.83","10.00","65","270","24","17",,,,,,,,,,,,,,,,,,,,,,,,,,,,,,,,,,,,,"MET07508/20/20 16:47:01 METAR KSQL 210047Z 27015G21KT 10SM FEW025 25/14 A2984 RMK","FM-15","7",,,,,,,,,,,,,,,,,,,,,,,,,,,,
"72493893231","2020-08-20T17:47:00","FM-15","7",,,,,,,,,,,,,,,,,,,,,,,,,,,,,,,,,,,,,,"29.83","57","75",,,,,"54",,"FEW:02 25","29.82","10.00","64","270","24","16",,,,,,,,,,,,,,,,,,,,,,,,,,,,,,,,,,,,,"MET07508/20/20 17:47:02 METAR KSQL 210147Z 27014G21KT 10SM FEW025 24/14 A2983 RMK","FM-15","7",,,,,,,,,,,,,,,,,,,,,,,,,,,,
"72493893231","2020-08-20T18:47:00","FM-15","7",,,,,,,,,,,,,,,,,,,,,,,,,,,,,,,,,,,,,,"29.84","59","70",,,,,"69",,"FEW:02 25","29.83","10.00","63","250",,"11",,,,,,,,,,,,,,,,,,,,,,,,,,,,,,,,,,,,,"MET07208/20/20 18:47:02 METAR KSQL 210247Z 25010KT 10SM FEW025 21/15 A2984 RMK","FM-15","7",,,,,,,,,,,,,,,,,,,,,,,,,,,,
"72493893231","2020-08-20T19:47:00","FM-15","7",,,,,,,,,,,,,,,,,,,,,,,,,,,,,,,,,,,,,,"29.85","57","66",,,,,"73",,"FEW:02 25","29.84","10.00","61","250",,"8",,,,,,,,,,,,,,,,,,,,,,,,,,,,,,,,,,,,,"MET07708/20/20 19:47:02 METAR KSQL 210347Z 25007KT 10SM FEW025 19/14 A2985 RMK LAST","FM-15","7",,,,,,,,,,,,,,,,,,,,,,,,,,,,
"72493893231","2020-08-20T20:15:00","FM-15","7",,,,,,,,,,,,,,,,,,,,,,,,,,,,,,,,,,,,,,"29.87","57","66",,,,,"73",,"CLR:00","29.86","10.00","61","280",,"5",,,,,,,,,,,,,,,,,,,,,,,,,,,,,,,,,,,,,"MET07308/20/20 20:15:02 METAR KSQL 210415Z 28004KT 10SM CLR 19/14 A2987 RMK AO2","FM-15","7",,,,,,,,,,,,,,,,,,,,,,,,,,,,
"72493893231","2020-08-20T20:35:00","FM-15","7",,,,,,,,,,,,,,,,,,,,,,,,,,,,,,,,,,,,,,"29.87","57","66",,,,,"73",,"SCT:04 48","29.86","10.00","61","260",,"7",,,,,,,,,,,,,,,,,,,,,,,,,,,,,,,,,,,,,"MET07608/20/20 20:35:02 METAR KSQL 210435Z 26006KT 10SM SCT048 19/14 A2987 RMK AO2","FM-15","7",,,,,,,,,,,,,,,,,,,,,,,,,,,,
"72493893231","2020-08-20T20:55:00","FM-15","7",,,,,,,,,,,,,,,,,,,,,,,,,,,,,,,,,,,,,,"29.87","57","64",,,,,"78",,"SCT:04 44 BKN:07 50","29.86","10.00","60","290",,"7",,,,,,,,,,,,,,,,,,,,,,,,,,,,,,,,,,,,,"MET08308/20/20 20:55:02 METAR KSQL 210455Z 29006KT 10SM SCT044 BKN050 18/14 A2987 RMK AO2","FM-15","7",,,,,,,,,,,,,,,,,,,,,,,,,,,,
"72493893231","2020-08-20T21:15:00","FM-15","7",,,,,,,,,,,,,,,,,,,,,,,,,,,,,,,,,,,,,,"29.87","57","64",,,,,"78",,"BKN:07 42","29.86","10.00","60","310",,"6",,,,,,,,,,,,,,,,,,,,,,,,,,,,,,,,,,,,,"MET07608/20/20 21:15:02 METAR KSQL 210515Z 31005KT 10SM BKN042 18/14 A2987 RMK AO2","FM-15","7",,,,,,,,,,,,,,,,,,,,,,,,,,,,
"72493893231","2020-08-20T21:35:00","FM-15","7",,,,,,,,,,,,,,,,,,,,,,,,,,,,,,,,,,,,,,"29.87","57","64",,,,,"78",,"SCT:04 19 BKN:07 32 OVC:08 42","29.86","10.00","60","300",,"8",,,,,,,,,,,,,,,,,,,,,,,,,,,,,,,,,,,,,"MET09008/20/20 21:35:02 METAR KSQL 210535Z 30007KT 10SM SCT019 BKN032 OVC042 18/14 A2987 RMK AO2","FM-15","7",,,,,,,,,,,,,,,,,,,,,,,,,,,,
"72493893231","2020-08-20T21:55:00","FM-15","7",,,,,,,,,,,,,,,,,,,,,,,,,,,,,,,,,,,,,,"29.87","57","64",,,,,"78",,"BKN:07 32 OVC:08 43","29.86","10.00","60","310",,"8",,,,,,,,,,,,,,,,,,,,,,,,,,,,,,,,,,,,,"MET08308/20/20 21:55:02 METAR KSQL 210555Z 31007KT 10SM BKN032 OVC043 18/14 A2987 RMK AO2","FM-15","7",,,,,,,,,,,,,,,,,,,,,,,,,,,,
"72493893231","2020-08-20T22:15:00","FM-15","7",,,,,,,,,,,,,,,,,,,,,,,,,,,,,,,,,,,,,,"29.87","57","64",,,,,"78",,"BKN:07 27 OVC:08 32","29.86","10.00","60","320",,"6",,,,,,,,,,,,,,,,,,,,,,,,,,,,,,,,,,,,,"MET08308/20/20 22:15:02 METAR KSQL 210615Z 32005KT 10SM BKN027 OVC032 18/14 A2987 RMK AO2","FM-15","7",,,,,,,,,,,,,,,,,,,,,,,,,,,,
"72493893231","2020-08-20T22:35:00","FM-15","7",,,,,,,,,,,,,,,,,,,,,,,,,,,,,,,,,,,,,,"29.87","57","64",,,,,"78",,"BKN:07 29 OVC:08 55","29.86","10.00","60","320",,"6",,,,,,,,,,,,,,,,,,,,,,,,,,,,,,,,,,,,,"MET08308/20/20 22:35:02 METAR KSQL 210635Z 32005KT 10SM BKN029 OVC055 18/14 A2987 RMK AO2","FM-15","7",,,,,,,,,,,,,,,,,,,,,,,,,,,,
"72493893231","2020-08-20T22:55:00","FM-15","7",,,,,,,,,,,,,,,,,,,,,,,,,,,,,,,,,,,,,,"29.87","57","64",,,,,"78",,"SCT:04 18 BKN:07 25 OVC:08 55","29.86","10.00","60","290",,"7",,,,,,,,,,,,,,,,,,,,,,,,,,,,,,,,,,,,,"MET09008/20/20 22:55:02 METAR KSQL 210655Z 29006KT 10SM SCT018 BKN025 OVC055 18/14 A2987 RMK AO2","FM-15","7",,,,,,,,,,,,,,,,,,,,,,,,,,,,
"72493893231","2020-08-20T23:15:00","FM-15","7",,,,,,,,,,,,,,,,,,,,,,,,,,,,,,,,,,,,,,"29.87","57","64",,,,,"78",,"FEW:02 18 OVC:08 25","29.86","10.00","60","310",,"6",,,,,,,,,,,,,,,,,,,,,,,,,,,,,,,,,,,,,"MET08308/20/20 23:15:02 METAR KSQL 210715Z 31005KT 10SM FEW018 OVC025 18/14 A2987 RMK AO2","FM-15","7",,,,,,,,,,,,,,,,,,,,,,,,,,,,
"72493893231","2020-08-20T23:35:00","FM-15","7",,,,,,,,,,,,,,,,,,,,,,,,,,,,,,,,,,,,,,"29.86","57","64",,,,,"78",,"OVC:08 25","29.85","10.00","60","300",,"3",,,,,,,,,,,,,,,,,,,,,,,,,,,,,,,,,,,,,"MET07608/20/20 23:35:02 METAR KSQL 210735Z 30003KT 10SM OVC025 18/14 A2986 RMK AO2","FM-15","7",,,,,,,,,,,,,,,,,,,,,,,,,,,,
"72493893231","2020-08-20T23:55:00","FM-15","7",,,,,,,,,,,,,,,,,,,,,,,,,,,,,,,,,,,,,,"29.87","57","64",,,,,"78",,"OVC:08 21","29.86","10.00","60","190",,"3",,,,,,,,,,,,,,,,,,,,,,,,,,,,,,,,,,,,,"MET07608/20/20 23:55:02 METAR KSQL 210755Z 19003KT 10SM OVC021 18/14 A2987 RMK AO2","FM-15","7",,,,,,,,,,,,,,,,,,,,,,,,,,,,
"72493893231","2020-08-21T00:15:00","FM-15","7",,,,,,,,,,,,,,,,,,,,,,,,,,,,,,,,,,,,,,"29.86","57","64",,,,,"78",,"BKN:07 19 OVC:08 26","29.85","10.00","60","000",,"0",,,,,,,,,,,,,,,,,,,,,,,,,,,,,,,,,,,,,"MET08308/21/20 00:15:02 METAR KSQL 210815Z 00000KT 10SM BKN019 OVC026 18/14 A2986 RMK AO2","FM-15","7",,,,,,,,,,,,,,,,,,,,,,,,,,,,
"72493893231","2020-08-21T00:35:00","FM-15","7",,,,,,,,,,,,,,,,,,,,,,,,,,,,,,,,,,,,,,"29.86","57","64",,,,,"78",,"OVC:08 24","29.85","10.00","60","000",,"0",,,,,,,,,,,,,,,,,,,,,,,,,,,,,,,,,,,,,"MET07608/21/20 00:35:02 METAR KSQL 210835Z 00000KT 10SM OVC024 18/14 A2986 RMK AO2","FM-15","7",,,,,,,,,,,,,,,,,,,,,,,,,,,,
"72493893231","2020-08-21T00:55:00","FM-15","7",,,,,,,,,,,,,,,,,,,,,,,,,,,,,,,,,,,,,,"29.86","57","64",,,,,"78",,"OVC:08 24","29.85","10.00","60","000",,"0",,,,,,,,,,,,,,,,,,,,,,,,,,,,,,,,,,,,,"MET07608/21/20 00:55:02 METAR KSQL 210855Z 00000KT 10SM OVC024 18/14 A2986 RMK AO2","FM-15","7",,,,,,,,,,,,,,,,,,,,,,,,,,,,
"72493893231","2020-08-21T01:15:00","FM-15","7",,,,,,,,,,,,,,,,,,,,,,,,,,,,,,,,,,,,,,"29.86","57","64",,,,,"78",,"BKN:07 24","29.85","10.00","60","000",,"0",,,,,,,,,,,,,,,,,,,,,,,,,,,,,,,,,,,,,"MET07608/21/20 01:15:02 METAR KSQL 210915Z 00000KT 10SM BKN024 18/14 A2986 RMK AO2","FM-15","7",,,,,,,,,,,,,,,,,,,,,,,,,,,,
"72493893231","2020-08-21T01:35:00","FM-15","7",,,,,,,,,,,,,,,,,,,,,,,,,,,,,,,,,,,,,,"29.86","57","63",,,,,"83",,"FEW:02 24","29.85","10.00","60","000",,"0",,,,,,,,,,,,,,,,,,,,,,,,,,,,,,,,,,,,,"MET07608/21/20 01:35:02 METAR KSQL 210935Z 00000KT 10SM FEW024 17/14 A2986 RMK AO2","FM-15","7",,,,,,,,,,,,,,,,,,,,,,,,,,,,
"72493893231","2020-08-21T01:55:00","FM-15","7",,,,,,,,,,,,,,,,,,,,,,,,,,,,,,,,,,,,,,"29.86","57","63",,,,,"83",,"FEW:02 3","29.85","10.00","60","000",,"0",,,,,,,,,,,,,,,,,,,,,,,,,,,,,,,,,,,,,"MET07608/21/20 01:55:02 METAR KSQL 210955Z 00000KT 10SM FEW003 17/14 A2986 RMK AO2","FM-15","7",,,,,,,,,,,,,,,,,,,,,,,,,,,,
"72493893231","2020-08-21T02:15:00","FM-15","7",,,,,,,,,,,,,,,,,,,,,,,,,,,,,,,,,,,,,,"29.86","57","63",,,,,"83",,"SCT:04 3","29.85","10.00","60","000",,"0",,,,,,,,,,,,,,,,,,,,,,,,,,,,,,,,,,,,,"MET07608/21/20 02:15:02 METAR KSQL 211015Z 00000KT 10SM SCT003 17/14 A2986 RMK AO2","FM-15","7",,,,,,,,,,,,,,,,,,,,,,,,,,,,
"72493893231","2020-08-21T02:35:00","FM-15","7",,,,,,,,,,,,,,,,,,,,,,,,,,,,,,,,,,,,,,"29.86","57","63",,,,,"83",,"CLR:00","29.85","10.00","60","000",,"0",,,,,,,,,,,,,,,,,,,,,,,,,,,,,,,,,,,,,"MET07308/21/20 02:35:02 METAR KSQL 211035Z 00000KT 10SM CLR 17/14 A2986 RMK AO2","FM-15","7",,,,,,,,,,,,,,,,,,,,,,,,,,,,
"72493893231","2020-08-21T02:55:00","FM-15","7",,,,,,,,,,,,,,,,,,,,,,,,,,,,,,,,,,,,,,"29.86","57","63",,,,,"83",,"CLR:00","29.85","10.00","60","000",,"0",,,,,,,,,,,,,,,,,,,,,,,,,,,,,,,,,,,,,"MET07308/21/20 02:55:02 METAR KSQL 211055Z 00000KT 10SM CLR 17/14 A2986 RMK AO2","FM-15","7",,,,,,,,,,,,,,,,,,,,,,,,,,,,
"72493893231","2020-08-21T03:15:00","FM-15","7",,,,,,,,,,,,,,,,,,,,,,,,,,,,,,,,,,,,,,"29.86","59","63",,,,,"88",,"SCT:04 24","29.85","10.00","61","000",,"0",,,,,,,,,,,,,,,,,,,,,,,,,,,,,,,,,,,,,"MET07608/21/20 03:15:02 METAR KSQL 211115Z 00000KT 10SM SCT024 17/15 A2986 RMK AO2","FM-15","7",,,,,,,,,,,,,,,,,,,,,,,,,,,,
"72493893231","2020-08-21T03:35:00","FM-15","7",,,,,,,,,,,,,,,,,,,,,,,,,,,,,,,,,,,,,,"29.86","59","63",,,,,"88",,"FEW:02 8 SCT:04 24","29.85","10.00","61","000",,"0",,,,,,,,,,,,,,,,,,,,,,,,,,,,,,,,,,,,,"MET08308/21/20 03:35:02 METAR KSQL 211135Z 00000KT 10SM FEW008 SCT024 17/15 A2986 RMK AO2","FM-15","7",,,,,,,,,,,,,,,,,,,,,,,,,,,,
"72493893231","2020-08-21T03:55:00","FM-15","7",,,,,,,,,,,,,,,,,,,,,,,,,,,,,,,,,,,,,,"29.86","59","63",,,,,"88",,"FEW:02 8 BKN:07 22","29.85","10.00","61","210",,"3",,,,,,,,,,,,,,,,,,,,,,,,,,,,,,,,,,,,,"MET08308/21/20 03:55:02 METAR KSQL 211155Z 21003KT 10SM FEW008 BKN022 17/15 A2986 RMK AO2","FM-15","7",,,,,,,,,,,,,,,,,,,,,,,,,,,,
"72493893231","2020-08-21T04:15:00","FM-15","7",,,,,,,,,,,,,,,,,,,,,,,,,,,,,,,,,,,,,,"29.86","59","63",,,,,"88",,"OVC:08 19","29.85","10.00","61","000",,"0",,,,,,,,,,,,,,,,,,,,,,,,,,,,,,,,,,,,,"MET07608/21/20 04:15:02 METAR KSQL 211215Z 00000KT 10SM OVC019 17/15 A2986 RMK AO2","FM-15","7",,,,,,,,,,,,,,,,,,,,,,,,,,,,
"72493893231","2020-08-21T04:35:00","FM-15","7",,,,,,,,,,,,,,,,,,,,,,,,,,,,,,,,,,,,,,"29.86","59","63",,,,,"88",,"OVC:08 17","29.85","10.00","61","000",,"0",,,,,,,,,,,,,,,,,,,,,,,,,,,,,,,,,,,,,"MET07608/21/20 04:35:02 METAR KSQL 211235Z 00000KT 10SM OVC017 17/15 A2986 RMK AO2","FM-15","7",,,,,,,,,,,,,,,,,,,,,,,,,,,,
"72493893231","2020-08-21T04:55:00","FM-15","7",,,,,,,,,,,,,,,,,,,,,,,,,,,,,,,,,,,,,,"29.86","57","63",,,,,"83",,"OVC:08 15","29.85","10.00","60","310",,"3",,,,,,,,,,,,,,,,,,,,,,,,,,,,,,,,,,,,,"MET07608/21/20 04:55:02 METAR KSQL 211255Z 31003KT 10SM OVC015 17/14 A2986 RMK AO2","FM-15","7",,,,,,,,,,,,,,,,,,,,,,,,,,,,
"72493893231","2020-08-21T05:15:00","FM-15","7",,,,,,,,,,,,,,,,,,,,,,,,,,,,,,,,,,,,,,"29.87","57","63",,,,,"83",,"OVC:08 15","29.86","10.00","60","000",,"0",,,,,,,,,,,,,,,,,,,,,,,,,,,,,,,,,,,,,"MET07608/21/20 05:15:02 METAR KSQL 211315Z 00000KT 10SM OVC015 17/14 A2987 RMK AO2","FM-15","7",,,,,,,,,,,,,,,,,,,,,,,,,,,,
"72493893231","2020-08-21T05:35:00","FM-15","7",,,,,,,,,,,,,,,,,,,,,,,,,,,,,,,,,,,,,,"29.87","57","63",,,,,"83",,"BKN:07 17","29.86","10.00","60","000",,"0",,,,,,,,,,,,,,,,,,,,,,,,,,,,,,,,,,,,,"MET07608/21/20 05:35:02 METAR KSQL 211335Z 00000KT 10SM BKN017 17/14 A2987 RMK AO2","FM-15","7",,,,,,,,,,,,,,,,,,,,,,,,,,,,
"72493893231","2020-08-21T05:55:00","FM-15","7",,,,,,,,,,,,,,,,,,,,,,,,,,,,,,,,,,,,,,"29.88","57","61",,,,,"88",,"BKN:07 19","29.87","10.00","59","000",,"0",,,,,,,,,,,,,,,,,,,,,,,,,,,,,,,,,,,,,"MET07608/21/20 05:55:02 METAR KSQL 211355Z 00000KT 10SM BKN019 16/14 A2988 RMK AO2","FM-15","7",,,,,,,,,,,,,,,,,,,,,,,,,,,,
"72493893231","2020-08-21T06:47:00","FM-15","7",,,,,,,,,,,,,,,,,,,,,,,,,,,,,,,,,,,,,,"29.89","59","63",,,,,"88",,"BKN:07 6 BKN:07 23","29.88","8.00","61","VRB",,"3",,,,,,,,,,,,,,,,,,,,,,,,,,,,,,,,,,,,,"MET07808/21/20 06:47:02 METAR KSQL 211447Z VRB03KT 8SM BKN006 BKN023 17/15 A2989 RMK","FM-15","7",,,,,,,,,,,,,,,,,,,,,,,,,,,,
"72493893231","2020-08-21T07:47:00","FM-15","7",,,,,,,,,,,,,,,,,,,,,,,,,,,,,,,,,,,,,,"29.89","61","64",,,,,"88",,"FEW:02 7 SCT:04 26","29.88","10.00","62","VRB",,"3",,,,,,,,,,,,,,,,,,,,,,,,,,,,,,,,,,,,,"MET07908/21/20 07:47:02 METAR KSQL 211547Z VRB03KT 10SM FEW007 SCT026 18/16 A2989 RMK","FM-15","7",,,,,,,,,,,,,,,,,,,,,,,,,,,,
"72493893231","2020-08-21T08:47:00","FM-15","7",,,,,,,,,,,,,,,,,,,,,,,,,,,,,,,,,,,,,,"29.89","63",,,,,,,,"FEW:02 7","29.88","10.00",,"VRB",,"3",,,,,,,,,,,,,,,,,,,,,,,,,,,,,,,,,,,,,"MET06908/21/20 08:47:02 METAR KSQL 211647Z VRB03KT 10SM FEW007 17 A2989 RMK","FM-15","7",,,,,,,,,,,,,,,,,,,,,,,,,,,,
"72493893231","2020-08-21T09:47:00","FM-15","7",,,,,,,,,,,,,,,,,,,,,,,,,,,,,,,,,,,,,,"29.89","63","72",,,,,"73",,"SCT:04 6","29.88","8.00","66","VRB",,"3",,,,,,,,,,,,,,,,,,,,,,,,,,,,,,,,,,,,,"MET07108/21/20 09:47:02 METAR KSQL 211747Z VRB03KT 8SM SCT006 22/17 A2989 RMK","FM-15","7",,,,,,,,,,,,,,,,,,,,,,,,,,,,
"72493893231","2020-08-21T10:47:00","FM-15","7",,,,,,,,,,,,,,,,,,,,,,,,,,,,,,,,,,,,,,"29.88","64","73",,"HZ:7 FU:3 |FU |FU HZ",,,"74",,"SCT:04 6","29.87","10.00","67","020",,"6",,,,,,,,,,,,,,,,,,,,,,,,,,,,,,,,,,,,,"MET07808/21/20 10:47:02 METAR KSQL 211847Z 02005KT 10SM HZ FU SCT006 23/18 A2988 RMK","FM-15","7",,,,,,,,,,,,,,,,,,,,,,,,,,,,
"72493893231","2020-08-21T11:47:00","FM-15","7",,,,,,,,,,,,,,,,,,,,,,,,,,,,,,,,,,,,,,"29.87","66","75",,,,,"74",,"SCT:04 6","29.86","10.00","69","030",,"6",,,,,,,,,,,,,,,,,,,,,,,,,,,,,,,,,,,,,"MET07208/21/20 11:47:02 METAR KSQL 211947Z 03005KT 10SM SCT006 24/19 A2987 RMK","FM-15","7",,,,,,,,,,,,,,,,,,,,,,,,,,,,
"72493893231","2020-08-21T12:05:00","FM-15","7",,,,,,,,,,,,,,,,,,,,,,,,,,,,,,,,,,,,,,"29.87","64","79",,,,,"61",,"FEW:02 6","29.86","2.50","69","360",,"7",,,,,,,,,,,,,,,,,,,,,,,,,,,,,,,,,,,,,"MET07508/21/20 12:05:02 METAR KSQL 212005Z 36006KT 2 1/2SM FEW006 26/18 A2987 RMK","FM-15","7",,,,,,,,,,,,,,,,,,,,,,,,,,,,
"72493893231","2020-08-21T12:28:00","FM-15","7",,,,,,,,,,,,,,,,,,,,,,,,,,,,,,,,,,,,,,"29.86","63","82",,"HZ:7 FU:3 |FU |FU HZ",,,"51",,"SCT:04 6","29.85","3.00","70","340",,"14",,,,,,,,,,,,,,,,,,,,,,,,,,,,,,,,,,,,,"MET07708/21/20 12:28:02 METAR KSQL 212028Z 34012KT 3SM HZ FU SCT006 28/17 A2986 RMK","FM-15","7",,,,,,,,,,,,,,,,,,,,,,,,,,,,
"72493893231","2020-08-21T12:49:00","FM-15","7",,,,,,,,,,,,,,,,,,,,,,,,,,,,,,,,,,,,,,"29.86","63","84",,"HZ:7 FU:3 |FU |FU HZ",,,"48",,"SCT:04 6","29.85","7.00","70","330",,"8",,,,,,,,,,,,,,,,,,,,,,,,,,,,,,,,,,,,,"MET07708/21/20 12:49:02 METAR KSQL 212049Z 33007KT 7SM HZ FU SCT006 29/17 A2986 RMK","FM-15","7",,,,,,,,,,,,,,,,,,,,,,,,,,,,
"72493893231","2020-08-21T13:47:00","FM-15","7",,,,,,,,,,,,,,,,,,,,,,,,,,,,,,,,,,,,,,"29.86","63","86",,"HZ:7 FU:3 |FU |FU HZ",,,"46",,"SCT:04 6","29.85","10.00","71","270",,"11",,,,,,,,,,,,,,,,,,,,,,,,,,,,,,,,,,,,,"MET07808/21/20 13:47:02 METAR KSQL 212147Z 27010KT 10SM HZ FU SCT006 30/17 A2986 RMK","FM-15","7",,,,,,,,,,,,,,,,,,,,,,,,,,,,
"72493893231","2020-08-21T14:47:00","FM-15","7",,,,,,,,,,,,,,,,,,,,,,,,,,,,,,,,,,,,,,"29.85","63","84",,"HZ:7 FU:3 |FU |FU HZ",,,"48",,"SCT:04 14","29.84","10.00","70","280","24","18",,,,,,,,,,,,,,,,,,,,,,,,,,,,,,,,,,,,,"MET08108/21/20 14:47:02 METAR KSQL 212247Z 28016G21KT 10SM HZ FU SCT014 29/17 A2985 RMK","FM-15","7",,,,,,,,,,,,,,,,,,,,,,,,,,,,
"72493893231","2020-08-21T15:47:00","FM-15","7",,,,,,,,,,,,,,,,,,,,,,,,,,,,,,,,,,,,,,"29.84","59","84",,"HZ:7 FU:3 |FU |FU HZ",,,"43",,"SCT:04 14","29.83","10.00","68","290","25","21",,,,,,,,,,,,,,,,,,,,,,,,,,,,,,,,,,,,,"MET08108/21/20 15:47:02 METAR KSQL 212347Z 29018G22KT 10SM HZ FU SCT014 29/15 A2984 RMK","FM-15","7",,,,,,,,,,,,,,,,,,,,,,,,,,,,
"72493893231","2020-08-21T16:47:00","FM-15","7",,,,,,,,,,,,,,,,,,,,,,,,,,,,,,,,,,,,,,"29.85","59","81",,"FU:3 HZ:7 |FU |FU HZ",,,"48",,"SCT:04 14","29.84","10.00","67","260","24","20",,,,,,,,,,,,,,,,,,,,,,,,,,,,,,,,,,,,,"MET08108/21/20 16:47:01 METAR KSQL 220047Z 26017G21KT 10SM FU HZ SCT014 27/15 A2985 RMK","FM-15","7",,,,,,,,,,,,,,,,,,,,,,,,,,,,
"72493893231","2020-08-21T17:47:00","FM-15","7",,,,,,,,,,,,,,,,,,,,,,,,,,,,,,,,,,,,,,"29.86","59","75",,"HZ:7 FU:3 |FU |FU HZ",,,"57",,"SCT:04 14","29.85","10.00","65","280","24","16",,,,,,,,,,,,,,,,,,,,,,,,,,,,,,,,,,,,,"MET08108/21/20 17:47:02 METAR KSQL 220147Z 28014G21KT 10SM HZ FU SCT014 24/15 A2986 RMK","FM-15","7",,,,,,,,,,,,,,,,,,,,,,,,,,,,
"72493893231","2020-08-21T18:47:00","FM-15","7",,,,,,,,,,,,,,,,,,,,,,,,,,,,,,,,,,,,,,"29.86","57","73",,"HZ:7 FU:3 |FU |FU HZ",,,"57",,"SCT:04 14","29.85","10.00","63","260",,"9",,,,,,,,,,,,,,,,,,,,,,,,,,,,,,,,,,,,,"MET07808/21/20 18:47:02 METAR KSQL 220247Z 26008KT 10SM HZ FU SCT014 23/14 A2986 RMK","FM-15","7",,,,,,,,,,,,,,,,,,,,,,,,,,,,
"72493893231","2020-08-21T19:47:00","FM-15","7",,,,,,,,,,,,,,,,,,,,,,,,,,,,,,,,,,,,,,"29.87","57","72",,"HZ:7 FU:3 |FU |FU HZ",,,"61",,"SCT:04 14","29.86","10.00","63","240",,"8",,,,,,,,,,,,,,,,,,,,,,,,,,,,,,,,,,,,,"MET08308/21/20 19:47:02 METAR KSQL 220347Z 24007KT 10SM HZ FU SCT014 22/14 A2987 RMK LAST","FM-15","7",,,,,,,,,,,,,,,,,,,,,,,,,,,,
"72493893231","2020-08-21T20:15:00","FM-15","7",,,,,,,,,,,,,,,,,,,,,,,,,,,,,,,,,,,,,,"29.88","54","72",,,,,"53",,"BKN:07 15","29.87","10.00","62","250",,"10",,,,,,,,,,,,,,,,,,,,,,,,,,,,,,,,,,,,,"MET07608/21/20 20:15:02 METAR KSQL 220415Z 25009KT 10SM BKN015 22/12 A2988 RMK AO2","FM-15","7",,,,,,,,,,,,,,,,,,,,,,,,,,,,
"72493893231","2020-08-21T20:35:00","FM-15","7",,,,,,,,,,,,,,,,,,,,,,,,,,,,,,,,,,,,,,"29.88","55","72",,,,,"57",,"BKN:07 13","29.87","10.00","62","250",,"6",,,,,,,,,,,,,,,,,,,,,,,,,,,,,,,,,,,,,"MET07608/21/20 20:35:02 METAR KSQL 220435Z 25005KT 10SM BKN013 22/13 A2988 RMK AO2","FM-15","7",,,,,,,,,,,,,,,,,,,,,,,,,,,,
"72493893231","2020-08-21T20:55:00","FM-15","7",,,,,,,,,,,,,,,,,,,,,,,,,,,,,,,,,,,,,,"29.88","55","72",,,,,"57",,"BKN:07 13","29.87","10.00","62","260",,"8",,,,,,,,,,,,,,,,,,,,,,,,,,,,,,,,,,,,,"MET07608/21/20 20:55:02 METAR KSQL 220455Z 26007KT 10SM BKN013 22/13 A2988 RMK AO2","FM-15","7",,,,,,,,,,,,,,,,,,,,,,,,,,,,
"72493893231","2020-08-21T21:15:00","FM-15","7",,,,,,,,,,,,,,,,,,,,,,,,,,,,,,,,,,,,,,"29.87","55","72",,,,,"57",,"OVC:08 13","29.86","10.00","62","310",,"6",,,,,,,,,,,,,,,,,,,,,,,,,,,,,,,,,,,,,"MET07608/21/20 21:15:02 METAR KSQL 220515Z 31005KT 10SM OVC013 22/13 A2987 RMK AO2","FM-15","7",,,,,,,,,,,,,,,,,,,,,,,,,,,,
"72493893231","2020-08-21T21:35:00","FM-15","7",,,,,,,,,,,,,,,,,,,,,,,,,,,,,,,,,,,,,,"29.88","59","68",,,,,"73",,"OVC:08 15","29.87","10.00","63","360",,"6",,,,,,,,,,,,,,,,,,,,,,,,,,,,,,,,,,,,,"MET07608/21/20 21:35:02 METAR KSQL 220535Z 36005KT 10SM OVC015 20/15 A2988 RMK AO2","FM-15","7",,,,,,,,,,,,,,,,,,,,,,,,,,,,
"72493893231","2020-08-21T21:55:00","FM-15","7",,,,,,,,,,,,,,,,,,,,,,,,,,,,,,,,,,,,,,"29.88","55","68",,,,,"64",,"OVC:08 15","29.87","10.00","60","290",,"3",,,,,,,,,,,,,,,,,,,,,,,,,,,,,,,,,,,,,"MET07608/21/20 21:55:02 METAR KSQL 220555Z 29003KT 10SM OVC015 20/13 A2988 RMK AO2","FM-15","7",,,,,,,,,,,,,,,,,,,,,,,,,,,,
"72493893231","2020-08-21T22:15:00","FM-15","7",,,,,,,,,,,,,,,,,,,,,,,,,,,,,,,,,,,,,,"29.87","57","68",,,,,"69",,"SCT:04 15 BKN:07 21","29.86","10.00","62","000",,"0",,,,,,,,,,,,,,,,,,,,,,,,,,,,,,,,,,,,,"MET08308/21/20 22:15:02 METAR KSQL 220615Z 00000KT 10SM SCT015 BKN021 20/14 A2987 RMK AO2","FM-15","7",,,,,,,,,,,,,,,,,,,,,,,,,,,,
"72493893231","2020-08-21T22:35:00","FM-15","7",,,,,,,,,,,,,,,,,,,,,,,,,,,,,,,,,,,,,,"29.87","57","68",,,,,"69",,"BKN:07 19","29.86","10.00","62","000",,"0",,,,,,,,,,,,,,,,,,,,,,,,,,,,,,,,,,,,,"MET07608/21/20 22:35:02 METAR KSQL 220635Z 00000KT 10SM BKN019 20/14 A2987 RMK AO2","FM-15","7",,,,,,,,,,,,,,,,,,,,,,,,,,,,
"72493893231","2020-08-21T22:55:00","FM-15","7",,,,,,,,,,,,,,,,,,,,,,,,,,,,,,,,,,,,,,"29.88","61","66",,,,,"83",,"OVC:08 19","29.87","10.00","63","000",,"0",,,,,,,,,,,,,,,,,,,,,,,,,,,,,,,,,,,,,"MET07608/21/20 22:55:02 METAR KSQL 220655Z 00000KT 10SM OVC019 19/16 A2988 RMK AO2","FM-15","7",,,,,,,,,,,,,,,,,,,,,,,,,,,,
"72493893231","2020-08-21T23:15:00","FM-15","7",,,,,,,,,,,,,,,,,,,,,,,,,,,,,,,,,,,,,,"29.87","61","66",,,,,"83",,"OVC:08 19","29.86","10.00","63","000",,"0",,,,,,,,,,,,,,,,,,,,,,,,,,,,,,,,,,,,,"MET07608/21/20 23:15:02 METAR KSQL 220715Z 00000KT 10SM OVC019 19/16 A2987 RMK AO2","FM-15","7",,,,,,,,,,,,,,,,,,,,,,,,,,,,
"72493893231","2020-08-21T23:35:00","FM-15","7",,,,,,,,,,,,,,,,,,,,,,,,,,,,,,,,,,,,,,"29.87","59","66",,,,,"78",,"OVC:08 17","29.86","10.00","62","220",,"3",,,,,,,,,,,,,,,,,,,,,,,,,,,,,,,,,,,,,"MET07608/21/20 23:35:02 METAR KSQL 220735Z 22003KT 10SM OVC017 19/15 A2987 RMK AO2","FM-15","7",,,,,,,,,,,,,,,,,,,,,,,,,,,,
"72493893231","2020-08-21T23:55:00","FM-15","7",,,,,,,,,,,,,,,,,,,,,,,,,,,,,,,,,,,,,,"29.87","61","68",,,,,"78",,"OVC:08 15","29.86","10.00","64","000",,"0",,,,,,,,,,,,,,,,,,,,,,,,,,,,,,,,,,,,,"MET07608/21/20 23:55:02 METAR KSQL 220755Z 00000KT 10SM OVC015 20/16 A2987 RMK AO2","FM-15","7",,,,,,,,,,,,,,,,,,,,,,,,,,,,
"72493893231","2020-08-21T23:59:00","SOD  ","O",,,,,,,,,,,,,,,,,,,,,,,,,,,,,,,,,,"HZ",,,,,,,,,,,,,,,,,,,,,,,,,,,,,,,,,,,,,,,,,,,,,,,,,,,,,,,,,"SOD  ","O",,,,,,,,,,,,,,,,,,,,,,,,,"0531","1852",,
"72493893231","2020-08-22T00:15:00","FM-15","7",,,,,,,,,,,,,,,,,,,,,,,,,,,,,,,,,,,,,,"29.86","61","66",,,,,"83",,"OVC:08 15","29.85","10.00","63","320",,"5",,,,,,,,,,,,,,,,,,,,,,,,,,,,,,,,,,,,,"MET07608/22/20 00:15:02 METAR KSQL 220815Z 32004KT 10SM OVC015 19/16 A2986 RMK AO2","FM-15","7",,,,,,,,,,,,,,,,,,,,,,,,,,,,
"72493893231","2020-08-22T00:35:00","FM-15","7",,,,,,,,,,,,,,,,,,,,,,,,,,,,,,,,,,,,,,"29.86","57","66",,,,,"73",,"BKN:07 13 OVC:08 23","29.85","10.00","61","320",,"3",,,,,,,,,,,,,,,,,,,,,,,,,,,,,,,,,,,,,"MET08308/22/20 00:35:02 METAR KSQL 220835Z 32003KT 10SM BKN013 OVC023 19/14 A2986 RMK AO2","FM-15","7",,,,,,,,,,,,,,,,,,,,,,,,,,,,
"72493893231","2020-08-22T00:55:00","FM-15","7",,,,,,,,,,,,,,,,,,,,,,,,,,,,,,,,,,,,,,"29.86","57","66",,,,,"73",,"FEW:02 13 BKN:07 23","29.85","10.00","61","000",,"0",,,,,,,,,,,,,,,,,,,,,,,,,,,,,,,,,,,,,"MET08308/22/20 00:55:02 METAR KSQL 220855Z 00000KT 10SM FEW013 BKN023 19/14 A2986 RMK AO2","FM-15","7",,,,,,,,,,,,,,,,,,,,,,,,,,,,
"72493893231","2020-08-22T01:15:00","FM-15","7",,,,,,,,,,,,,,,,,,,,,,,,,,,,,,,,,,,,,,"29.86","57","64",,,,,"78",,"SCT:04 15 OVC:08 25","29.85","10.00","60","310",,"5",,,,,,,,,,,,,,,,,,,,,,,,,,,,,,,,,,,,,"MET08308/22/20 01:15:02 METAR KSQL 220915Z 31004KT 10SM SCT015 OVC025 18/14 A2986 RMK AO2","FM-15","7",,,,,,,,,,,,,,,,,,,,,,,,,,,,
"72493893231","2020-08-22T01:35:00","FM-15","7",,,,,,,,,,,,,,,,,,,,,,,,,,,,,,,,,,,,,,"29.86","57","64",,,,,"78",,"SCT:04 15 OVC:08 25","29.85","10.00","60","000",,"0",,,,,,,,,,,,,,,,,,,,,,,,,,,,,,,,,,,,,"MET08308/22/20 01:35:02 METAR KSQL 220935Z 00000KT 10SM SCT015 OVC025 18/14 A2986 RMK AO2","FM-15","7",,,,,,,,,,,,,,,,,,,,,,,,,,,,
"72493893231","2020-08-22T01:55:00","FM-15","7",,,,,,,,,,,,,,,,,,,,,,,,,,,,,,,,,,,,,,"29.86","57","64",,,,,"78",,"FEW:02 15 OVC:08 21","29.85","10.00","60","310",,"3",,,,,,,,,,,,,,,,,,,,,,,,,,,,,,,,,,,,,"MET08308/22/20 01:55:02 METAR KSQL 220955Z 31003KT 10SM FEW015 OVC021 18/14 A2986 RMK AO2","FM-15","7",,,,,,,,,,,,,,,,,,,,,,,,,,,,
"72493893231","2020-08-22T02:15:00","FM-15","7",,,,,,,,,,,,,,,,,,,,,,,,,,,,,,,,,,,,,,"29.86","57","64",,,,,"78",,"OVC:08 21","29.85","10.00","60","310",,"7",,,,,,,,,,,,,,,,,,,,,,,,,,,,,,,,,,,,,"MET07608/22/20 02:15:02 METAR KSQL 221015Z 31006KT 10SM OVC021 18/14 A2986 RMK AO2","FM-15","7",,,,,,,,,,,,,,,,,,,,,,,,,,,,
"72493893231","2020-08-22T02:35:00","FM-15","7",,,,,,,,,,,,,,,,,,,,,,,,,,,,,,,,,,,,,,"29.86","57","64",,,,,"78",,"OVC:08 19","29.85","10.00","60","000",,"0",,,,,,,,,,,,,,,,,,,,,,,,,,,,,,,,,,,,,"MET07608/22/20 02:35:02 METAR KSQL 221035Z 00000KT 10SM OVC019 18/14 A2986 RMK AO2","FM-15","7",,,,,,,,,,,,,,,,,,,,,,,,,,,,
"72493893231","2020-08-22T02:55:00","FM-15","7",,,,,,,,,,,,,,,,,,,,,,,,,,,,,,,,,,,,,,"29.86","57","64",,,,,"78",,"SCT:04 15 OVC:08 21","29.85","10.00","60","320",,"3",,,,,,,,,,,,,,,,,,,,,,,,,,,,,,,,,,,,,"MET08308/22/20 02:55:02 METAR KSQL 221055Z 32003KT 10SM SCT015 OVC021 18/14 A2986 RMK AO2","FM-15","7",,,,,,,,,,,,,,,,,,,,,,,,,,,,
"72493893231","2020-08-22T03:15:00","FM-15","7",,,,,,,,,,,,,,,,,,,,,,,,,,,,,,,,,,,,,,"29.87","57","64",,,,,"78",,"OVC:08 15","29.86","10.00","60","270",,"3",,,,,,,,,,,,,,,,,,,,,,,,,,,,,,,,,,,,,"MET07608/22/20 03:15:02 METAR KSQL 221115Z 27003KT 10SM OVC015 18/14 A2987 RMK AO2","FM-15","7",,,,,,,,,,,,,,,,,,,,,,,,,,,,
"72493893231","2020-08-22T03:35:00","FM-15","7",,,,,,,,,,,,,,,,,,,,,,,,,,,,,,,,,,,,,,"29.87","57","64",,,,,"78",,"OVC:08 15","29.86","10.00","60","000",,"0",,,,,,,,,,,,,,,,,,,,,,,,,,,,,,,,,,,,,"MET07608/22/20 03:35:02 METAR KSQL 221135Z 00000KT 10SM OVC015 18/14 A2987 RMK AO2","FM-15","7",,,,,,,,,,,,,,,,,,,,,,,,,,,,
"72493893231","2020-08-22T03:55:00","FM-15","7",,,,,,,,,,,,,,,,,,,,,,,,,,,,,,,,,,,,,,"29.86","57","63",,,,,"83",,"OVC:08 15","29.85","10.00","60","000",,"0",,,,,,,,,,,,,,,,,,,,,,,,,,,,,,,,,,,,,"MET07608/22/20 03:55:02 METAR KSQL 221155Z 00000KT 10SM OVC015 17/14 A2986 RMK AO2","FM-15","7",,,,,,,,,,,,,,,,,,,,,,,,,,,,
"72493893231","2020-08-22T04:15:00","FM-15","7",,,,,,,,,,,,,,,,,,,,,,,,,,,,,,,,,,,,,,"29.87","57","63",,,,,"83",,"BKN:07 15","29.86","10.00","60","000",,"0",,,,,,,,,,,,,,,,,,,,,,,,,,,,,,,,,,,,,"MET07608/22/20 04:15:02 METAR KSQL 221215Z 00000KT 10SM BKN015 17/14 A2987 RMK AO2","FM-15","7",,,,,,,,,,,,,,,,,,,,,,,,,,,,
"72493893231","2020-08-22T04:35:00","FM-15","7",,,,,,,,,,,,,,,,,,,,,,,,,,,,,,,,,,,,,,"29.87","57","63",,,,,"83",,"OVC:08 13","29.86","10.00","60","000",,"0",,,,,,,,,,,,,,,,,,,,,,,,,,,,,,,,,,,,,"MET07608/22/20 04:35:02 METAR KSQL 221235Z 00000KT 10SM OVC013 17/14 A2987 RMK AO2","FM-15","7",,,,,,,,,,,,,,,,,,,,,,,,,,,,
"72493893231","2020-08-22T04:55:00","FM-15","7",,,,,,,,,,,,,,,,,,,,,,,,,,,,,,,,,,,,,,"29.87","57","63",,,,,"83",,"OVC:08 13","29.86","10.00","60","300",,"3",,,,,,,,,,,,,,,,,,,,,,,,,,,,,,,,,,,,,"MET07608/22/20 04:55:02 METAR KSQL 221255Z 30003KT 10SM OVC013 17/14 A2987 RMK AO2","FM-15","7",,,,,,,,,,,,,,,,,,,,,,,,,,,,
"72493893231","2020-08-22T05:15:00","FM-15","7",,,,,,,,,,,,,,,,,,,,,,,,,,,,,,,,,,,,,,"29.87","57","63",,,,,"83",,"OVC:08 13","29.86","10.00","60","000",,"0",,,,,,,,,,,,,,,,,,,,,,,,,,,,,,,,,,,,,"MET07608/22/20 05:15:02 METAR KSQL 221315Z 00000KT 10SM OVC013 17/14 A2987 RMK AO2","FM-15","7",,,,,,,,,,,,,,,,,,,,,,,,,,,,
"72493893231","2020-08-22T05:35:00","FM-15","7",,,,,,,,,,,,,,,,,,,,,,,,,,,,,,,,,,,,,,"29.88","57","61",,,,,"88",,"OVC:08 15","29.87","10.00","59","000",,"0",,,,,,,,,,,,,,,,,,,,,,,,,,,,,,,,,,,,,"MET07608/22/20 05:35:02 METAR KSQL 221335Z 00000KT 10SM OVC015 16/14 A2988 RMK AO2","FM-15","7",,,,,,,,,,,,,,,,,,,,,,,,,,,,
"72493893231","2020-08-22T05:55:00","FM-15","7",,,,,,,,,,,,,,,,,,,,,,,,,,,,,,,,,,,,,,"29.88","57","63",,,,,"83",,"OVC:08 17","29.87","10.00","60","000",,"0",,,,,,,,,,,,,,,,,,,,,,,,,,,,,,,,,,,,,"MET07608/22/20 05:55:02 METAR KSQL 221355Z 00000KT 10SM OVC017 17/14 A2988 RMK AO2","FM-15","7",,,,,,,,,,,,,,,,,,,,,,,,,,,,
"72493893231","2020-08-22T06:00:00","FM-15","4",,,,,,,,,,,,,,,,,,,,,,,,,,,,,,,,,,,,,,"29.88","57","63",,"||FU HZ",,,"83",,,,"10.00",,"000",,"0",,,,,,,,,,,,,,,,,,,,,,,,,,,,,,,,,,,,,"MET057METAR KSQL 221400Z 00000KT 10SM HZ FU FEW014 17/14 A2988=","FM-15","4",,,,,,,,,,,,,,,,,,,,,,,,,,,,
"72493893231","2020-08-22T06:52:00","FM-15","7",,,,,,,,,,,,,,,,,,,,,,,,,,,,,,,,,,,,,,"29.88","57","64",,"HZ:7 FU:3 |FU |FU HZ",,,"78",,"FEW:02 14","29.87","10.00","60","VRB",,"3",,,,,,,,,,,,,,,,,,,,,,,,,,,,,,,,,,,,,"MET07808/22/20 06:52:02 METAR KSQL 221452Z VRB03KT 10SM HZ FU FEW014 18/14 A2988 RMK","FM-15","7",,,,,,,,,,,,,,,,,,,,,,,,,,,,
"72493893231","2020-08-22T07:51:00","FM-15","7",,,,,,,,,,,,,,,,,,,,,,,,,,,,,,,,,,,,,,"29.88","59","66",,"HZ:7 FU:3 |FU |FU HZ",,,"78",,"FEW:02 19","29.87","10.00","62","000",,"0",,,,,,,,,,,,,,,,,,,,,,,,,,,,,,,,,,,,,"MET07808/22/20 07:51:02 METAR KSQL 221551Z 00000KT 10SM HZ FU FEW019 19/15 A2988 RMK","FM-15","7",,,,,,,,,,,,,,,,,,,,,,,,,,,,
"72493893231","2020-08-22T08:47:00","FM-15","7",,,,,,,,,,,,,,,,,,,,,,,,,,,,,,,,,,,,,,"29.88","63","68",,,,,"83",,"FEW:02 13","29.87","7.00","65","VRB",,"3",,,,,,,,,,,,,,,,,,,,,,,,,,,,,,,,,,,,,"MET07208/22/20 08:47:02 METAR KSQL 221647Z VRB03KT 07SM FEW013 20/17 A2988 RMK","FM-15","7",,,,,,,,,,,,,,,,,,,,,,,,,,,,
"72493893231","2020-08-22T10:47:00","FM-15","7",,,,,,,,,,,,,,,,,,,,,,,,,,,,,,,,,,,,,,"29.88","64","75",,"FU:3 |FU |FU",,,"69",,"FEW:02 18","29.87","4.00","68","VRB",,"3",,,,,,,,,,,,,,,,,,,,,,,,,,,,,,,,,,,,,"MET07408/22/20 10:47:02 METAR KSQL 221847Z VRB03KT 4SM FU FEW018 24/18 A2988 RMK","FM-15","7",,,,,,,,,,,,,,,,,,,,,,,,,,,,
"72493893231","2020-08-22T11:47:00","FM-15","7",,,,,,,,,,,,,,,,,,,,,,,,,,,,,,,,,,,,,,"29.87","59","82",,"FU:3 HZ:7 |FU |FU HZ",,,"45",,"FEW:02 18","29.86","4.00","68","330",,"6",,,,,,,,,,,,,,,,,,,,,,,,,,,,,,,,,,,,,"MET07708/22/20 11:47:02 METAR KSQL 221947Z 33005KT 4SM FU HZ FEW018 28/15 A2987 RMK","FM-15","7",,,,,,,,,,,,,,,,,,,,,,,,,,,,
"72493893231","2020-08-22T12:47:00","FM-15","7",,,,,,,,,,,,,,,,,,,,,,,,,,,,,,,,,,,,,,"29.86","59","79",,"FU:3 HZ:7 |FU |FU HZ",,,"51",,"FEW:02 18","29.85","4.00","67","330",,"7",,,,,,,,,,,,,,,,,,,,,,,,,,,,,,,,,,,,,"MET07708/22/20 12:47:02 METAR KSQL 222047Z 33006KT 4SM FU HZ FEW018 26/15 A2986 RMK","FM-15","7",,,,,,,,,,,,,,,,,,,,,,,,,,,,
"72493893231","2020-08-22T14:47:00","FM-15","7",,,,,,,,,,,,,,,,,,,,,,,,,,,,,,,,,,,,,,"29.84","55","84",,,,,"37",,"FEW:02 18","29.83","4.00","66","280",,"10",,,,,,,,,,,,,,,,,,,,,,,,,,,,,,,,,,,,,"MET07108/22/20 14:47:02 METAR KSQL 222247Z 28009KT 4SM FEW018 29/13 A2984 RMK","FM-15","7",,,,,,,,,,,,,,,,,,,,,,,,,,,,
"72493893231","2020-08-22T15:47:00","FM-15","7",,,,,,,,,,,,,,,,,,,,,,,,,,,,,,,,,,,,,,"29.83","55","84",,,,,"37",,,"29.82","10.00","66","260",,"11",,,,,,,,,,,,,,,,,,,,,,,,,,,,,,,,,,,,,"MET06508/22/20 15:47:02 METAR KSQL 222347Z 26010KT 10SM 29/13 A2983 RMK","FM-15","7",,,,,,,,,,,,,,,,,,,,,,,,,,,,
"72493893231","2020-08-22T16:58:00","FM-15","7",,,,,,,,,,,,,,,,,,,,,,,,,,,,,,,,,,,,,,"29.83","55","82",,,,,"40",,"SCT:04 200","29.82","10.00","66","260",,"9",,,,,,,,,,,,,,,,,,,,,,,,,,,,,,,,,,,,,"MET07208/22/20 16:58:01 METAR KSQL 230058Z 26008KT 10SM SCT200 28/13 A2983 RMK","FM-15","7",,,,,,,,,,,,,,,,,,,,,,,,,,,,
"72493893231","2020-08-22T17:58:00","FM-15","7",,,,,,,,,,,,,,,,,,,,,,,,,,,,,,,,,,,,,,"29.83","55","77",,,,,"47",,"SCT:04 200","29.82","10.00","64","280",,"9",,,,,,,,,,,,,,,,,,,,,,,,,,,,,,,,,,,,,"MET07208/22/20 17:58:01 METAR KSQL 230158Z 28008KT 10SM SCT200 25/13 A2983 RMK","FM-15","7",,,,,,,,,,,,,,,,,,,,,,,,,,,,
"72493893231","2020-08-22T19:58:00","FM-15","7",,,,,,,,,,,,,,,,,,,,,,,,,,,,,,,,,,,,,,"29.84","57","73",,,,,"57",,"SCT:04 200","29.83","10.00","63","300",,"5",,,,,,,,,,,,,,,,,,,,,,,,,,,,,,,,,,,,,"MET07708/22/20 19:58:02 METAR KSQL 230358Z 30004KT 10SM SCT200 23/14 A2984 RMK LAST","FM-15","7",,,,,,,,,,,,,,,,,,,,,,,,,,,,
"72493893231","2020-08-22T20:15:00","FM-15","7",,,,,,,,,,,,,,,,,,,,,,,,,,,,,,,,,,,,,,"29.86","59","70",,,,,"69",,"CLR:00","29.85","10.00","63","320",,"5",,,,,,,,,,,,,,,,,,,,,,,,,,,,,,,,,,,,,"MET07308/22/20 20:15:02 METAR KSQL 230415Z 32004KT 10SM CLR 21/15 A2986 RMK AO2","FM-15","7",,,,,,,,,,,,,,,,,,,,,,,,,,,,
"72493893231","2020-08-22T20:35:00","FM-15","7",,,,,,,,,,,,,,,,,,,,,,,,,,,,,,,,,,,,,,"29.86","57","68",,,,,"69",,"CLR:00","29.85","10.00","62","310",,"7",,,,,,,,,,,,,,,,,,,,,,,,,,,,,,,,,,,,,"MET07308/22/20 20:35:02 METAR KSQL 230435Z 31006KT 10SM CLR 20/14 A2986 RMK AO2","FM-15","7",,,,,,,,,,,,,,,,,,,,,,,,,,,,
"72493893231","2020-08-22T20:55:00","FM-15","7",,,,,,,,,,,,,,,,,,,,,,,,,,,,,,,,,,,,,,"29.86","57","68",,,,,"69",,"CLR:00","29.85","10.00","62","020",,"3",,,,,,,,,,,,,,,,,,,,,,,,,,,,,,,,,,,,,"MET07308/22/20 20:55:02 METAR KSQL 230455Z 02003KT 10SM CLR 20/14 A2986 RMK AO2","FM-15","7",,,,,,,,,,,,,,,,,,,,,,,,,,,,
"72493893231","2020-08-22T21:15:00","FM-15","7",,,,,,,,,,,,,,,,,,,,,,,,,,,,,,,,,,,,,,"29.86","61","66",,,,,"83",,"CLR:00","29.85","10.00","63","360",,"3",,,,,,,,,,,,,,,,,,,,,,,,,,,,,,,,,,,,,"MET07308/22/20 21:15:02 METAR KSQL 230515Z 36003KT 10SM CLR 19/16 A2986 RMK AO2","FM-15","7",,,,,,,,,,,,,,,,,,,,,,,,,,,,
"72493893231","2020-08-22T21:35:00","FM-15","7",,,,,,,,,,,,,,,,,,,,,,,,,,,,,,,,,,,,,,"29.86","59","66",,,,,"78",,"CLR:00","29.85","10.00","62","040",,"3",,,,,,,,,,,,,,,,,,,,,,,,,,,,,,,,,,,,,"MET07308/22/20 21:35:02 METAR KSQL 230535Z 04003KT 10SM CLR 19/15 A2986 RMK AO2","FM-15","7",,,,,,,,,,,,,,,,,,,,,,,,,,,,
"72493893231","2020-08-22T21:55:00","FM-15","7",,,,,,,,,,,,,,,,,,,,,,,,,,,,,,,,,,,,,,"29.86","61","66",,,,,"83",,"CLR:00","29.85","10.00","63","000",,"0",,,,,,,,,,,,,,,,,,,,,,,,,,,,,,,,,,,,,"MET07308/22/20 21:55:02 METAR KSQL 230555Z 00000KT 10SM CLR 19/16 A2986 RMK AO2","FM-15","7",,,,,,,,,,,,,,,,,,,,,,,,,,,,
"72493893231","2020-08-22T22:15:00","FM-15","7",,,,,,,,,,,,,,,,,,,,,,,,,,,,,,,,,,,,,,"29.85","59","66",,,,,"78",,"CLR:00","29.84","10.00","62","310",,"5",,,,,,,,,,,,,,,,,,,,,,,,,,,,,,,,,,,,,"MET07308/22/20 22:15:02 METAR KSQL 230615Z 31004KT 10SM CLR 19/15 A2985 RMK AO2","FM-15","7",,,,,,,,,,,,,,,,,,,,,,,,,,,,
"72493893231","2020-08-22T22:35:00","FM-15","7",,,,,,,,,,,,,,,,,,,,,,,,,,,,,,,,,,,,,,"29.85","59","66",,,,,"78",,"CLR:00","29.84","10.00","62","310",,"5",,,,,,,,,,,,,,,,,,,,,,,,,,,,,,,,,,,,,"MET07308/22/20 22:35:02 METAR KSQL 230635Z 31004KT 10SM CLR 19/15 A2985 RMK AO2","FM-15","7",,,,,,,,,,,,,,,,,,,,,,,,,,,,
"72493893231","2020-08-22T22:55:00","FM-15","7",,,,,,,,,,,,,,,,,,,,,,,,,,,,,,,,,,,,,,"29.85","57","64",,,,,"78",,"CLR:00","29.84","10.00","60","330",,"3",,,,,,,,,,,,,,,,,,,,,,,,,,,,,,,,,,,,,"MET07308/22/20 22:55:02 METAR KSQL 230655Z 33003KT 10SM CLR 18/14 A2985 RMK AO2","FM-15","7",,,,,,,,,,,,,,,,,,,,,,,,,,,,
"72493893231","2020-08-22T23:15:00","FM-15","7",,,,,,,,,,,,,,,,,,,,,,,,,,,,,,,,,,,,,,"29.85","57","64",,,,,"78",,"CLR:00","29.84","10.00","60","000",,"0",,,,,,,,,,,,,,,,,,,,,,,,,,,,,,,,,,,,,"MET07308/22/20 23:15:02 METAR KSQL 230715Z 00000KT 10SM CLR 18/14 A2985 RMK AO2","FM-15","7",,,,,,,,,,,,,,,,,,,,,,,,,,,,
"72493893231","2020-08-22T23:35:00","FM-15","7",,,,,,,,,,,,,,,,,,,,,,,,,,,,,,,,,,,,,,"29.85","57","64",,,,,"78",,"CLR:00","29.84","10.00","60","000",,"0",,,,,,,,,,,,,,,,,,,,,,,,,,,,,,,,,,,,,"MET07308/22/20 23:35:02 METAR KSQL 230735Z 00000KT 10SM CLR 18/14 A2985 RMK AO2","FM-15","7",,,,,,,,,,,,,,,,,,,,,,,,,,,,
"72493893231","2020-08-22T23:55:00","FM-15","7",,,,,,,,,,,,,,,,,,,,,,,,,,,,,,,,,,,,,,"29.86","57","64",,,,,"78",,"CLR:00","29.85","10.00","60","000",,"0",,,,,,,,,,,,,,,,,,,,,,,,,,,,,,,,,,,,,"MET07308/22/20 23:55:02 METAR KSQL 230755Z 00000KT 10SM CLR 18/14 A2986 RMK AO2","FM-15","7",,,,,,,,,,,,,,,,,,,,,,,,,,,,
"72493893231","2020-08-22T23:59:00","SOD  ","O",,,,,,,,,,,,,,,,,,,,,,,,,,,,,,,,,,"HZ",,,,,,,,,,,,,,,,,,,,,,,,,,,,,,,,,,,,,,,,,,,,,,,,,,,,,,,,,"SOD  ","O",,,,,,,,,,,,,,,,,,,,,,,,,"0532","1851",,
"72493893231","2020-08-23T00:15:00","FM-15","7",,,,,,,,,,,,,,,,,,,,,,,,,,,,,,,,,,,,,,"29.85","59","64",,,,,"83",,"BKN:07 19","29.84","10.00","61","000",,"0",,,,,,,,,,,,,,,,,,,,,,,,,,,,,,,,,,,,,"MET07608/23/20 00:15:02 METAR KSQL 230815Z 00000KT 10SM BKN019 18/15 A2985 RMK AO2","FM-15","7",,,,,,,,,,,,,,,,,,,,,,,,,,,,
"72493893231","2020-08-23T00:35:00","FM-15","7",,,,,,,,,,,,,,,,,,,,,,,,,,,,,,,,,,,,,,"29.85","59","64",,,,,"83",,"BKN:07 19","29.84","10.00","61","000",,"0",,,,,,,,,,,,,,,,,,,,,,,,,,,,,,,,,,,,,"MET07608/23/20 00:35:02 METAR KSQL 230835Z 00000KT 10SM BKN019 18/15 A2985 RMK AO2","FM-15","7",,,,,,,,,,,,,,,,,,,,,,,,,,,,
"72493893231","2020-08-23T00:55:00","FM-15","7",,,,,,,,,,,,,,,,,,,,,,,,,,,,,,,,,,,,,,"29.85","57","64",,,,,"78",,"CLR:00","29.84","10.00","60","000",,"0",,,,,,,,,,,,,,,,,,,,,,,,,,,,,,,,,,,,,"MET07308/23/20 00:55:02 METAR KSQL 230855Z 00000KT 10SM CLR 18/14 A2985 RMK AO2","FM-15","7",,,,,,,,,,,,,,,,,,,,,,,,,,,,
"72493893231","2020-08-23T01:15:00","FM-15","7",,,,,,,,,,,,,,,,,,,,,,,,,,,,,,,,,,,,,,"29.85","57","64",,,,,"78",,"FEW:02 19","29.84","10.00","60","350",,"3",,,,,,,,,,,,,,,,,,,,,,,,,,,,,,,,,,,,,"MET07608/23/20 01:15:02 METAR KSQL 230915Z 35003KT 10SM FEW019 18/14 A2985 RMK AO2","FM-15","7",,,,,,,,,,,,,,,,,,,,,,,,,,,,
"72493893231","2020-08-23T01:35:00","FM-15","7",,,,,,,,,,,,,,,,,,,,,,,,,,,,,,,,,,,,,,"29.85","57","63",,,,,"83",,"BKN:07 17","29.84","10.00","60","310",,"6",,,,,,,,,,,,,,,,,,,,,,,,,,,,,,,,,,,,,"MET07608/23/20 01:35:02 METAR KSQL 230935Z 31005KT 10SM BKN017 17/14 A2985 RMK AO2","FM-15","7",,,,,,,,,,,,,,,,,,,,,,,,,,,,
"72493893231","2020-08-23T01:55:00","FM-15","7",,,,,,,,,,,,,,,,,,,,,,,,,,,,,,,,,,,,,,"29.85","57","63",,,,,"83",,"OVC:08 17","29.84","10.00","60","310",,"7",,,,,,,,,,,,,,,,,,,,,,,,,,,,,,,,,,,,,"MET07608/23/20 01:55:02 METAR KSQL 230955Z 31006KT 10SM OVC017 17/14 A2985 RMK AO2","FM-15","7",,,,,,,,,,,,,,,,,,,,,,,,,,,,
"72493893231","2020-08-23T02:15:00","FM-15","7",,,,,,,,,,,,,,,,,,,,,,,,,,,,,,,,,,,,,,"29.85","57","63",,,,,"83",,"OVC:08 17","29.84","10.00","60","310",,"5",,,,,,,,,,,,,,,,,,,,,,,,,,,,,,,,,,,,,"MET07608/23/20 02:15:02 METAR KSQL 231015Z 31004KT 10SM OVC017 17/14 A2985 RMK AO2","FM-15","7",,,,,,,,,,,,,,,,,,,,,,,,,,,,
"72493893231","2020-08-23T02:35:00","FM-15","7",,,,,,,,,,,,,,,,,,,,,,,,,,,,,,,,,,,,,,"29.85","57","63",,,,,"83",,"OVC:08 17","29.84","10.00","60","320",,"3",,,,,,,,,,,,,,,,,,,,,,,,,,,,,,,,,,,,,"MET07608/23/20 02:35:02 METAR KSQL 231035Z 32003KT 10SM OVC017 17/14 A2985 RMK AO2","FM-15","7",,,,,,,,,,,,,,,,,,,,,,,,,,,,
"72493893231","2020-08-23T02:55:00","FM-15","7",,,,,,,,,,,,,,,,,,,,,,,,,,,,,,,,,,,,,,"29.85","57","63",,,,,"83",,"OVC:08 17","29.84","10.00","60","300",,"3",,,,,,,,,,,,,,,,,,,,,,,,,,,,,,,,,,,,,"MET07608/23/20 02:55:02 METAR KSQL 231055Z 30003KT 10SM OVC017 17/14 A2985 RMK AO2","FM-15","7",,,,,,,,,,,,,,,,,,,,,,,,,,,,
"72493893231","2020-08-23T03:15:00","FM-15","7",,,,,,,,,,,,,,,,,,,,,,,,,,,,,,,,,,,,,,"29.85","55","63",,,,,"77",,"OVC:08 17","29.84","10.00","58","310",,"3",,,,,,,,,,,,,,,,,,,,,,,,,,,,,,,,,,,,,"MET07608/23/20 03:15:02 METAR KSQL 231115Z 31003KT 10SM OVC017 17/13 A2985 RMK AO2","FM-15","7",,,,,,,,,,,,,,,,,,,,,,,,,,,,
"72493893231","2020-08-23T03:35:00","FM-15","7",,,,,,,,,,,,,,,,,,,,,,,,,,,,,,,,,,,,,,"29.85","57","63",,,,,"83",,"OVC:08 17","29.84","10.00","60","310",,"3",,,,,,,,,,,,,,,,,,,,,,,,,,,,,,,,,,,,,"MET07608/23/20 03:35:02 METAR KSQL 231135Z 31003KT 10SM OVC017 17/14 A2985 RMK AO2","FM-15","7",,,,,,,,,,,,,,,,,,,,,,,,,,,,
"72493893231","2020-08-23T03:55:00","FM-15","7",,,,,,,,,,,,,,,,,,,,,,,,,,,,,,,,,,,,,,"29.85","57","61",,,,,"88",,"OVC:08 17","29.84","10.00","59","310",,"3",,,,,,,,,,,,,,,,,,,,,,,,,,,,,,,,,,,,,"MET07608/23/20 03:55:02 METAR KSQL 231155Z 31003KT 10SM OVC017 16/14 A2985 RMK AO2","FM-15","7",,,,,,,,,,,,,,,,,,,,,,,,,,,,
"72493893231","2020-08-23T04:15:00","FM-15","7",,,,,,,,,,,,,,,,,,,,,,,,,,,,,,,,,,,,,,"29.85","55","63",,,,,"77",,"OVC:08 17","29.84","10.00","58","000",,"0",,,,,,,,,,,,,,,,,,,,,,,,,,,,,,,,,,,,,"MET07608/23/20 04:15:02 METAR KSQL 231215Z 00000KT 10SM OVC017 17/13 A2985 RMK AO2","FM-15","7",,,,,,,,,,,,,,,,,,,,,,,,,,,,
"72493893231","2020-08-23T04:35:00","FM-15","7",,,,,,,,,,,,,,,,,,,,,,,,,,,,,,,,,,,,,,"29.85","55","63",,,,,"77",,"OVC:08 17","29.84","10.00","58","000",,"0",,,,,,,,,,,,,,,,,,,,,,,,,,,,,,,,,,,,,"MET07608/23/20 04:35:02 METAR KSQL 231235Z 00000KT 10SM OVC017 17/13 A2985 RMK AO2","FM-15","7",,,,,,,,,,,,,,,,,,,,,,,,,,,,
"72493893231","2020-08-23T04:55:00","FM-15","7",,,,,,,,,,,,,,,,,,,,,,,,,,,,,,,,,,,,,,"29.85","55","63",,,,,"77",,"OVC:08 17","29.84","10.00","58","000",,"0",,,,,,,,,,,,,,,,,,,,,,,,,,,,,,,,,,,,,"MET07608/23/20 04:55:02 METAR KSQL 231255Z 00000KT 10SM OVC017 17/13 A2985 RMK AO2","FM-15","7",,,,,,,,,,,,,,,,,,,,,,,,,,,,
"72493893231","2020-08-23T05:15:00","FM-15","7",,,,,,,,,,,,,,,,,,,,,,,,,,,,,,,,,,,,,,"29.86","55","63",,,,,"77",,"OVC:08 17","29.85","10.00","58","000",,"0",,,,,,,,,,,,,,,,,,,,,,,,,,,,,,,,,,,,,"MET07608/23/20 05:15:02 METAR KSQL 231315Z 00000KT 10SM OVC017 17/13 A2986 RMK AO2","FM-15","7",,,,,,,,,,,,,,,,,,,,,,,,,,,,
"72493893231","2020-08-23T05:35:00","FM-15","7",,,,,,,,,,,,,,,,,,,,,,,,,,,,,,,,,,,,,,"29.87","55","63",,,,,"77",,"OVC:08 17","29.86","10.00","58","000",,"0",,,,,,,,,,,,,,,,,,,,,,,,,,,,,,,,,,,,,"MET07608/23/20 05:35:02 METAR KSQL 231335Z 00000KT 10SM OVC017 17/13 A2987 RMK AO2","FM-15","7",,,,,,,,,,,,,,,,,,,,,,,,,,,,
"72493893231","2020-08-23T05:55:00","FM-15","7",,,,,,,,,,,,,,,,,,,,,,,,,,,,,,,,,,,,,,"29.87","55","63",,,,,"77",,"BKN:07 17","29.86","8.00","58","000",,"0",,,,,,,,,,,,,,,,,,,,,,,,,,,,,,,,,,,,,"MET07508/23/20 05:55:02 METAR KSQL 231355Z 00000KT 8SM BKN017 17/13 A2987 RMK AO2","FM-15","7",,,,,,,,,,,,,,,,,,,,,,,,,,,,
"72493893231","2020-08-23T06:00:00","FM-15","4",,,,,,,,,,,,,,,,,,,,,,,,,,,,,,,,,,,,,,"29.88","55","63",,,,,"77",,,,"10.00",,"000",,"0",,,,,,,,,,,,,,,,,,,,,,,,,,,,,,,,,,,,,"MET051METAR KSQL 231400Z 00000KT 10SM OVC017 17/13 A2988=","FM-15","4",,,,,,,,,,,,,,,,,,,,,,,,,,,,
"72493893231","2020-08-23T06:47:00","FM-15","7",,,,,,,,,,,,,,,,,,,,,,,,,,,,,,,,,,,,,,"29.89","57","64",,,,,"78",,"OVC:08 17","29.88","10.00","60","000",,"0",,,,,,,,,,,,,,,,,,,,,,,,,,,,,,,,,,,,,"MET07208/23/20 06:47:02 METAR KSQL 231447Z 00000KT 10SM OVC017 18/14 A2989 RMK","FM-15","7",,,,,,,,,,,,,,,,,,,,,,,,,,,,
"72493893231","2020-08-23T07:47:00","FM-15","7",,,,,,,,,,,,,,,,,,,,,,,,,,,,,,,,,,,,,,"29.89","59","66",,,,,"78",,"FEW:02 15","29.88","10.00","62","000",,"0",,,,,,,,,,,,,,,,,,,,,,,,,,,,,,,,,,,,,"MET07208/23/20 07:47:02 METAR KSQL 231547Z 00000KT 10SM FEW015 19/15 A2989 RMK","FM-15","7",,,,,,,,,,,,,,,,,,,,,,,,,,,,
"72493893231","2020-08-23T11:54:00","FM-15","7",,,,,,,,,,,,,,,,,,,,,,,,,,,,,,,,,,,,,,"29.87","61","75",,"FU:3 HZ:7 |FU |FU HZ",,,"61",,"SCT:04 15","29.86","2.00","66","350",,"7",,,,,,,,,,,,,,,,,,,,,,,,,,,,,,,,,,,,,"MET07708/23/20 11:54:02 METAR KSQL 231954Z 35006KT 2SM FU HZ SCT015 24/16 A2987 RMK","FM-15","7",,,,,,,,,,,,,,,,,,,,,,,,,,,,
"72493893231","2020-08-23T12:54:00","FM-15","7",,,,,,,,,,,,,,,,,,,,,,,,,,,,,,,,,,,,,,"29.87","61","75",,,,,"61",,"SCT:04 15","29.86","2.00","66","340",,"7",,,,,,,,,,,,,,,,,,,,,,,,,,,,,,,,,,,,,"MET07108/23/20 12:54:02 METAR KSQL 232054Z 34006KT 2SM SCT015 24/16 A2987 RMK","FM-15","7",,,,,,,,,,,,,,,,,,,,,,,,,,,,
"72493893231","2020-08-23T14:53:00","FM-15","7",,,,,,,,,,,,,,,,,,,,,,,,,,,,,,,,,,,,,,"29.84","63","73",,"* |* |*",,,"69",,"SCT:04 15","29.83","2.50","67","010",,"8",,,,,,,,,,,,,,,,,,,,,,,,,,,,,,,,,,,,,"MET08108/23/20 14:53:02 METAR KSQL 232253Z 01007KT 2 1/2SM FU HU SCT015 23/17 A2984 RMK","FM-15","7",,,,,,,,,,,,,,,,,,,,,,,,,,,,
"72493893231","2020-08-23T15:47:00","FM-15","7",,,,,,,,,,,,,,,,,,,,,,,,,,,,,,,,,,,,,,"29.83","64","72",,"FU:3 HZ:7 |FU |FU HZ",,,"78",,"SCT:04 15","29.82","3.00","67","010",,"7",,,,,,,,,,,,,,,,,,,,,,,,,,,,,,,,,,,,,"MET07708/23/20 15:47:02 METAR KSQL 232347Z 01006KT 3SM FU HZ SCT015 22/18 A2983 RMK","FM-15","7",,,,,,,,,,,,,,,,,,,,,,,,,,,,
"72493893231","2020-08-23T16:56:00","FM-15","7",,,,,,,,,,,,,,,,,,,,,,,,,,,,,,,,,,,,,,"29.82","63","75",,"FU:3 HZ:7 |FU |FU HZ",,,"65",,"SCT:04 15","29.81","3.00","67","000",,"0",,,,,,,,,,,,,,,,,,,,,,,,,,,,,,,,,,,,,"MET07708/23/20 16:56:01 METAR KSQL 240056Z 00000KT 3SM FU HZ SCT015 24/17 A2982 RMK","FM-15","7",,,,,,,,,,,,,,,,,,,,,,,,,,,,
"72493893231","2020-08-23T17:57:00","FM-15","7",,,,,,,,,,,,,,,,,,,,,,,,,,,,,,,,,,,,,,"29.83","61","68",,"FU:3 HZ:7 |FU |FU HZ",,,"78",,"SCT:04 21","29.82","3.00","64","330",,"10",,,,,,,,,,,,,,,,,,,,,,,,,,,,,,,,,,,,,"MET07708/23/20 17:57:02 METAR KSQL 240157Z 33009KT 3SM FU HZ SCT021 20/16 A2983 RMK","FM-15","7",,,,,,,,,,,,,,,,,,,,,,,,,,,,
"72493893231","2020-08-23T18:51:00","FM-15","7",,,,,,,,,,,,,,,,,,,,,,,,,,,,,,,,,,,,,,"29.84","64","70",,"FU:3 HZ:7 |FU |FU HZ",,,"83",,"SCT:04 15 BKN:07 24 OVC:08 75","29.83","3.00","66","090","16","11",,,,,,,,,,,,,,,,,,,,,,,,,,,,,,,,,,,,,"MET09408/23/20 18:51:02 METAR KSQL 240251Z 09010G14KT 3SM FU HZ SCT015 BKN024 OVC075 21/18 A2984 RMK","FM-15","7",,,,,,,,,,,,,,,,,,,,,,,,,,,,
"72493893231","2020-08-23T19:58:00","FM-15","7",,,,,,,,,,,,,,,,,,,,,,,,,,,,,,,,,,,,,,"29.86","63","68",,"FU:3 HZ:7 |FU |FU HZ",,,"83",,"BKN:07 20 OVC:08 33","29.85","6.00","65","VRB",,"3",,,,,,,,,,,,,,,,,,,,,,,,,,,,,,,,,,,,,"MET08908/23/20 19:58:02 METAR KSQL 240358Z VRB03KT 6SM FU HZ BKN020 OVC033 20/17 A2986 RMK LAST","FM-15","7",,,,,,,,,,,,,,,,,,,,,,,,,,,,
"72493893231","2020-08-23T20:15:00","FM-15","7",,,,,,,,,,,,,,,,,,,,,,,,,,,,,,,,,,,,,,"29.86","64","70",,,,,"83",,"BKN:07 20 BKN:07 37","29.85","10.00","66","130",,"3",,,,,,,,,,,,,,,,,,,,,,,,,,,,,,,,,,,,,"MET08308/23/20 20:15:02 METAR KSQL 240415Z 13003KT 10SM BKN020 BKN037 21/18 A2986 RMK AO2","FM-15","7",,,,,,,,,,,,,,,,,,,,,,,,,,,,
"72493893231","2020-08-23T20:35:00","FM-15","7",,,,,,,,,,,,,,,,,,,,,,,,,,,,,,,,,,,,,,"29.86","64","68",,,,,"88",,"FEW:02 15 SCT:04 20 BKN:07 37","29.85","10.00","66","130",,"3",,,,,,,,,,,,,,,,,,,,,,,,,,,,,,,,,,,,,"MET09008/23/20 20:35:02 METAR KSQL 240435Z 13003KT 10SM FEW015 SCT020 BKN037 20/18 A2986 RMK AO2","FM-15","7",,,,,,,,,,,,,,,,,,,,,,,,,,,,
"72493893231","2020-08-23T20:55:00","FM-15","7",,,,,,,,,,,,,,,,,,,,,,,,,,,,,,,,,,,,,,"29.85","63","70",,,,,"78",,"SCT:04 18 SCT:04 37","29.84","10.00","66","000",,"0",,,,,,,,,,,,,,,,,,,,,,,,,,,,,,,,,,,,,"MET08308/23/20 20:55:02 METAR KSQL 240455Z 00000KT 10SM SCT018 SCT037 21/17 A2985 RMK AO2","FM-15","7",,,,,,,,,,,,,,,,,,,,,,,,,,,,
"72493893231","2020-08-23T21:15:00","FM-15","7",,,,,,,,,,,,,,,,,,,,,,,,,,,,,,,,,,,,,,"29.84","63","70",,,,,"78",,"BKN:07 16 BKN:07 34","29.83","10.00","66","300",,"6",,,,,,,,,,,,,,,,,,,,,,,,,,,,,,,,,,,,,"MET08308/23/20 21:15:02 METAR KSQL 240515Z 30005KT 10SM BKN016 BKN034 21/17 A2984 RMK AO2","FM-15","7",,,,,,,,,,,,,,,,,,,,,,,,,,,,
"72493893231","2020-08-23T21:35:00","FM-15","7",,,,,,,,,,,,,,,,,,,,,,,,,,,,,,,,,,,,,,"29.85","64","70",,,,,"83",,"BKN:07 14 OVC:08 33","29.84","10.00","66","070",,"5",,,,,,,,,,,,,,,,,,,,,,,,,,,,,,,,,,,,,"MET08308/23/20 21:35:02 METAR KSQL 240535Z 07004KT 10SM BKN014 OVC033 21/18 A2985 RMK AO2","FM-15","7",,,,,,,,,,,,,,,,,,,,,,,,,,,,
"72493893231","2020-08-23T21:55:00","FM-15","7",,,,,,,,,,,,,,,,,,,,,,,,,,,,,,,,,,,,,,"29.84","66","68",,,,,"94",,"OVC:08 16","29.83","9.00","67","330",,"5",,,,,,,,,,,,,,,,,,,,,,,,,,,,,,,,,,,,,"MET07508/23/20 21:55:02 METAR KSQL 240555Z 33004KT 9SM OVC016 20/19 A2984 RMK AO2","FM-15","7",,,,,,,,,,,,,,,,,,,,,,,,,,,,
"72493893231","2020-08-23T22:15:00","FM-15","7",,,,,,,,,,,,,,,,,,,,,,,,,,,,,,,,,,,,,,"29.83","63","68",,,,,"83",,"BKN:07 18","29.82","10.00","65","310",,"9",,,,,,,,,,,,,,,,,,,,,,,,,,,,,,,,,,,,,"MET07608/23/20 22:15:02 METAR KSQL 240615Z 31008KT 10SM BKN018 20/17 A2983 RMK AO2","FM-15","7",,,,,,,,,,,,,,,,,,,,,,,,,,,,
"72493893231","2020-08-23T22:35:00","FM-15","7",,,,,,,,,,,,,,,,,,,,,,,,,,,,,,,,,,,,,,"29.83","59","68",,,,,"73",,"OVC:08 18","29.82","10.00","63","350",,"6",,,,,,,,,,,,,,,,,,,,,,,,,,,,,,,,,,,,,"MET07608/23/20 22:35:02 METAR KSQL 240635Z 35005KT 10SM OVC018 20/15 A2983 RMK AO2","FM-15","7",,,,,,,,,,,,,,,,,,,,,,,,,,,,
"72493893231","2020-08-23T22:55:00","FM-15","7",,,,,,,,,,,,,,,,,,,,,,,,,,,,,,,,,,,,,,"29.84","61","66",,,,,"83",,"OVC:08 20","29.83","10.00","63","330",,"5",,,,,,,,,,,,,,,,,,,,,,,,,,,,,,,,,,,,,"MET07608/23/20 22:55:02 METAR KSQL 240655Z 33004KT 10SM OVC020 19/16 A2984 RMK AO2","FM-15","7",,,,,,,,,,,,,,,,,,,,,,,,,,,,
"72493893231","2020-08-23T23:15:00","FM-15","7",,,,,,,,,,,,,,,,,,,,,,,,,,,,,,,,,,,,,,"29.85","59","66",,,,,"78",,"OVC:08 20","29.84","10.00","62","000",,"0",,,,,,,,,,,,,,,,,,,,,,,,,,,,,,,,,,,,,"MET07608/23/20 23:15:02 METAR KSQL 240715Z 00000KT 10SM OVC020 19/15 A2985 RMK AO2","FM-15","7",,,,,,,,,,,,,,,,,,,,,,,,,,,,
"72493893231","2020-08-23T23:35:00","FM-15","7",,,,,,,,,,,,,,,,,,,,,,,,,,,,,,,,,,,,,,"29.85","61","64",,,,,"88",,"OVC:08 22","29.84","10.00","62","020",,"3",,,,,,,,,,,,,,,,,,,,,,,,,,,,,,,,,,,,,"MET07608/23/20 23:35:02 METAR KSQL 240735Z 02003KT 10SM OVC022 18/16 A2985 RMK AO2","FM-15","7",,,,,,,,,,,,,,,,,,,,,,,,,,,,
"72493893231","2020-08-23T23:55:00","FM-15","7",,,,,,,,,,,,,,,,,,,,,,,,,,,,,,,,,,,,,,"29.84","61","64",,,,,"88",,"OVC:08 22","29.83","10.00","62","020",,"5",,,,,,,,,,,,,,,,,,,,,,,,,,,,,,,,,,,,,"MET07608/23/20 23:55:02 METAR KSQL 240755Z 02004KT 10SM OVC022 18/16 A2984 RMK AO2","FM-15","7",,,,,,,,,,,,,,,,,,,,,,,,,,,,
"72493893231","2020-08-23T23:59:00","SOD  ","O",,,,,,,,,,,,,,,,,,,,,,,,,,,,,,,,,,"HZ",,,,,,,,,,,,,,,,,,,,,,,,,,,,,,,,,,,,,,,,,,,,,,,,,,,,,,,,,"SOD  ","O",,,,,,,,,,,,,,,,,,,,,,,,,"0532","1850",,
"72493893231","2020-08-24T00:15:00","FM-15","7",,,,,,,,,,,,,,,,,,,,,,,,,,,,,,,,,,,,,,"29.86","59","64",,,,,"83",,"OVC:08 20","29.85","10.00","61","020",,"3",,,,,,,,,,,,,,,,,,,,,,,,,,,,,,,,,,,,,"MET07608/24/20 00:15:02 METAR KSQL 240815Z 02003KT 10SM OVC020 18/15 A2986 RMK AO2","FM-15","7",,,,,,,,,,,,,,,,,,,,,,,,,,,,
"72493893231","2020-08-24T00:35:00","FM-15","7",,,,,,,,,,,,,,,,,,,,,,,,,,,,,,,,,,,,,,"29.85","59","64",,,,,"83",,"OVC:08 20","29.84","10.00","61","350",,"3",,,,,,,,,,,,,,,,,,,,,,,,,,,,,,,,,,,,,"MET07608/24/20 00:35:02 METAR KSQL 240835Z 35003KT 10SM OVC020 18/15 A2985 RMK AO2","FM-15","7",,,,,,,,,,,,,,,,,,,,,,,,,,,,
"72493893231","2020-08-24T00:55:00","FM-15","7",,,,,,,,,,,,,,,,,,,,,,,,,,,,,,,,,,,,,,"29.84","59","63",,,,,"88",,"BKN:07 20","29.83","10.00","61","340",,"5",,,,,,,,,,,,,,,,,,,,,,,,,,,,,,,,,,,,,"MET07608/24/20 00:55:02 METAR KSQL 240855Z 34004KT 10SM BKN020 17/15 A2984 RMK AO2","FM-15","7",,,,,,,,,,,,,,,,,,,,,,,,,,,,
"72493893231","2020-08-24T01:15:00","FM-15","7",,,,,,,,,,,,,,,,,,,,,,,,,,,,,,,,,,,,,,"29.85","59","64",,,,,"83",,"OVC:08 20","29.84","10.00","61","000",,"0",,,,,,,,,,,,,,,,,,,,,,,,,,,,,,,,,,,,,"MET07608/24/20 01:15:02 METAR KSQL 240915Z 00000KT 10SM OVC020 18/15 A2985 RMK AO2","FM-15","7",,,,,,,,,,,,,,,,,,,,,,,,,,,,
"72493893231","2020-08-24T01:35:00","FM-15","7",,,,,,,,,,,,,,,,,,,,,,,,,,,,,,,,,,,,,,"29.85","59","64",,,,,"83",,"OVC:08 20","29.84","10.00","61","360",,"5",,,,,,,,,,,,,,,,,,,,,,,,,,,,,,,,,,,,,"MET07608/24/20 01:35:02 METAR KSQL 240935Z 36004KT 10SM OVC020 18/15 A2985 RMK AO2","FM-15","7",,,,,,,,,,,,,,,,,,,,,,,,,,,,
"72493893231","2020-08-24T01:55:00","FM-15","7",,,,,,,,,,,,,,,,,,,,,,,,,,,,,,,,,,,,,,"29.85","59","64",,,,,"83",,"OVC:08 22","29.84","10.00","61","300",,"3",,,,,,,,,,,,,,,,,,,,,,,,,,,,,,,,,,,,,"MET07608/24/20 01:55:02 METAR KSQL 240955Z 30003KT 10SM OVC022 18/15 A2985 RMK AO2","FM-15","7",,,,,,,,,,,,,,,,,,,,,,,,,,,,
"72493893231","2020-08-24T02:15:00","FM-15","7",,,,,,,,,,,,,,,,,,,,,,,,,,,,,,,,,,,,,,"29.85","59","64",,,,,"83",,"FEW:02 18 BKN:07 24 BKN:07 31","29.84","10.00","61","300",,"3",,,,,,,,,,,,,,,,,,,,,,,,,,,,,,,,,,,,,"MET09008/24/20 02:15:02 METAR KSQL 241015Z 30003KT 10SM FEW018 BKN024 BKN031 18/15 A2985 RMK AO2","FM-15","7",,,,,,,,,,,,,,,,,,,,,,,,,,,,
"72493893231","2020-08-24T02:35:00","FM-15","7",,,,,,,,,,,,,,,,,,,,,,,,,,,,,,,,,,,,,,"29.85","59","64",,,,,"83",,"SCT:04 24 SCT:04 32","29.84","10.00","61","000",,"0",,,,,,,,,,,,,,,,,,,,,,,,,,,,,,,,,,,,,"MET08308/24/20 02:35:02 METAR KSQL 241035Z 00000KT 10SM SCT024 SCT032 18/15 A2985 RMK AO2","FM-15","7",,,,,,,,,,,,,,,,,,,,,,,,,,,,
"72493893231","2020-08-24T02:55:00","FM-15","7",,,,,,,,,,,,,,,,,,,,,,,,,,,,,,,,,,,,,,"29.85","59","64",,,,,"83",,"BKN:07 15","29.84","10.00","61","000",,"0",,,,,,,,,,,,,,,,,,,,,,,,,,,,,,,,,,,,,"MET07608/24/20 02:55:02 METAR KSQL 241055Z 00000KT 10SM BKN015 18/15 A2985 RMK AO2","FM-15","7",,,,,,,,,,,,,,,,,,,,,,,,,,,,
"72493893231","2020-08-24T03:15:00","FM-15","7",,,,,,,,,,,,,,,,,,,,,,,,,,,,,,,,,,,,,,"29.84","59","64",,,,,"83",,"OVC:08 15","29.83","10.00","61","000",,"0",,,,,,,,,,,,,,,,,,,,,,,,,,,,,,,,,,,,,"MET07608/24/20 03:15:02 METAR KSQL 241115Z 00000KT 10SM OVC015 18/15 A2984 RMK AO2","FM-15","7",,,,,,,,,,,,,,,,,,,,,,,,,,,,
"72493893231","2020-08-24T03:35:00","FM-15","7",,,,,,,,,,,,,,,,,,,,,,,,,,,,,,,,,,,,,,"29.84","59","64",,,,,"83",,"OVC:08 15","29.83","10.00","61","000",,"0",,,,,,,,,,,,,,,,,,,,,,,,,,,,,,,,,,,,,"MET07608/24/20 03:35:02 METAR KSQL 241135Z 00000KT 10SM OVC015 18/15 A2984 RMK AO2","FM-15","7",,,,,,,,,,,,,,,,,,,,,,,,,,,,
"72493893231","2020-08-24T03:55:00","FM-15","7",,,,,,,,,,,,,,,,,,,,,,,,,,,,,,,,,,,,,,"29.84","59","64",,,,,"83",,"OVC:08 15","29.83","10.00","61","000",,"0",,,,,,,,,,,,,,,,,,,,,,,,,,,,,,,,,,,,,"MET07608/24/20 03:55:02 METAR KSQL 241155Z 00000KT 10SM OVC015 18/15 A2984 RMK AO2","FM-15","7",,,,,,,,,,,,,,,,,,,,,,,,,,,,
"72493893231","2020-08-24T04:15:00","FM-15","7",,,,,,,,,,,,,,,,,,,,,,,,,,,,,,,,,,,,,,"29.84","59","64",,,,,"83",,"OVC:08 15","29.83","10.00","61","000",,"0",,,,,,,,,,,,,,,,,,,,,,,,,,,,,,,,,,,,,"MET07608/24/20 04:15:02 METAR KSQL 241215Z 00000KT 10SM OVC015 18/15 A2984 RMK AO2","FM-15","7",,,,,,,,,,,,,,,,,,,,,,,,,,,,
"72493893231","2020-08-24T04:35:00","FM-15","7",,,,,,,,,,,,,,,,,,,,,,,,,,,,,,,,,,,,,,"29.84","59","64",,,,,"83",,"BKN:07 15 OVC:08 24","29.83","10.00","61","000",,"0",,,,,,,,,,,,,,,,,,,,,,,,,,,,,,,,,,,,,"MET08308/24/20 04:35:02 METAR KSQL 241235Z 00000KT 10SM BKN015 OVC024 18/15 A2984 RMK AO2","FM-15","7",,,,,,,,,,,,,,,,,,,,,,,,,,,,
"72493893231","2020-08-24T04:55:00","FM-15","7",,,,,,,,,,,,,,,,,,,,,,,,,,,,,,,,,,,,,,"29.85","59","64",,,,,"83",,"OVC:08 22","29.84","10.00","61","000",,"0",,,,,,,,,,,,,,,,,,,,,,,,,,,,,,,,,,,,,"MET07608/24/20 04:55:02 METAR KSQL 241255Z 00000KT 10SM OVC022 18/15 A2985 RMK AO2","FM-15","7",,,,,,,,,,,,,,,,,,,,,,,,,,,,
"72493893231","2020-08-24T05:15:00","FM-15","7",,,,,,,,,,,,,,,,,,,,,,,,,,,,,,,,,,,,,,"29.85","59","64",,,,,"83",,"OVC:08 22","29.84","10.00","61","000",,"0",,,,,,,,,,,,,,,,,,,,,,,,,,,,,,,,,,,,,"MET07608/24/20 05:15:02 METAR KSQL 241315Z 00000KT 10SM OVC022 18/15 A2985 RMK AO2","FM-15","7",,,,,,,,,,,,,,,,,,,,,,,,,,,,
"72493893231","2020-08-24T05:35:00","FM-15","7",,,,,,,,,,,,,,,,,,,,,,,,,,,,,,,,,,,,,,"29.85","59","64",,,,,"83",,"OVC:08 22","29.84","10.00","61","000",,"0",,,,,,,,,,,,,,,,,,,,,,,,,,,,,,,,,,,,,"MET07608/24/20 05:35:02 METAR KSQL 241335Z 00000KT 10SM OVC022 18/15 A2985 RMK AO2","FM-15","7",,,,,,,,,,,,,,,,,,,,,,,,,,,,
"72493893231","2020-08-24T05:55:00","FM-15","7",,,,,,,,,,,,,,,,,,,,,,,,,,,,,,,,,,,,,,"29.85","59","64",,,,,"83",,"OVC:08 24","29.84","10.00","61","000",,"0",,,,,,,,,,,,,,,,,,,,,,,,,,,,,,,,,,,,,"MET07608/24/20 05:55:02 METAR KSQL 241355Z 00000KT 10SM OVC024 18/15 A2985 RMK AO2","FM-15","7",,,,,,,,,,,,,,,,,,,,,,,,,,,,
"72493893231","2020-08-24T06:00:00","FM-15","4",,,,,,,,,,,,,,,,,,,,,,,,,,,,,,,,,,,,,,"29.86","61","64",,"||FU HZ",,,"88",,,,"10.00",,"000",,"0",,,,,,,,,,,,,,,,,,,,,,,,,,,,,,,,,,,,,"MET057METAR KSQL 241400Z 00000KT 10SM FU HZ OVC024 18/16 A2986=","FM-15","4",,,,,,,,,,,,,,,,,,,,,,,,,,,,
"72493893231","2020-08-24T06:47:00","FM-15","7",,,,,,,,,,,,,,,,,,,,,,,,,,,,,,,,,,,,,,"29.86","59","66",,"FU:3 HZ:7 |FU |FU HZ",,,"78",,"OVC:08 24","29.85","10.00","62","000",,"0",,,,,,,,,,,,,,,,,,,,,,,,,,,,,,,,,,,,,"MET07808/24/20 06:47:02 METAR KSQL 241447Z 00000KT 10SM FU HZ OVC024 19/15 A2986 RMK","FM-15","7",,,,,,,,,,,,,,,,,,,,,,,,,,,,
"72493893231","2020-08-24T07:47:00","FM-15","7",,,,,,,,,,,,,,,,,,,,,,,,,,,,,,,,,,,,,,"29.86","63","66",,"FU:3 HZ:7 |FU |FU HZ",,,"88",,"OVC:08 20","29.85","4.00","64","000",,"0",,,,,,,,,,,,,,,,,,,,,,,,,,,,,,,,,,,,,"MET07708/24/20 07:47:02 METAR KSQL 241547Z 00000KT 4SM FU HZ OVC020 19/17 A2986 RMK","FM-15","7",,,,,,,,,,,,,,,,,,,,,,,,,,,,
"72493893231","2020-08-24T08:47:00","FM-15","7",,,,,,,,,,,,,,,,,,,,,,,,,,,,,,,,,,,,,,"29.87","63","68",,,,,"83",,"FEW:02 20","29.86","3.00","65","VRB",,"3",,,,,,,,,,,,,,,,,,,,,,,,,,,,,,,,,,,,,"MET07108/24/20 08:47:02 METAR KSQL 241647Z VRB03KT 3SM FEW020 20/17 A2987 RMK","FM-15","7",,,,,,,,,,,,,,,,,,,,,,,,,,,,
"72493893231","2020-08-24T09:47:00","FM-15","7",,,,,,,,,,,,,,,,,,,,,,,,,,,,,,,,,,,,,,"29.88","64","72",,,,,"78",,,"29.87","2.00","67","VRB",,"3",,,,,,,,,,,,,,,,,,,,,,,,,,,,,,,,,,,,,"MET06408/24/20 09:47:02 METAR KSQL 241747Z VRB03KT 2SM 22/18 A2988 RMK","FM-15","7",,,,,,,,,,,,,,,,,,,,,,,,,,,,
"72493893231","2020-08-24T10:47:00","FM-15","7",,,,,,,,,,,,,,,,,,,,,,,,,,,,,,,,,,,,,,"29.87","63","75",,"FU:3 HZ:7 |FU |FU HZ",,,"65",,"FEW:02 20","29.86","2.50","67","340",,"5",,,,,,,,,,,,,,,,,,,,,,,,,,,,,,,,,,,,,"MET08108/24/20 10:47:02 METAR KSQL 241847Z 34004KT 2 1/2SM FU HZ FEW020 24/17 A2987 RMK","FM-15","7",,,,,,,,,,,,,,,,,,,,,,,,,,,,
"72493893231","2020-08-24T11:55:00","FM-15","7",,,,,,,,,,,,,,,,,,,,,,,,,,,,,,,,,,,,,,"29.85","63","77",,"FU:3 HZ:7 |FU |FU HZ",,,"61",,"FEW:02 20","29.84","2.50","68","340",,"8",,,,,,,,,,,,,,,,,,,,,,,,,,,,,,,,,,,,,"MET08108/24/20 11:55:02 METAR KSQL 241955Z 34007KT 2 1/2SM FU HZ FEW020 25/17 A2985 RMK","FM-15","7",,,,,,,,,,,,,,,,,,,,,,,,,,,,
"72493893231","2020-08-24T12:47:00","FM-15","7",,,,,,,,,,,,,,,,,,,,,,,,,,,,,,,,,,,,,,"29.84","63","75",,,,,"65",,"FEW:02 20","29.83","2.50","67","360",,"11",,,,,,,,,,,,,,,,,,,,,,,,,,,,,,,,,,,,,"MET07508/24/20 12:47:02 METAR KSQL 242047Z 36010KT 2 1/2SM FEW020 24/17 A2984 RMK","FM-15","7",,,,,,,,,,,,,,,,,,,,,,,,,,,,
"72493893231","2020-08-24T13:55:00","FM-15","7",,,,,,,,,,,,,,,,,,,,,,,,,,,,,,,,,,,,,,"29.81","64","77",,,,,"65",,"FEW:02 20","29.80","2.50","69","360",,"15",,,,,,,,,,,,,,,,,,,,,,,,,,,,,,,,,,,,,"MET07508/24/20 13:55:02 METAR KSQL 242155Z 36013KT 2 1/2SM FEW020 25/18 A2981 RMK","FM-15","7",,,,,,,,,,,,,,,,,,,,,,,,,,,,
"72493893231","2020-08-24T14:07:00","FM-15","7",,,,,,,,,,,,,,,,,,,,,,,,,,,,,,,,,,,,,,"29.81","64","77",,,,,"65",,"FEW:02 20","29.80","4.00","69","340",,"15",,,,,,,,,,,,,,,,,,,,,,,,,,,,,,,,,,,,,"MET07108/24/20 14:07:02 METAR KSQL 242207Z 34013KT 4SM FEW020 25/18 A2981 RMK","FM-15","7",,,,,,,,,,,,,,,,,,,,,,,,,,,,
"72493893231","2020-08-24T14:47:00","FM-15","7",,,,,,,,,,,,,,,,,,,,,,,,,,,,,,,,,,,,,,"29.80","63","84",,,,,"48",,,"29.79","4.00","70","340",,"11",,,,,,,,,,,,,,,,,,,,,,,,,,,,,,,,,,,,,"MET06408/24/20 14:47:02 METAR KSQL 242247Z 34010KT 4SM 29/17 A2980 RMK","FM-15","7",,,,,,,,,,,,,,,,,,,,,,,,,,,,
"72493893231","2020-08-24T15:47:00","FM-15","7",,,,,,,,,,,,,,,,,,,,,,,,,,,,,,,,,,,,,,"29.79","63","84",,,,,"48",,"*","29.78","5.00","70","310",,"10",,,,,,,,,,,,,,,,,,,,,,,,,,,,,,,,,,,,,"MET06808/24/20 15:47:02 METAR KSQL 242347Z 31009KT 5SM SKC 29/17 A2979 RMK","FM-15","7",,,,,,,,,,,,,,,,,,,,,,,,,,,,
"72493893231","2020-08-24T16:55:00","FM-15","7",,,,,,,,,,,,,,,,,,,,,,,,,,,,,,,,,,,,,,"29.78","63","81",,"FU:3 |FU |FU",,,"54",,"*","29.77","10.00","69","340",,"11",,,,,,,,,,,,,,,,,,,,,,,,,,,,,,,,,,,,,"MET07208/24/20 16:55:01 METAR KSQL 250055Z 34010KT 10SM FU SKC 27/17 A2978 RMK","FM-15","7",,,,,,,,,,,,,,,,,,,,,,,,,,,,
"72493893231","2020-08-24T17:58:00","FM-15","7",,,,,,,,,,,,,,,,,,,,,,,,,,,,,,,,,,,,,,"29.79","61","77",,"FU:3 |FU |FU",,,"57",,"*","29.78","10.00","67","VRB",,"3",,,,,,,,,,,,,,,,,,,,,,,,,,,,,,,,,,,,,"MET07208/24/20 17:58:01 METAR KSQL 250158Z VRB03KT 10SM FU SKC 25/16 A2979 RMK","FM-15","7",,,,,,,,,,,,,,,,,,,,,,,,,,,,
"72493893231","2020-08-24T18:50:00","FM-15","7",,,,,,,,,,,,,,,,,,,,,,,,,,,,,,,,,,,,,,"29.82","59","70",,"FU:3 |FU |FU",,,"69",,"SCT:04 200","29.81","10.00","63","320",,"6",,,,,,,,,,,,,,,,,,,,,,,,,,,,,,,,,,,,,"MET07508/24/20 18:50:01 METAR KSQL 250250Z 32005KT 10SM FU SCT200 21/15 A2982 RMK","FM-15","7",,,,,,,,,,,,,,,,,,,,,,,,,,,,
"72493893231","2020-08-24T19:58:00","FM-15","7",,,,,,,,,,,,,,,,,,,,,,,,,,,,,,,,,,,,,,"29.85","61","66",,,,,"83",,"SCT:04 13","29.84","10.00","63","350",,"6",,,,,,,,,,,,,,,,,,,,,,,,,,,,,,,,,,,,,"MET07708/24/20 19:58:01 METAR KSQL 250358Z 35005KT 10SM SCT013 19/16 A2985 RMK LAST","FM-15","7",,,,,,,,,,,,,,,,,,,,,,,,,,,,
"72493893231","2020-08-24T20:15:00","FM-15","7",,,,,,,,,,,,,,,,,,,,,,,,,,,,,,,,,,,,,,"29.85","61","64",,,,,"88",,"BKN:07 13","29.84","10.00","62","040",,"3",,,,,,,,,,,,,,,,,,,,,,,,,,,,,,,,,,,,,"MET07608/24/20 20:15:01 METAR KSQL 250415Z 04003KT 10SM BKN013 18/16 A2985 RMK AO2","FM-15","7",,,,,,,,,,,,,,,,,,,,,,,,,,,,
"72493893231","2020-08-24T20:35:00","FM-15","7",,,,,,,,,,,,,,,,,,,,,,,,,,,,,,,,,,,,,,"29.85","61","64",,,,,"88",,"BKN:07 13","29.84","10.00","62","000",,"0",,,,,,,,,,,,,,,,,,,,,,,,,,,,,,,,,,,,,"MET07608/24/20 20:35:01 METAR KSQL 250435Z 00000KT 10SM BKN013 18/16 A2985 RMK AO2","FM-15","7",,,,,,,,,,,,,,,,,,,,,,,,,,,,
"72493893231","2020-08-24T20:55:00","FM-15","7",,,,,,,,,,,,,,,,,,,,,,,,,,,,,,,,,,,,,,"29.86","59","66",,,,,"78",,"OVC:08 13","29.85","10.00","62","310",,"3",,,,,,,,,,,,,,,,,,,,,,,,,,,,,,,,,,,,,"MET07608/24/20 20:55:01 METAR KSQL 250455Z 31003KT 10SM OVC013 19/15 A2986 RMK AO2","FM-15","7",,,,,,,,,,,,,,,,,,,,,,,,,,,,
"72493893231","2020-08-24T21:15:00","FM-15","7",,,,,,,,,,,,,,,,,,,,,,,,,,,,,,,,,,,,,,"29.85","59","66",,,,,"78",,"BKN:07 13","29.84","10.00","62","000",,"0",,,,,,,,,,,,,,,,,,,,,,,,,,,,,,,,,,,,,"MET07608/24/20 21:15:01 METAR KSQL 250515Z 00000KT 10SM BKN013 19/15 A2985 RMK AO2","FM-15","7",,,,,,,,,,,,,,,,,,,,,,,,,,,,
"72493893231","2020-08-24T21:35:00","FM-15","7",,,,,,,,,,,,,,,,,,,,,,,,,,,,,,,,,,,,,,"29.85","63","64",,,,,"94",,"BKN:07 13 BKN:07 20","29.84","10.00","63","020",,"6",,,,,,,,,,,,,,,,,,,,,,,,,,,,,,,,,,,,,"MET08308/24/20 21:35:01 METAR KSQL 250535Z 02005KT 10SM BKN013 BKN020 18/17 A2985 RMK AO2","FM-15","7",,,,,,,,,,,,,,,,,,,,,,,,,,,,
"72493893231","2020-08-24T21:55:00","FM-15","7",,,,,,,,,,,,,,,,,,,,,,,,,,,,,,,,,,,,,,"29.86","59","64",,,,,"83",,"SCT:04 13","29.85","10.00","61","350",,"6",,,,,,,,,,,,,,,,,,,,,,,,,,,,,,,,,,,,,"MET07608/24/20 21:55:01 METAR KSQL 250555Z 35005KT 10SM SCT013 18/15 A2986 RMK AO2","FM-15","7",,,,,,,,,,,,,,,,,,,,,,,,,,,,
"72493893231","2020-08-24T22:15:00","FM-15","7",,,,,,,,,,,,,,,,,,,,,,,,,,,,,,,,,,,,,,"29.86","59","64",,,,,"83",,"BKN:07 13","29.85","10.00","61","330",,"3",,,,,,,,,,,,,,,,,,,,,,,,,,,,,,,,,,,,,"MET07608/24/20 22:15:01 METAR KSQL 250615Z 33003KT 10SM BKN013 18/15 A2986 RMK AO2","FM-15","7",,,,,,,,,,,,,,,,,,,,,,,,,,,,
"72493893231","2020-08-24T22:35:00","FM-15","7",,,,,,,,,,,,,,,,,,,,,,,,,,,,,,,,,,,,,,"29.86","59","64",,,,,"83",,"OVC:08 13","29.85","10.00","61","000",,"0",,,,,,,,,,,,,,,,,,,,,,,,,,,,,,,,,,,,,"MET07608/24/20 22:35:01 METAR KSQL 250635Z 00000KT 10SM OVC013 18/15 A2986 RMK AO2","FM-15","7",,,,,,,,,,,,,,,,,,,,,,,,,,,,
"72493893231","2020-08-24T22:55:00","FM-15","7",,,,,,,,,,,,,,,,,,,,,,,,,,,,,,,,,,,,,,"29.86","59","64",,,,,"83",,"OVC:08 13","29.85","10.00","61","000",,"0",,,,,,,,,,,,,,,,,,,,,,,,,,,,,,,,,,,,,"MET07608/24/20 22:55:01 METAR KSQL 250655Z 00000KT 10SM OVC013 18/15 A2986 RMK AO2","FM-15","7",,,,,,,,,,,,,,,,,,,,,,,,,,,,
"72493893231","2020-08-24T23:15:00","FM-15","7",,,,,,,,,,,,,,,,,,,,,,,,,,,,,,,,,,,,,,"29.86","57","63",,,,,"83",,"OVC:08 13","29.85","8.00","60","360",,"5",,,,,,,,,,,,,,,,,,,,,,,,,,,,,,,,,,,,,"MET07508/24/20 23:15:01 METAR KSQL 250715Z 36004KT 8SM OVC013 17/14 A2986 RMK AO2","FM-15","7",,,,,,,,,,,,,,,,,,,,,,,,,,,,
"72493893231","2020-08-24T23:35:00","FM-15","7",,,,,,,,,,,,,,,,,,,,,,,,,,,,,,,,,,,,,,"29.86","57","63",,,,,"83",,"OVC:08 15","29.85","10.00","60","310",,"5",,,,,,,,,,,,,,,,,,,,,,,,,,,,,,,,,,,,,"MET07608/24/20 23:35:01 METAR KSQL 250735Z 31004KT 10SM OVC015 17/14 A2986 RMK AO2","FM-15","7",,,,,,,,,,,,,,,,,,,,,,,,,,,,
"72493893231","2020-08-24T23:55:00","FM-15","7",,,,,,,,,,,,,,,,,,,,,,,,,,,,,,,,,,,,,,"29.86","57","63",,,,,"83",,"OVC:08 15","29.85","10.00","60","310",,"3",,,,,,,,,,,,,,,,,,,,,,,,,,,,,,,,,,,,,"MET07608/24/20 23:55:01 METAR KSQL 250755Z 31003KT 10SM OVC015 17/14 A2986 RMK AO2","FM-15","7",,,,,,,,,,,,,,,,,,,,,,,,,,,,
"72493893231","2020-08-24T23:59:00","SOD  ","O",,,,,,,,,,,,,,,,,,,,,,,,,,,,,,,,,,"HZ",,,,,,,,,,,,,,,,,,,,,,,,,,,,,,,,,,,,,,,,,,,,,,,,,,,,,,,,,"SOD  ","O",,,,,,,,,,,,,,,,,,,,,,,,,"0533","1848",,
"72493893231","2020-08-25T00:15:00","FM-15","7",,,,,,,,,,,,,,,,,,,,,,,,,,,,,,,,,,,,,,"29.86","57","63",,,,,"83",,"OVC:08 17","29.85","10.00","60","310",,"6",,,,,,,,,,,,,,,,,,,,,,,,,,,,,,,,,,,,,"MET07608/25/20 00:15:01 METAR KSQL 250815Z 31005KT 10SM OVC017 17/14 A2986 RMK AO2","FM-15","7",,,,,,,,,,,,,,,,,,,,,,,,,,,,
"72493893231","2020-08-25T00:35:00","FM-15","7",,,,,,,,,,,,,,,,,,,,,,,,,,,,,,,,,,,,,,"29.86","57","63",,,,,"83",,"SCT:04 11 BKN:07 17","29.85","10.00","60","320",,"5",,,,,,,,,,,,,,,,,,,,,,,,,,,,,,,,,,,,,"MET08308/25/20 00:35:01 METAR KSQL 250835Z 32004KT 10SM SCT011 BKN017 17/14 A2986 RMK AO2","FM-15","7",,,,,,,,,,,,,,,,,,,,,,,,,,,,
"72493893231","2020-08-25T00:55:00","FM-15","7",,,,,,,,,,,,,,,,,,,,,,,,,,,,,,,,,,,,,,"29.86","57","63",,,,,"83",,"OVC:08 11","29.85","10.00","60","340",,"3",,,,,,,,,,,,,,,,,,,,,,,,,,,,,,,,,,,,,"MET07608/25/20 00:55:01 METAR KSQL 250855Z 34003KT 10SM OVC011 17/14 A2986 RMK AO2","FM-15","7",,,,,,,,,,,,,,,,,,,,,,,,,,,,
"72493893231","2020-08-25T01:15:00","FM-15","7",,,,,,,,,,,,,,,,,,,,,,,,,,,,,,,,,,,,,,"29.86","57","63",,,,,"83",,"OVC:08 11","29.85","10.00","60","320",,"6",,,,,,,,,,,,,,,,,,,,,,,,,,,,,,,,,,,,,"MET07608/25/20 01:15:01 METAR KSQL 250915Z 32005KT 10SM OVC011 17/14 A2986 RMK AO2","FM-15","7",,,,,,,,,,,,,,,,,,,,,,,,,,,,
"72493893231","2020-08-25T01:35:00","FM-15","7",,,,,,,,,,,,,,,,,,,,,,,,,,,,,,,,,,,,,,"29.86","57","63",,,,,"83",,"OVC:08 11","29.85","8.00","60","320",,"3",,,,,,,,,,,,,,,,,,,,,,,,,,,,,,,,,,,,,"MET07508/25/20 01:35:01 METAR KSQL 250935Z 32003KT 8SM OVC011 17/14 A2986 RMK AO2","FM-15","7",,,,,,,,,,,,,,,,,,,,,,,,,,,,
"72493893231","2020-08-25T01:55:00","FM-15","7",,,,,,,,,,,,,,,,,,,,,,,,,,,,,,,,,,,,,,"29.86","57","63",,,,,"83",,"OVC:08 11","29.85","8.00","60","360",,"5",,,,,,,,,,,,,,,,,,,,,,,,,,,,,,,,,,,,,"MET07508/25/20 01:55:01 METAR KSQL 250955Z 36004KT 8SM OVC011 17/14 A2986 RMK AO2","FM-15","7",,,,,,,,,,,,,,,,,,,,,,,,,,,,
"72493893231","2020-08-25T02:15:00","FM-15","7",,,,,,,,,,,,,,,,,,,,,,,,,,,,,,,,,,,,,,"29.86","57","63",,"BR:1 ||",,,"83",,"OVC:08 11","29.85","5.00","60","310",,"7",,,,,,,,,,,,,,,,,,,,,,,,,,,,,,,,,,,,,"MET07808/25/20 02:15:01 METAR KSQL 251015Z 31006KT 5SM BR OVC011 17/14 A2986 RMK AO2","FM-15","7",,,,,,,,,,,,,,,,,,,,,,,,,,,,
"72493893231","2020-08-25T02:35:00","FM-15","7",,,,,,,,,,,,,,,,,,,,,,,,,,,,,,,,,,,,,,"29.86","57","63",,"HZ:7 |FU |HZ",,,"83",,"OVC:08 9","29.85","4.00","60","290",,"3",,,,,,,,,,,,,,,,,,,,,,,,,,,,,,,,,,,,,"MET07808/25/20 02:35:01 METAR KSQL 251035Z 29003KT 4SM HZ OVC009 17/14 A2986 RMK AO2","FM-15","7",,,,,,,,,,,,,,,,,,,,,,,,,,,,
"72493893231","2020-08-25T02:55:00","FM-15","7",,,,,,,,,,,,,,,,,,,,,,,,,,,,,,,,,,,,,,"29.86","59","63",,"BR:1 ||",,,"88",,"OVC:08 9","29.85","5.00","61","310",,"3",,,,,,,,,,,,,,,,,,,,,,,,,,,,,,,,,,,,,"MET07808/25/20 02:55:01 METAR KSQL 251055Z 31003KT 5SM BR OVC009 17/15 A2986 RMK AO2","FM-15","7",,,,,,,,,,,,,,,,,,,,,,,,,,,,
"72493893231","2020-08-25T03:15:00","FM-15","7",,,,,,,,,,,,,,,,,,,,,,,,,,,,,,,,,,,,,,"29.86","59","63",,"BR:1 ||",,,"88",,"OVC:08 9","29.85","5.00","61","310",,"3",,,,,,,,,,,,,,,,,,,,,,,,,,,,,,,,,,,,,"MET07808/25/20 03:15:01 METAR KSQL 251115Z 31003KT 5SM BR OVC009 17/15 A2986 RMK AO2","FM-15","7",,,,,,,,,,,,,,,,,,,,,,,,,,,,
"72493893231","2020-08-25T03:35:00","FM-15","7",,,,,,,,,,,,,,,,,,,,,,,,,,,,,,,,,,,,,,"29.87","59","63",,"BR:1 ||",,,"88",,"OVC:08 11","29.86","5.00","61","330",,"3",,,,,,,,,,,,,,,,,,,,,,,,,,,,,,,,,,,,,"MET07808/25/20 03:35:01 METAR KSQL 251135Z 33003KT 5SM BR OVC011 17/15 A2987 RMK AO2","FM-15","7",,,,,,,,,,,,,,,,,,,,,,,,,,,,
"72493893231","2020-08-25T03:55:00","FM-15","7",,,,,,,,,,,,,,,,,,,,,,,,,,,,,,,,,,,,,,"29.87","59","63",,"BR:1 ||",,,"88",,"OVC:08 11","29.86","5.00","61","310",,"6",,,,,,,,,,,,,,,,,,,,,,,,,,,,,,,,,,,,,"MET07808/25/20 03:55:01 METAR KSQL 251155Z 31005KT 5SM BR OVC011 17/15 A2987 RMK AO2","FM-15","7",,,,,,,,,,,,,,,,,,,,,,,,,,,,
"72493893231","2020-08-25T04:15:00","FM-15","7",,,,,,,,,,,,,,,,,,,,,,,,,,,,,,,,,,,,,,"29.87","59","63",,"BR:1 ||",,,"88",,"OVC:08 11","29.86","5.00","61","310",,"5",,,,,,,,,,,,,,,,,,,,,,,,,,,,,,,,,,,,,"MET07808/25/20 04:15:01 METAR KSQL 251215Z 31004KT 5SM BR OVC011 17/15 A2987 RMK AO2","FM-15","7",,,,,,,,,,,,,,,,,,,,,,,,,,,,
"72493893231","2020-08-25T04:35:00","FM-15","7",,,,,,,,,,,,,,,,,,,,,,,,,,,,,,,,,,,,,,"29.87","59","63",,"BR:1 ||",,,"88",,"OVC:08 11","29.86","5.00","61","340",,"3",,,,,,,,,,,,,,,,,,,,,,,,,,,,,,,,,,,,,"MET07808/25/20 04:35:01 METAR KSQL 251235Z 34003KT 5SM BR OVC011 17/15 A2987 RMK AO2","FM-15","7",,,,,,,,,,,,,,,,,,,,,,,,,,,,
"72493893231","2020-08-25T04:55:00","FM-15","7",,,,,,,,,,,,,,,,,,,,,,,,,,,,,,,,,,,,,,"29.87","59","63",,"BR:1 ||",,,"88",,"OVC:08 11","29.86","5.00","61","320",,"3",,,,,,,,,,,,,,,,,,,,,,,,,,,,,,,,,,,,,"MET07808/25/20 04:55:01 METAR KSQL 251255Z 32003KT 5SM BR OVC011 17/15 A2987 RMK AO2","FM-15","7",,,,,,,,,,,,,,,,,,,,,,,,,,,,
"72493893231","2020-08-25T05:15:00","FM-15","7",,,,,,,,,,,,,,,,,,,,,,,,,,,,,,,,,,,,,,"29.88","59","63",,"BR:1 ||",,,"88",,"OVC:08 11","29.87","6.00","61","310",,"3",,,,,,,,,,,,,,,,,,,,,,,,,,,,,,,,,,,,,"MET07808/25/20 05:15:02 METAR KSQL 251315Z 31003KT 6SM BR OVC011 17/15 A2988 RMK AO2","FM-15","7",,,,,,,,,,,,,,,,,,,,,,,,,,,,
"72493893231","2020-08-25T05:35:00","FM-15","7",,,,,,,,,,,,,,,,,,,,,,,,,,,,,,,,,,,,,,"29.88","59","63",,"BR:1 ||",,,"88",,"OVC:08 11","29.87","6.00","61","000",,"0",,,,,,,,,,,,,,,,,,,,,,,,,,,,,,,,,,,,,"MET07808/25/20 05:35:02 METAR KSQL 251335Z 00000KT 6SM BR OVC011 17/15 A2988 RMK AO2","FM-15","7",,,,,,,,,,,,,,,,,,,,,,,,,,,,
"72493893231","2020-08-25T05:55:00","FM-15","7",,,,,,,,,,,,,,,,,,,,,,,,,,,,,,,,,,,,,,"29.88","59","63",,"BR:1 ||",,,"88",,"OVC:08 11","29.87","5.00","61","030",,"5",,,,,,,,,,,,,,,,,,,,,,,,,,,,,,,,,,,,,"MET07808/25/20 05:55:02 METAR KSQL 251355Z 03004KT 5SM BR OVC011 17/15 A2988 RMK AO2","FM-15","7",,,,,,,,,,,,,,,,,,,,,,,,,,,,
"72493893231","2020-08-25T06:00:00","FM-15","4",,,,,,,,,,,,,,,,,,,,,,,,,,,,,,,,,,,,,,"29.88","57","63",,,,,"83",,,,"5.00",,"VRB",,"3",,,,,,,,,,,,,,,,,,,,,,,,,,,,,,,,,,,,,"MET050METAR KSQL 251400Z VRB03KT 5SM OVC011 17/14 A2988=","FM-15","4",,,,,,,,,,,,,,,,,,,,,,,,,,,,
"72493893231","2020-08-25T06:47:00","FM-15","7",,,,,,,,,,,,,,,,,,,,,,,,,,,,,,,,,,,,,,"29.89","59","63",,,,,"88",,"OVC:08 9","29.88","4.00","61","000",,"0",,,,,,,,,,,,,,,,,,,,,,,,,,,,,,,,,,,,,"MET07108/25/20 06:47:02 METAR KSQL 251447Z 00000KT 4SM OVC009 17/15 A2989 RMK","FM-15","7",,,,,,,,,,,,,,,,,,,,,,,,,,,,
"72493893231","2020-08-25T07:47:00","FM-15","7",,,,,,,,,,,,,,,,,,,,,,,,,,,,,,,,,,,,,,"29.90","59","63",,,,,"88",,"OVC:08 9","29.89","4.00","61","VRB",,"3",,,,,,,,,,,,,,,,,,,,,,,,,,,,,,,,,,,,,"MET07108/25/20 07:47:02 METAR KSQL 251547Z VRB03KT 4SM OVC009 17/15 A2990 RMK","FM-15","7",,,,,,,,,,,,,,,,,,,,,,,,,,,,
"72493893231","2020-08-25T08:55:00","FM-15","7",,,,,,,,,,,,,,,,,,,,,,,,,,,,,,,,,,,,,,"29.91","59","64",,,,,"83",,"OVC:08 9","29.90","4.00","61","VRB",,"3",,,,,,,,,,,,,,,,,,,,,,,,,,,,,,,,,,,,,"MET07108/25/20 08:55:02 METAR KSQL 251655Z VRB03KT 4SM OVC009 18/15 A2991 RMK","FM-15","7",,,,,,,,,,,,,,,,,,,,,,,,,,,,
"72493893231","2020-08-25T09:52:00","FM-15","7",,,,,,,,,,,,,,,,,,,,,,,,,,,,,,,,,,,,,,"29.91","63","66",,,,,"88",,"OVC:08 9","29.90","4.00","64","VRB",,"3",,,,,,,,,,,,,,,,,,,,,,,,,,,,,,,,,,,,,"MET07108/25/20 09:52:02 METAR KSQL 251752Z VRB03KT 4SM OVC009 19/17 A2991 RMK","FM-15","7",,,,,,,,,,,,,,,,,,,,,,,,,,,,
"72493893231","2020-08-25T10:53:00","FM-15","7",,,,,,,,,,,,,,,,,,,,,,,,,,,,,,,,,,,,,,"29.90","63","70",,"FU:3 HZ:7 |FU |FU HZ",,,"78",,"SCT:04 10","29.89","2.50","66","010",,"6",,,,,,,,,,,,,,,,,,,,,,,,,,,,,,,,,,,,,"MET08108/25/20 10:53:02 METAR KSQL 251853Z 01005KT 2 1/2SM FU HZ SCT010 21/17 A2990 RMK","FM-15","7",,,,,,,,,,,,,,,,,,,,,,,,,,,,
"72493893231","2020-08-25T11:48:00","FM-15","7",,,,,,,,,,,,,,,,,,,,,,,,,,,,,,,,,,,,,,"29.89","61","73",,"FU:3 HZ:7 |FU |FU HZ",,,"65",,"SCT:04 10","29.88","2.50","66","330",,"9",,,,,,,,,,,,,,,,,,,,,,,,,,,,,,,,,,,,,"MET08108/25/20 11:48:02 METAR KSQL 251948Z 33008KT 2 1/2SM FU HZ SCT010 23/16 A2989 RMK","FM-15","7",,,,,,,,,,,,,,,,,,,,,,,,,,,,
"72493893231","2020-08-25T12:47:00","FM-15","7",,,,,,,,,,,,,,,,,,,,,,,,,,,,,,,,,,,,,,"29.88","63","72",,"FU:3 HZ:7 |FU |FU HZ",,,"73",,"SCT:04 10","29.87","2.50","66","350",,"9",,,,,,,,,,,,,,,,,,,,,,,,,,,,,,,,,,,,,"MET08108/25/20 12:47:02 METAR KSQL 252047Z 35008KT 2 1/2SM FU HZ SCT010 22/17 A2988 RMK","FM-15","7",,,,,,,,,,,,,,,,,,,,,,,,,,,,
"72493893231","2020-08-25T13:47:00","FM-15","7",,,,,,,,,,,,,,,,,,,,,,,,,,,,,,,,,,,,,,"29.86","61","72",,"FU:3 HZ:7 |FU |FU HZ",,,"69",,"SCT:04 10","29.85","4.00","65","360",,"11",,,,,,,,,,,,,,,,,,,,,,,,,,,,,,,,,,,,,"MET07708/25/20 13:47:02 METAR KSQL 252147Z 36010KT 4SM FU HZ SCT010 22/16 A2986 RMK","FM-15","7",,,,,,,,,,,,,,,,,,,,,,,,,,,,
"72493893231","2020-08-25T14:47:00","FM-15","7",,,,,,,,,,,,,,,,,,,,,,,,,,,,,,,,,,,,,,"29.83","63","75",,,,,"65",,"SCT:04 10","29.82","4.00","67","350",,"14",,,,,,,,,,,,,,,,,,,,,,,,,,,,,,,,,,,,,"MET07108/25/20 14:47:02 METAR KSQL 252247Z 35012KT 4SM SCT010 24/17 A2983 RMK","FM-15","7",,,,,,,,,,,,,,,,,,,,,,,,,,,,
"72493893231","2020-08-25T15:47:00","FM-15","7",,,,,,,,,,,,,,,,,,,,,,,,,,,,,,,,,,,,,,"29.82","59","77",,,,,"54",,"*","29.81","4.00","66","290",,"13",,,,,,,,,,,,,,,,,,,,,,,,,,,,,,,,,,,,,"MET07208/25/20 15:47:02 METAR KSQL 252347Z 29011KT 4SM SCT0010 25/15 A2982 RMK","FM-15","7",,,,,,,,,,,,,,,,,,,,,,,,,,,,
"72493893231","2020-08-25T16:58:00","FM-15","7",,,,,,,,,,,,,,,,,,,,,,,,,,,,,,,,,,,,,,"29.81","61","75",,"FU:3 HZ:7 |FU |FU HZ",,,"61",,"FEW:02 10","29.80","7.00","66","290",,"13",,,,,,,,,,,,,,,,,,,,,,,,,,,,,,,,,,,,,"MET07708/25/20 16:58:01 METAR KSQL 260058Z 29011KT 7SM FU HZ FEW010 24/16 A2981 RMK","FM-15","7",,,,,,,,,,,,,,,,,,,,,,,,,,,,
"72493893231","2020-08-25T17:58:00","FM-15","7",,,,,,,,,,,,,,,,,,,,,,,,,,,,,,,,,,,,,,"29.82","59","72",,"FU:3 HZ:7 |FU |FU HZ",,,"65",,"FEW:02 10","29.81","7.00","64","310",,"9",,,,,,,,,,,,,,,,,,,,,,,,,,,,,,,,,,,,,"MET07708/25/20 17:58:01 METAR KSQL 260158Z 31008KT 7SM FU HZ FEW010 22/15 A2982 RMK","FM-15","7",,,,,,,,,,,,,,,,,,,,,,,,,,,,
"72493893231","2020-08-25T18:58:00","FM-15","7",,,,,,,,,,,,,,,,,,,,,,,,,,,,,,,,,,,,,,"29.83","59","66",,"FU:3 HZ:7 |FU |FU HZ",,,"78",,"FEW:02 10","29.82","7.00","62","300",,"7",,,,,,,,,,,,,,,,,,,,,,,,,,,,,,,,,,,,,"MET07708/25/20 18:58:01 METAR KSQL 260258Z 30006KT 7SM FU HZ FEW010 19/15 A2983 RMK","FM-15","7",,,,,,,,,,,,,,,,,,,,,,,,,,,,
"72493893231","2020-08-25T19:54:00","FM-15","7",,,,,,,,,,,,,,,,,,,,,,,,,,,,,,,,,,,,,,"29.84","59","66",,,,,"78",,"FEW:02 10","29.83","10.00","62","290",,"6",,,,,,,,,,,,,,,,,,,,,,,,,,,,,,,,,,,,,"MET07708/25/20 19:54:01 METAR KSQL 260354Z 29005KT 10SM FEW010 19/15 A2984 RMK LAST","FM-15","7",,,,,,,,,,,,,,,,,,,,,,,,,,,,
"72493893231","2020-08-25T20:15:00","FM-15","7",,,,,,,,,,,,,,,,,,,,,,,,,,,,,,,,,,,,,,"29.85","59","66",,,,,"78",,"CLR:00","29.84","10.00","62","310",,"6",,,,,,,,,,,,,,,,,,,,,,,,,,,,,,,,,,,,,"MET07308/25/20 20:15:01 METAR KSQL 260415Z 31005KT 10SM CLR 19/15 A2985 RMK AO2","FM-15","7",,,,,,,,,,,,,,,,,,,,,,,,,,,,
"72493893231","2020-08-25T20:35:00","FM-15","7",,,,,,,,,,,,,,,,,,,,,,,,,,,,,,,,,,,,,,"29.86","59","66",,,,,"78",,"CLR:00","29.85","10.00","62","330",,"5",,,,,,,,,,,,,,,,,,,,,,,,,,,,,,,,,,,,,"MET07308/25/20 20:35:01 METAR KSQL 260435Z 33004KT 10SM CLR 19/15 A2986 RMK AO2","FM-15","7",,,,,,,,,,,,,,,,,,,,,,,,,,,,
"72493893231","2020-08-25T20:55:00","FM-15","7",,,,,,,,,,,,,,,,,,,,,,,,,,,,,,,,,,,,,,"29.86","59","64",,,,,"83",,"CLR:00","29.85","10.00","61","010",,"6",,,,,,,,,,,,,,,,,,,,,,,,,,,,,,,,,,,,,"MET07308/25/20 20:55:01 METAR KSQL 260455Z 01005KT 10SM CLR 18/15 A2986 RMK AO2","FM-15","7",,,,,,,,,,,,,,,,,,,,,,,,,,,,
"72493893231","2020-08-25T21:15:00","FM-15","7",,,,,,,,,,,,,,,,,,,,,,,,,,,,,,,,,,,,,,"29.86","59","64",,,,,"83",,"CLR:00","29.85","10.00","61","340",,"6",,,,,,,,,,,,,,,,,,,,,,,,,,,,,,,,,,,,,"MET07308/25/20 21:15:01 METAR KSQL 260515Z 34005KT 10SM CLR 18/15 A2986 RMK AO2","FM-15","7",,,,,,,,,,,,,,,,,,,,,,,,,,,,
"72493893231","2020-08-25T21:35:00","FM-15","7",,,,,,,,,,,,,,,,,,,,,,,,,,,,,,,,,,,,,,"29.86","57","64",,,,,"78",,"CLR:00","29.85","10.00","60","310",,"5",,,,,,,,,,,,,,,,,,,,,,,,,,,,,,,,,,,,,"MET07308/25/20 21:35:01 METAR KSQL 260535Z 31004KT 10SM CLR 18/14 A2986 RMK AO2","FM-15","7",,,,,,,,,,,,,,,,,,,,,,,,,,,,
"72493893231","2020-08-25T21:55:00","FM-15","7",,,,,,,,,,,,,,,,,,,,,,,,,,,,,,,,,,,,,,"29.86","57","63",,,,,"83",,"CLR:00","29.85","10.00","60","350",,"5",,,,,,,,,,,,,,,,,,,,,,,,,,,,,,,,,,,,,"MET07308/25/20 21:55:01 METAR KSQL 260555Z 35004KT 10SM CLR 17/14 A2986 RMK AO2","FM-15","7",,,,,,,,,,,,,,,,,,,,,,,,,,,,
"72493893231","2020-08-25T22:15:00","FM-15","7",,,,,,,,,,,,,,,,,,,,,,,,,,,,,,,,,,,,,,"29.86","57","63",,,,,"83",,"CLR:00","29.85","10.00","60","340",,"5",,,,,,,,,,,,,,,,,,,,,,,,,,,,,,,,,,,,,"MET07308/25/20 22:15:01 METAR KSQL 260615Z 34004KT 10SM CLR 17/14 A2986 RMK AO2","FM-15","7",,,,,,,,,,,,,,,,,,,,,,,,,,,,
"72493893231","2020-08-25T22:35:00","FM-15","7",,,,,,,,,,,,,,,,,,,,,,,,,,,,,,,,,,,,,,"29.86","57","63",,,,,"83",,"CLR:00","29.85","10.00","60","340",,"3",,,,,,,,,,,,,,,,,,,,,,,,,,,,,,,,,,,,,"MET07308/25/20 22:35:01 METAR KSQL 260635Z 34003KT 10SM CLR 17/14 A2986 RMK AO2","FM-15","7",,,,,,,,,,,,,,,,,,,,,,,,,,,,
"72493893231","2020-08-25T22:55:00","FM-15","7",,,,,,,,,,,,,,,,,,,,,,,,,,,,,,,,,,,,,,"29.86","57","63",,,,,"83",,"CLR:00","29.85","10.00","60","330",,"3",,,,,,,,,,,,,,,,,,,,,,,,,,,,,,,,,,,,,"MET07308/25/20 22:55:01 METAR KSQL 260655Z 33003KT 10SM CLR 17/14 A2986 RMK AO2","FM-15","7",,,,,,,,,,,,,,,,,,,,,,,,,,,,
"72493893231","2020-08-25T23:15:00","FM-15","7",,,,,,,,,,,,,,,,,,,,,,,,,,,,,,,,,,,,,,"29.86","57","63",,,,,"83",,"CLR:00","29.85","10.00","60","310",,"3",,,,,,,,,,,,,,,,,,,,,,,,,,,,,,,,,,,,,"MET07308/25/20 23:15:02 METAR KSQL 260715Z 31003KT 10SM CLR 17/14 A2986 RMK AO2","FM-15","7",,,,,,,,,,,,,,,,,,,,,,,,,,,,
"72493893231","2020-08-25T23:35:00","FM-15","7",,,,,,,,,,,,,,,,,,,,,,,,,,,,,,,,,,,,,,"29.86","57","63",,,,,"83",,"CLR:00","29.85","10.00","60","340",,"3",,,,,,,,,,,,,,,,,,,,,,,,,,,,,,,,,,,,,"MET07308/25/20 23:35:02 METAR KSQL 260735Z 34003KT 10SM CLR 17/14 A2986 RMK AO2","FM-15","7",,,,,,,,,,,,,,,,,,,,,,,,,,,,
"72493893231","2020-08-25T23:55:00","FM-15","7",,,,,,,,,,,,,,,,,,,,,,,,,,,,,,,,,,,,,,"29.86","57","63",,,,,"83",,"CLR:00","29.85","10.00","60","310",,"3",,,,,,,,,,,,,,,,,,,,,,,,,,,,,,,,,,,,,"MET07308/25/20 23:55:02 METAR KSQL 260755Z 31003KT 10SM CLR 17/14 A2986 RMK AO2","FM-15","7",,,,,,,,,,,,,,,,,,,,,,,,,,,,
"72493893231","2020-08-25T23:59:00","SOD  ","O",,,,,,,,,,,,,,,,,,,,,,,,,,,,,,,,,,"BR HZ",,,,,,,,,,,,,,,,,,,,,,,,,,,,,,,,,,,,,,,,,,,,,,,,,,,,,,,,,"SOD  ","O",,,,,,,,,,,,,,,,,,,,,,,,,"0534","1847",,
"72493893231","2020-08-26T00:15:00","FM-15","7",,,,,,,,,,,,,,,,,,,,,,,,,,,,,,,,,,,,,,"29.86","57","63",,,,,"83",,"SCT:04 11","29.85","10.00","60","340",,"3",,,,,,,,,,,,,,,,,,,,,,,,,,,,,,,,,,,,,"MET07608/26/20 00:15:02 METAR KSQL 260815Z 34003KT 10SM SCT011 17/14 A2986 RMK AO2","FM-15","7",,,,,,,,,,,,,,,,,,,,,,,,,,,,
"72493893231","2020-08-26T00:35:00","FM-15","7",,,,,,,,,,,,,,,,,,,,,,,,,,,,,,,,,,,,,,"29.86","57","63",,,,,"83",,"OVC:08 11","29.85","10.00","60","330",,"3",,,,,,,,,,,,,,,,,,,,,,,,,,,,,,,,,,,,,"MET07608/26/20 00:35:02 METAR KSQL 260835Z 33003KT 10SM OVC011 17/14 A2986 RMK AO2","FM-15","7",,,,,,,,,,,,,,,,,,,,,,,,,,,,
"72493893231","2020-08-26T00:55:00","FM-15","7",,,,,,,,,,,,,,,,,,,,,,,,,,,,,,,,,,,,,,"29.85","57","63",,,,,"83",,"OVC:08 11","29.84","10.00","60","320",,"3",,,,,,,,,,,,,,,,,,,,,,,,,,,,,,,,,,,,,"MET07608/26/20 00:55:02 METAR KSQL 260855Z 32003KT 10SM OVC011 17/14 A2985 RMK AO2","FM-15","7",,,,,,,,,,,,,,,,,,,,,,,,,,,,
"72493893231","2020-08-26T01:15:00","FM-15","7",,,,,,,,,,,,,,,,,,,,,,,,,,,,,,,,,,,,,,"29.85","57","63",,,,,"83",,"OVC:08 9","29.84","10.00","60","330",,"3",,,,,,,,,,,,,,,,,,,,,,,,,,,,,,,,,,,,,"MET07608/26/20 01:15:02 METAR KSQL 260915Z 33003KT 10SM OVC009 17/14 A2985 RMK AO2","FM-15","7",,,,,,,,,,,,,,,,,,,,,,,,,,,,
"72493893231","2020-08-26T01:35:00","FM-15","7",,,,,,,,,,,,,,,,,,,,,,,,,,,,,,,,,,,,,,"29.85","57","63",,,,,"83",,"OVC:08 9","29.84","10.00","60","010",,"5",,,,,,,,,,,,,,,,,,,,,,,,,,,,,,,,,,,,,"MET07608/26/20 01:35:02 METAR KSQL 260935Z 01004KT 10SM OVC009 17/14 A2985 RMK AO2","FM-15","7",,,,,,,,,,,,,,,,,,,,,,,,,,,,
"72493893231","2020-08-26T01:55:00","FM-15","7",,,,,,,,,,,,,,,,,,,,,,,,,,,,,,,,,,,,,,"29.85","57","63",,,,,"83",,"OVC:08 9","29.84","10.00","60","010",,"5",,,,,,,,,,,,,,,,,,,,,,,,,,,,,,,,,,,,,"MET07608/26/20 01:55:02 METAR KSQL 260955Z 01004KT 10SM OVC009 17/14 A2985 RMK AO2","FM-15","7",,,,,,,,,,,,,,,,,,,,,,,,,,,,
"72493893231","2020-08-26T02:15:00","FM-15","7",,,,,,,,,,,,,,,,,,,,,,,,,,,,,,,,,,,,,,"29.85","57","61",,,,,"88",,"OVC:08 9","29.84","10.00","59","010",,"6",,,,,,,,,,,,,,,,,,,,,,,,,,,,,,,,,,,,,"MET07608/26/20 02:15:02 METAR KSQL 261015Z 01005KT 10SM OVC009 16/14 A2985 RMK AO2","FM-15","7",,,,,,,,,,,,,,,,,,,,,,,,,,,,
"72493893231","2020-08-26T02:35:00","FM-15","7",,,,,,,,,,,,,,,,,,,,,,,,,,,,,,,,,,,,,,"29.85","57","61",,,,,"88",,"OVC:08 9","29.84","10.00","59","350",,"7",,,,,,,,,,,,,,,,,,,,,,,,,,,,,,,,,,,,,"MET07608/26/20 02:35:02 METAR KSQL 261035Z 35006KT 10SM OVC009 16/14 A2985 RMK AO2","FM-15","7",,,,,,,,,,,,,,,,,,,,,,,,,,,,
"72493893231","2020-08-26T02:55:00","FM-15","7",,,,,,,,,,,,,,,,,,,,,,,,,,,,,,,,,,,,,,"29.86","57","59",,,,,"94",,"OVC:08 9","29.85","10.00","58","350",,"5",,,,,,,,,,,,,,,,,,,,,,,,,,,,,,,,,,,,,"MET07608/26/20 02:55:02 METAR KSQL 261055Z 35004KT 10SM OVC009 15/14 A2986 RMK AO2","FM-15","7",,,,,,,,,,,,,,,,,,,,,,,,,,,,
"72493893231","2020-08-26T03:15:00","FM-15","7",,,,,,,,,,,,,,,,,,,,,,,,,,,,,,,,,,,,,,"29.85","57","61",,,,,"88",,"OVC:08 9","29.84","10.00","59","330",,"3",,,,,,,,,,,,,,,,,,,,,,,,,,,,,,,,,,,,,"MET07608/26/20 03:15:02 METAR KSQL 261115Z 33003KT 10SM OVC009 16/14 A2985 RMK AO2","FM-15","7",,,,,,,,,,,,,,,,,,,,,,,,,,,,
"72493893231","2020-08-26T03:35:00","FM-15","7",,,,,,,,,,,,,,,,,,,,,,,,,,,,,,,,,,,,,,"29.86","55","61",,,,,"83",,"OVC:08 9","29.85","10.00","58","310",,"5",,,,,,,,,,,,,,,,,,,,,,,,,,,,,,,,,,,,,"MET07608/26/20 03:35:02 METAR KSQL 261135Z 31004KT 10SM OVC009 16/13 A2986 RMK AO2","FM-15","7",,,,,,,,,,,,,,,,,,,,,,,,,,,,
"72493893231","2020-08-26T03:55:00","FM-15","7",,,,,,,,,,,,,,,,,,,,,,,,,,,,,,,,,,,,,,"29.86","57","61",,,,,"88",,"OVC:08 7","29.85","10.00","59","020",,"5",,,,,,,,,,,,,,,,,,,,,,,,,,,,,,,,,,,,,"MET07608/26/20 03:55:02 METAR KSQL 261155Z 02004KT 10SM OVC007 16/14 A2986 RMK AO2","FM-15","7",,,,,,,,,,,,,,,,,,,,,,,,,,,,
"72493893231","2020-08-26T04:15:00","FM-15","7",,,,,,,,,,,,,,,,,,,,,,,,,,,,,,,,,,,,,,"29.86","57","59",,,,,"94",,"OVC:08 7","29.85","10.00","58","030",,"5",,,,,,,,,,,,,,,,,,,,,,,,,,,,,,,,,,,,,"MET07608/26/20 04:15:02 METAR KSQL 261215Z 03004KT 10SM OVC007 15/14 A2986 RMK AO2","FM-15","7",,,,,,,,,,,,,,,,,,,,,,,,,,,,
"72493893231","2020-08-26T04:35:00","FM-15","7",,,,,,,,,,,,,,,,,,,,,,,,,,,,,,,,,,,,,,"29.86","57","59",,,,,"94",,"OVC:08 6","29.85","10.00","58","350",,"3",,,,,,,,,,,,,,,,,,,,,,,,,,,,,,,,,,,,,"MET07608/26/20 04:35:02 METAR KSQL 261235Z 35003KT 10SM OVC006 15/14 A2986 RMK AO2","FM-15","7",,,,,,,,,,,,,,,,,,,,,,,,,,,,
"72493893231","2020-08-26T04:55:00","FM-15","7",,,,,,,,,,,,,,,,,,,,,,,,,,,,,,,,,,,,,,"29.86","57","59",,,,,"94",,"OVC:08 6","29.85","10.00","58","360",,"3",,,,,,,,,,,,,,,,,,,,,,,,,,,,,,,,,,,,,"MET07608/26/20 04:55:02 METAR KSQL 261255Z 36003KT 10SM OVC006 15/14 A2986 RMK AO2","FM-15","7",,,,,,,,,,,,,,,,,,,,,,,,,,,,
"72493893231","2020-08-26T05:15:00","FM-15","7",,,,,,,,,,,,,,,,,,,,,,,,,,,,,,,,,,,,,,"29.86","57","59",,,,,"94",,"OVC:08 6","29.85","10.00","58","000",,"0",,,,,,,,,,,,,,,,,,,,,,,,,,,,,,,,,,,,,"MET07608/26/20 05:15:02 METAR KSQL 261315Z 00000KT 10SM OVC006 15/14 A2986 RMK AO2","FM-15","7",,,,,,,,,,,,,,,,,,,,,,,,,,,,
"72493893231","2020-08-26T05:35:00","FM-15","7",,,,,,,,,,,,,,,,,,,,,,,,,,,,,,,,,,,,,,"29.86","57","59",,,,,"94",,"OVC:08 6","29.85","10.00","58","000",,"0",,,,,,,,,,,,,,,,,,,,,,,,,,,,,,,,,,,,,"MET07608/26/20 05:35:02 METAR KSQL 261335Z 00000KT 10SM OVC006 15/14 A2986 RMK AO2","FM-15","7",,,,,,,,,,,,,,,,,,,,,,,,,,,,
"72493893231","2020-08-26T05:55:00","FM-15","7",,,,,,,,,,,,,,,,,,,,,,,,,,,,,,,,,,,,,,"29.86","57","59",,,,,"94",,"OVC:08 6","29.85","9.00","58","000",,"0",,,,,,,,,,,,,,,,,,,,,,,,,,,,,,,,,,,,,"MET07508/26/20 05:55:02 METAR KSQL 261355Z 00000KT 9SM OVC006 15/14 A2986 RMK AO2","FM-15","7",,,,,,,,,,,,,,,,,,,,,,,,,,,,
"72493893231","2020-08-26T06:00:00","FM-15","4",,,,,,,,,,,,,,,,,,,,,,,,,,,,,,,,,,,,,,"29.87","57","59",,,,,"94",,,,"10.00",,"000",,"0",,,,,,,,,,,,,,,,,,,,,,,,,,,,,,,,,,,,,"MET051METAR KSQL 261400Z 00000KT 10SM OVC006 15/14 A2987=","FM-15","4",,,,,,,,,,,,,,,,,,,,,,,,,,,,
"72493893231","2020-08-26T06:47:00","FM-15","7",,,,,,,,,,,,,,,,,,,,,,,,,,,,,,,,,,,,,,"29.87","55","61",,,,,"83",,"OVC:08 8","29.86","8.00","58","VRB",,"5",,,,,,,,,,,,,,,,,,,,,,,,,,,,,,,,,,,,,"MET07108/26/20 06:47:02 METAR KSQL 261447Z VRB04KT 8SM OVC008 16/13 A2987 RMK","FM-15","7",,,,,,,,,,,,,,,,,,,,,,,,,,,,
"72493893231","2020-08-26T07:47:00","FM-15","7",,,,,,,,,,,,,,,,,,,,,,,,,,,,,,,,,,,,,,"29.88","57","63",,,,,"83",,"OVC:08 10","29.87","6.00","60","VRB",,"3",,,,,,,,,,,,,,,,,,,,,,,,,,,,,,,,,,,,,"MET07108/26/20 07:47:02 METAR KSQL 261547Z VRB03KT 6SM OVC010 17/14 A2988 RMK","FM-15","7",,,,,,,,,,,,,,,,,,,,,,,,,,,,
"72493893231","2020-08-26T08:47:00","FM-15","7",,,,,,,,,,,,,,,,,,,,,,,,,,,,,,,,,,,,,,"29.88","55","64",,,,,"73",,"BKN:07 11","29.87","5.00","59","300",,"6",,,,,,,,,,,,,,,,,,,,,,,,,,,,,,,,,,,,,"MET07108/26/20 08:47:02 METAR KSQL 261647Z 30005KT 5SM BKN011 18/13 A2988 RMK","FM-15","7",,,,,,,,,,,,,,,,,,,,,,,,,,,,
"72493893231","2020-08-26T09:47:00","FM-15","7",,,,,,,,,,,,,,,,,,,,,,,,,,,,,,,,,,,,,,"29.89","55","64",,,,,"73",,"SCT:04 11","29.88","7.00","59","320",,"8",,,,,,,,,,,,,,,,,,,,,,,,,,,,,,,,,,,,,"MET07108/26/20 09:47:02 METAR KSQL 261747Z 32007KT 7SM SCT011 18/13 A2989 RMK","FM-15","7",,,,,,,,,,,,,,,,,,,,,,,,,,,,
"72493893231","2020-08-26T10:57:00","FM-15","7",,,,,,,,,,,,,,,,,,,,,,,,,,,,,,,,,,,,,,"29.88","57","66",,,,,"73",,"FEW:02 11","29.87","7.00","61","010",,"10",,,,,,,,,,,,,,,,,,,,,,,,,,,,,,,,,,,,,"MET07108/26/20 10:57:02 METAR KSQL 261857Z 01009KT 7SM FEW011 19/14 A2988 RMK","FM-15","7",,,,,,,,,,,,,,,,,,,,,,,,,,,,
"72493893231","2020-08-26T11:47:00","FM-15","7",,,,,,,,,,,,,,,,,,,,,,,,,,,,,,,,,,,,,,"29.87","55","68",,,,,"64",,"FEW:02 11","29.86","7.00","60","340",,"9",,,,,,,,,,,,,,,,,,,,,,,,,,,,,,,,,,,,,"MET07108/26/20 11:47:02 METAR KSQL 261947Z 34008KT 7SM FEW011 20/13 A2987 RMK","FM-15","7",,,,,,,,,,,,,,,,,,,,,,,,,,,,
"72493893231","2020-08-26T12:57:00","FM-15","7",,,,,,,,,,,,,,,,,,,,,,,,,,,,,,,,,,,,,,"29.85","54","72",,,,,"53",,"FEW:02 11","29.84","10.00","62","260",,"14",,,,,,,,,,,,,,,,,,,,,,,,,,,,,,,,,,,,,"MET07208/26/20 12:57:02 METAR KSQL 262057Z 26012KT 10SM FEW011 22/12 A2985 RMK","FM-15","7",,,,,,,,,,,,,,,,,,,,,,,,,,,,
"72493893231","2020-08-26T13:54:00","FM-15","7",,,,,,,,,,,,,,,,,,,,,,,,,,,,,,,,,,,,,,"29.84","52","70",,,,,"53",,"FEW:02 11","29.83","10.00","60","260","22","16",,,,,,,,,,,,,,,,,,,,,,,,,,,,,,,,,,,,,"MET07508/26/20 13:54:02 METAR KSQL 262154Z 26014G19KT 10SM FEW011 21/11 A2984 RMK","FM-15","7",,,,,,,,,,,,,,,,,,,,,,,,,,,,
"72493893231","2020-08-26T14:47:00","FM-15","4",,,,,,,,,,,,,,,,,,,,,,,,,,,,,,,,,,,,,,"29.83","50","70",,,,,"50",,,,"10.00",,"260",,"18",,,,,,,,,,,,,,,,,,,,,,,,,,,,,,,,,,,,,"MET051METAR KSQL 262247Z 26016KT 10SM FEW011 21/10 A2983=","FM-15","4",,,,,,,,,,,,,,,,,,,,,,,,,,,,
"72493893231","2020-08-26T14:54:00","FM-15","6",,,,,,,,,,,,,,,,,,,,,,,,,,,,,,,,,,,,,,"29.84","52","70",,,,,"53",,"FEW:02 11","29.83","10.00","60","260","22","16",,,,,,,,,,,,,,,,,,,,,,,,,,,,,,,,,,,,,"MET07508/26/20 14:54:02 METAR KSQL 262254Z 26014G19KT 10SM FEW011 21/11 A2984 RMK","FM-15","6",,,,,,,,,,,,,,,,,,,,,,,,,,,,
"72493893231","2020-08-26T15:47:00","FM-15","7",,,,,,,,,,,,,,,,,,,,,,,,,,,,,,,,,,,,,,"29.83","54","68",,,,,"60",,"FEW:02 11","29.82","10.00","60","270",,"14",,,,,,,,,,,,,,,,,,,,,,,,,,,,,,,,,,,,,"MET07208/26/20 15:47:02 METAR KSQL 262347Z 27012KT 10SM FEW011 20/12 A2983 RMK","FM-15","7",,,,,,,,,,,,,,,,,,,,,,,,,,,,
"72493893231","2020-08-26T16:57:00","FM-15","7",,,,,,,,,,,,,,,,,,,,,,,,,,,,,,,,,,,,,,"29.84","54","64",,,,,"68",,"FEW:02 15","29.83","10.00","58","240",,"13",,,,,,,,,,,,,,,,,,,,,,,,,,,,,,,,,,,,,"MET07208/26/20 16:57:01 METAR KSQL 270057Z 24011KT 10SM FEW015 18/12 A2984 RMK","FM-15","7",,,,,,,,,,,,,,,,,,,,,,,,,,,,
"72493893231","2020-08-26T17:55:00","FM-15","7",,,,,,,,,,,,,,,,,,,,,,,,,,,,,,,,,,,,,,"29.83","54","63",,,,,"73",,"FEW:02 15","29.82","10.00","58","270",,"10",,,,,,,,,,,,,,,,,,,,,,,,,,,,,,,,,,,,,"MET07208/26/20 17:55:01 METAR KSQL 270155Z 27009KT 10SM FEW015 17/12 A2983 RMK","FM-15","7",,,,,,,,,,,,,,,,,,,,,,,,,,,,
"72493893231","2020-08-26T18:58:00","FM-15","7",,,,,,,,,,,,,,,,,,,,,,,,,,,,,,,,,,,,,,"29.84","54","59",,,,,"82",,"FEW:02 15","29.83","10.00","56","300",,"9",,,,,,,,,,,,,,,,,,,,,,,,,,,,,,,,,,,,,"MET07208/26/20 18:58:01 METAR KSQL 270258Z 30008KT 10SM FEW015 15/12 A2984 RMK","FM-15","7",,,,,,,,,,,,,,,,,,,,,,,,,,,,
"72493893231","2020-08-26T19:58:00","FM-15","7",,,,,,,,,,,,,,,,,,,,,,,,,,,,,,,,,,,,,,"29.85","54","59",,,,,"82",,"FEW:02 15","29.84","10.00","56","280",,"8",,,,,,,,,,,,,,,,,,,,,,,,,,,,,,,,,,,,,"MET07708/26/20 19:58:01 METAR KSQL 270358Z 28007KT 10SM FEW015 15/12 A2985 RMK LAST","FM-15","7",,,,,,,,,,,,,,,,,,,,,,,,,,,,
"72493893231","2020-08-26T20:15:00","FM-15","7",,,,,,,,,,,,,,,,,,,,,,,,,,,,,,,,,,,,,,"29.85","52","59",,,,,"77",,"CLR:00","29.84","10.00","55","300",,"8",,,,,,,,,,,,,,,,,,,,,,,,,,,,,,,,,,,,,"MET07308/26/20 20:15:01 METAR KSQL 270415Z 30007KT 10SM CLR 15/11 A2985 RMK AO2","FM-15","7",,,,,,,,,,,,,,,,,,,,,,,,,,,,
"72493893231","2020-08-26T20:35:00","FM-15","7",,,,,,,,,,,,,,,,,,,,,,,,,,,,,,,,,,,,,,"29.85","52","59",,,,,"77",,"CLR:00","29.84","10.00","55","290",,"7",,,,,,,,,,,,,,,,,,,,,,,,,,,,,,,,,,,,,"MET07308/26/20 20:35:01 METAR KSQL 270435Z 29006KT 10SM CLR 15/11 A2985 RMK AO2","FM-15","7",,,,,,,,,,,,,,,,,,,,,,,,,,,,
"72493893231","2020-08-26T20:55:00","FM-15","7",,,,,,,,,,,,,,,,,,,,,,,,,,,,,,,,,,,,,,"29.85","52","59",,,,,"77",,"CLR:00","29.84","10.00","55","290",,"7",,,,,,,,,,,,,,,,,,,,,,,,,,,,,,,,,,,,,"MET07308/26/20 20:55:01 METAR KSQL 270455Z 29006KT 10SM CLR 15/11 A2985 RMK AO2","FM-15","7",,,,,,,,,,,,,,,,,,,,,,,,,,,,
"72493893231","2020-08-26T21:15:00","FM-15","7",,,,,,,,,,,,,,,,,,,,,,,,,,,,,,,,,,,,,,"29.86","52","59",,,,,"77",,"CLR:00","29.85","10.00","55","280",,"8",,,,,,,,,,,,,,,,,,,,,,,,,,,,,,,,,,,,,"MET07308/26/20 21:15:01 METAR KSQL 270515Z 28007KT 10SM CLR 15/11 A2986 RMK AO2","FM-15","7",,,,,,,,,,,,,,,,,,,,,,,,,,,,
"72493893231","2020-08-26T21:35:00","FM-15","7",,,,,,,,,,,,,,,,,,,,,,,,,,,,,,,,,,,,,,"29.85","52","57",,,,,"82",,"CLR:00","29.84","10.00","54","290",,"8",,,,,,,,,,,,,,,,,,,,,,,,,,,,,,,,,,,,,"MET07308/26/20 21:35:01 METAR KSQL 270535Z 29007KT 10SM CLR 14/11 A2985 RMK AO2","FM-15","7",,,,,,,,,,,,,,,,,,,,,,,,,,,,
"72493893231","2020-08-26T21:55:00","FM-15","7",,,,,,,,,,,,,,,,,,,,,,,,,,,,,,,,,,,,,,"29.86","52","57",,,,,"82",,"CLR:00","29.85","10.00","54","280",,"7",,,,,,,,,,,,,,,,,,,,,,,,,,,,,,,,,,,,,"MET07308/26/20 21:55:01 METAR KSQL 270555Z 28006KT 10SM CLR 14/11 A2986 RMK AO2","FM-15","7",,,,,,,,,,,,,,,,,,,,,,,,,,,,
"72493893231","2020-08-26T22:15:00","FM-15","7",,,,,,,,,,,,,,,,,,,,,,,,,,,,,,,,,,,,,,"29.86","54","57",,,,,"88",,"CLR:00","29.85","10.00","55","280",,"11",,,,,,,,,,,,,,,,,,,,,,,,,,,,,,,,,,,,,"MET07308/26/20 22:15:01 METAR KSQL 270615Z 28010KT 10SM CLR 14/12 A2986 RMK AO2","FM-15","7",,,,,,,,,,,,,,,,,,,,,,,,,,,,
"72493893231","2020-08-26T22:35:00","FM-15","7",,,,,,,,,,,,,,,,,,,,,,,,,,,,,,,,,,,,,,"29.86","54","57",,,,,"88",,"SCT:04 14","29.85","10.00","55","300",,"8",,,,,,,,,,,,,,,,,,,,,,,,,,,,,,,,,,,,,"MET07608/26/20 22:35:01 METAR KSQL 270635Z 30007KT 10SM SCT014 14/12 A2986 RMK AO2","FM-15","7",,,,,,,,,,,,,,,,,,,,,,,,,,,,
"72493893231","2020-08-26T22:55:00","FM-15","7",,,,,,,,,,,,,,,,,,,,,,,,,,,,,,,,,,,,,,"29.86","54","57",,,,,"88",,"BKN:07 14","29.85","10.00","55","290",,"6",,,,,,,,,,,,,,,,,,,,,,,,,,,,,,,,,,,,,"MET07608/26/20 22:55:01 METAR KSQL 270655Z 29005KT 10SM BKN014 14/12 A2986 RMK AO2","FM-15","7",,,,,,,,,,,,,,,,,,,,,,,,,,,,
"72493893231","2020-08-26T23:15:00","FM-15","7",,,,,,,,,,,,,,,,,,,,,,,,,,,,,,,,,,,,,,"29.86","54","57",,,,,"88",,"OVC:08 14","29.85","10.00","55","270",,"7",,,,,,,,,,,,,,,,,,,,,,,,,,,,,,,,,,,,,"MET07608/26/20 23:15:01 METAR KSQL 270715Z 27006KT 10SM OVC014 14/12 A2986 RMK AO2","FM-15","7",,,,,,,,,,,,,,,,,,,,,,,,,,,,
"72493893231","2020-08-26T23:35:00","FM-15","7",,,,,,,,,,,,,,,,,,,,,,,,,,,,,,,,,,,,,,"29.86","54","57",,,,,"88",,"OVC:08 12","29.85","10.00","55","270",,"7",,,,,,,,,,,,,,,,,,,,,,,,,,,,,,,,,,,,,"MET07608/26/20 23:35:01 METAR KSQL 270735Z 27006KT 10SM OVC012 14/12 A2986 RMK AO2","FM-15","7",,,,,,,,,,,,,,,,,,,,,,,,,,,,
"72493893231","2020-08-26T23:55:00","FM-15","7",,,,,,,,,,,,,,,,,,,,,,,,,,,,,,,,,,,,,,"29.86","54","57",,,,,"88",,"OVC:08 12","29.85","10.00","55","280",,"7",,,,,,,,,,,,,,,,,,,,,,,,,,,,,,,,,,,,,"MET07608/26/20 23:55:01 METAR KSQL 270755Z 28006KT 10SM OVC012 14/12 A2986 RMK AO2","FM-15","7",,,,,,,,,,,,,,,,,,,,,,,,,,,,
"72493893231","2020-08-27T00:15:00","FM-15","7",,,,,,,,,,,,,,,,,,,,,,,,,,,,,,,,,,,,,,"29.86","54","57",,,,,"88",,"OVC:08 12","29.85","10.00","55","270",,"9",,,,,,,,,,,,,,,,,,,,,,,,,,,,,,,,,,,,,"MET07608/27/20 00:15:02 METAR KSQL 270815Z 27008KT 10SM OVC012 14/12 A2986 RMK AO2","FM-15","7",,,,,,,,,,,,,,,,,,,,,,,,,,,,
"72493893231","2020-08-27T00:35:00","FM-15","7",,,,,,,,,,,,,,,,,,,,,,,,,,,,,,,,,,,,,,"29.86","54","57",,,,,"88",,"OVC:08 12","29.85","10.00","55","280",,"11",,,,,,,,,,,,,,,,,,,,,,,,,,,,,,,,,,,,,"MET07608/27/20 00:35:02 METAR KSQL 270835Z 28010KT 10SM OVC012 14/12 A2986 RMK AO2","FM-15","7",,,,,,,,,,,,,,,,,,,,,,,,,,,,
"72493893231","2020-08-27T00:55:00","FM-15","7",,,,,,,,,,,,,,,,,,,,,,,,,,,,,,,,,,,,,,"29.86","54","57",,,,,"88",,"OVC:08 12","29.85","10.00","55","280",,"9",,,,,,,,,,,,,,,,,,,,,,,,,,,,,,,,,,,,,"MET07608/27/20 00:55:02 METAR KSQL 270855Z 28008KT 10SM OVC012 14/12 A2986 RMK AO2","FM-15","7",,,,,,,,,,,,,,,,,,,,,,,,,,,,
"72493893231","2020-08-27T01:15:00","FM-15","7",,,,,,,,,,,,,,,,,,,,,,,,,,,,,,,,,,,,,,"29.86","54","57",,,,,"88",,"OVC:08 12","29.85","10.00","55","270",,"8",,,,,,,,,,,,,,,,,,,,,,,,,,,,,,,,,,,,,"MET07608/27/20 01:15:02 METAR KSQL 270915Z 27007KT 10SM OVC012 14/12 A2986 RMK AO2","FM-15","7",,,,,,,,,,,,,,,,,,,,,,,,,,,,
"72493893231","2020-08-27T01:35:00","FM-15","7",,,,,,,,,,,,,,,,,,,,,,,,,,,,,,,,,,,,,,"29.85","54","57",,,,,"88",,"OVC:08 12","29.84","10.00","55","270",,"7",,,,,,,,,,,,,,,,,,,,,,,,,,,,,,,,,,,,,"MET07608/27/20 01:35:02 METAR KSQL 270935Z 27006KT 10SM OVC012 14/12 A2985 RMK AO2","FM-15","7",,,,,,,,,,,,,,,,,,,,,,,,,,,,
"72493893231","2020-08-27T01:55:00","FM-15","7",,,,,,,,,,,,,,,,,,,,,,,,,,,,,,,,,,,,,,"29.85","54","57",,,,,"88",,"OVC:08 12","29.84","10.00","55","270",,"7",,,,,,,,,,,,,,,,,,,,,,,,,,,,,,,,,,,,,"MET07608/27/20 01:55:02 METAR KSQL 270955Z 27006KT 10SM OVC012 14/12 A2985 RMK AO2","FM-15","7",,,,,,,,,,,,,,,,,,,,,,,,,,,,
"72493893231","2020-08-27T02:15:00","FM-15","7",,,,,,,,,,,,,,,,,,,,,,,,,,,,,,,,,,,,,,"29.85","54","57",,,,,"88",,"OVC:08 12","29.84","10.00","55","260",,"8",,,,,,,,,,,,,,,,,,,,,,,,,,,,,,,,,,,,,"MET07608/27/20 02:15:02 METAR KSQL 271015Z 26007KT 10SM OVC012 14/12 A2985 RMK AO2","FM-15","7",,,,,,,,,,,,,,,,,,,,,,,,,,,,
"72493893231","2020-08-27T02:35:00","FM-15","7",,,,,,,,,,,,,,,,,,,,,,,,,,,,,,,,,,,,,,"29.85","54","57",,,,,"88",,"OVC:08 12","29.84","10.00","55","270",,"7",,,,,,,,,,,,,,,,,,,,,,,,,,,,,,,,,,,,,"MET07608/27/20 02:35:02 METAR KSQL 271035Z 27006KT 10SM OVC012 14/12 A2985 RMK AO2","FM-15","7",,,,,,,,,,,,,,,,,,,,,,,,,,,,
"72493893231","2020-08-27T02:55:00","FM-15","7",,,,,,,,,,,,,,,,,,,,,,,,,,,,,,,,,,,,,,"29.85","54","57",,,,,"88",,"OVC:08 12","29.84","10.00","55","280",,"9",,,,,,,,,,,,,,,,,,,,,,,,,,,,,,,,,,,,,"MET07608/27/20 02:55:02 METAR KSQL 271055Z 28008KT 10SM OVC012 14/12 A2985 RMK AO2","FM-15","7",,,,,,,,,,,,,,,,,,,,,,,,,,,,
"72493893231","2020-08-27T03:15:00","FM-15","7",,,,,,,,,,,,,,,,,,,,,,,,,,,,,,,,,,,,,,"29.85","54","57",,,,,"88",,"OVC:08 12","29.84","10.00","55","280",,"7",,,,,,,,,,,,,,,,,,,,,,,,,,,,,,,,,,,,,"MET07608/27/20 03:15:02 METAR KSQL 271115Z 28006KT 10SM OVC012 14/12 A2985 RMK AO2","FM-15","7",,,,,,,,,,,,,,,,,,,,,,,,,,,,
"72493893231","2020-08-27T03:35:00","FM-15","7",,,,,,,,,,,,,,,,,,,,,,,,,,,,,,,,,,,,,,"29.85","52","57",,,,,"82",,"OVC:08 14","29.84","10.00","54","260",,"6",,,,,,,,,,,,,,,,,,,,,,,,,,,,,,,,,,,,,"MET07608/27/20 03:35:02 METAR KSQL 271135Z 26005KT 10SM OVC014 14/11 A2985 RMK AO2","FM-15","7",,,,,,,,,,,,,,,,,,,,,,,,,,,,
"72493893231","2020-08-27T03:55:00","FM-15","7",,,,,,,,,,,,,,,,,,,,,,,,,,,,,,,,,,,,,,"29.84","52","57",,,,,"82",,"OVC:08 14","29.83","10.00","54","280",,"7",,,,,,,,,,,,,,,,,,,,,,,,,,,,,,,,,,,,,"MET07608/27/20 03:55:02 METAR KSQL 271155Z 28006KT 10SM OVC014 14/11 A2984 RMK AO2","FM-15","7",,,,,,,,,,,,,,,,,,,,,,,,,,,,
"72493893231","2020-08-27T04:15:00","FM-15","7",,,,,,,,,,,,,,,,,,,,,,,,,,,,,,,,,,,,,,"29.85","52","57",,,,,"82",,"OVC:08 16","29.84","10.00","54","280",,"6",,,,,,,,,,,,,,,,,,,,,,,,,,,,,,,,,,,,,"MET07608/27/20 04:15:02 METAR KSQL 271215Z 28005KT 10SM OVC016 14/11 A2985 RMK AO2","FM-15","7",,,,,,,,,,,,,,,,,,,,,,,,,,,,
"72493893231","2020-08-27T04:35:00","FM-15","7",,,,,,,,,,,,,,,,,,,,,,,,,,,,,,,,,,,,,,"29.85","52","57",,,,,"82",,"OVC:08 16","29.84","10.00","54","260",,"6",,,,,,,,,,,,,,,,,,,,,,,,,,,,,,,,,,,,,"MET07608/27/20 04:35:02 METAR KSQL 271235Z 26005KT 10SM OVC016 14/11 A2985 RMK AO2","FM-15","7",,,,,,,,,,,,,,,,,,,,,,,,,,,,
"72493893231","2020-08-27T04:55:00","FM-15","7",,,,,,,,,,,,,,,,,,,,,,,,,,,,,,,,,,,,,,"29.85","52","57",,,,,"82",,"OVC:08 16","29.84","10.00","54","260",,"6",,,,,,,,,,,,,,,,,,,,,,,,,,,,,,,,,,,,,"MET07608/27/20 04:55:02 METAR KSQL 271255Z 26005KT 10SM OVC016 14/11 A2985 RMK AO2","FM-15","7",,,,,,,,,,,,,,,,,,,,,,,,,,,,
"72493893231","2020-08-27T05:15:00","FM-15","7",,,,,,,,,,,,,,,,,,,,,,,,,,,,,,,,,,,,,,"29.85","52","57",,,,,"82",,"OVC:08 16","29.84","10.00","54","250",,"5",,,,,,,,,,,,,,,,,,,,,,,,,,,,,,,,,,,,,"MET07608/27/20 05:15:02 METAR KSQL 271315Z 25004KT 10SM OVC016 14/11 A2985 RMK AO2","FM-15","7",,,,,,,,,,,,,,,,,,,,,,,,,,,,
"72493893231","2020-08-27T05:35:00","FM-15","7",,,,,,,,,,,,,,,,,,,,,,,,,,,,,,,,,,,,,,"29.85","54","57",,,,,"88",,"OVC:08 16","29.84","10.00","55","260",,"3",,,,,,,,,,,,,,,,,,,,,,,,,,,,,,,,,,,,,"MET07608/27/20 05:35:02 METAR KSQL 271335Z 26003KT 10SM OVC016 14/12 A2985 RMK AO2","FM-15","7",,,,,,,,,,,,,,,,,,,,,,,,,,,,
"72493893231","2020-08-27T05:51:00","FM-15","4",,,,,,,,,,,,,,,,,,,,,,,,,,,,,,,,,,,,,,"29.86","52","57",,,,,"82",,,,"10.00",,"240",,"6",,,,,,,,,,,,,,,,,,,,,,,,,,,,,,,,,,,,,"MET051METAR KSQL 271351Z 24005KT 10SM BKN016 14/11 A2986=","FM-15","4",,,,,,,,,,,,,,,,,,,,,,,,,,,,
"72493893231","2020-08-27T05:55:00","FM-15","7",,,,,,,,,,,,,,,,,,,,,,,,,,,,,,,,,,,,,,"29.86","52","57",,,,,"82",,"OVC:08 16","29.85","10.00","54","260",,"5",,,,,,,,,,,,,,,,,,,,,,,,,,,,,,,,,,,,,"MET07608/27/20 05:55:02 METAR KSQL 271355Z 26004KT 10SM OVC016 14/11 A2986 RMK AO2","FM-15","7",,,,,,,,,,,,,,,,,,,,,,,,,,,,
"72493893231","2020-08-27T06:56:00","FM-15","7",,,,,,,,,,,,,,,,,,,,,,,,,,,,,,,,,,,,,,"29.87","54","57",,,,,"88",,"BKN:07 16","29.86","8.00","55","240",,"6",,,,,,,,,,,,,,,,,,,,,,,,,,,,,,,,,,,,,"MET07108/27/20 06:56:02 METAR KSQL 271456Z 24005KT 8SM BKN016 14/12 A2987 RMK","FM-15","7",,,,,,,,,,,,,,,,,,,,,,,,,,,,
"72493893231","2020-08-27T07:58:00","FM-15","7",,,,,,,,,,,,,,,,,,,,,,,,,,,,,,,,,,,,,,"29.86","54","61",,,,,"77",,"BKN:07 16","29.85","8.00","57","VRB",,"3",,,,,,,,,,,,,,,,,,,,,,,,,,,,,,,,,,,,,"MET07108/27/20 07:58:02 METAR KSQL 271558Z VRB03KT 8SM BKN016 16/12 A2986 RMK","FM-15","7",,,,,,,,,,,,,,,,,,,,,,,,,,,,
"72493893231","2020-08-27T08:48:00","FM-15","7",,,,,,,,,,,,,,,,,,,,,,,,,,,,,,,,,,,,,,"29.87","55","63",,,,,"77",,"BKN:07 18","29.86","10.00","58","VRB",,"5",,,,,,,,,,,,,,,,,,,,,,,,,,,,,,,,,,,,,"MET07208/27/20 08:48:02 METAR KSQL 271648Z VRB04KT 10SM BKN018 17/13 A2987 RMK","FM-15","7",,,,,,,,,,,,,,,,,,,,,,,,,,,,
"72493893231","2020-08-27T09:47:00","FM-15","7",,,,,,,,,,,,,,,,,,,,,,,,,,,,,,,,,,,,,,"29.87","55","64",,,,,"73",,"FEW:02 18","29.86","8.00","59","VRB",,"5",,,,,,,,,,,,,,,,,,,,,,,,,,,,,,,,,,,,,"MET07108/27/20 09:47:02 METAR KSQL 271747Z VRB04KT 8SM FEW018 18/13 A2987 RMK","FM-15","7",,,,,,,,,,,,,,,,,,,,,,,,,,,,
"72493893231","2020-08-27T10:47:00","FM-15","7",,,,,,,,,,,,,,,,,,,,,,,,,,,,,,,,,,,,,,"29.86","55","66",,,,,"68",,"FEW:02 18","29.85","10.00","60","360",,"7",,,,,,,,,,,,,,,,,,,,,,,,,,,,,,,,,,,,,"MET07208/27/20 10:47:02 METAR KSQL 271847Z 36006KT 10SM FEW018 19/13 A2986 RMK","FM-15","7",,,,,,,,,,,,,,,,,,,,,,,,,,,,
"72493893231","2020-08-27T11:51:00","FM-15","6",,,,,,,,,,,,,,,,,,,,,,,,,,,,,,,,,,,,,,"29.84","57","64",,,,,"78",,"FEW:02 18","29.83","10.00","60","360",,"11",,,,,,,,,,,,,,,,,,,,,,,,,,,,,,,,,,,,,"MET07208/27/20 11:51:01 METAR KSQL 271951Z 36010KT 10SM FEW018 18/14 A2984 RMK","FM-15","6",,,,,,,,,,,,,,,,,,,,,,,,,,,,